Alt_Name,DEP_Check,NWI_Check,Acres,Village,Type_of_Pond,Town,Latitude,Longitude,Trophic_Class,Trophic_State_Index__TSI_,Inlet,Outlet,Volume__cubic_meters_,Maximum_Depth__ft_,Connected_to_cranberry_bog,Stocked_with_Trout,Watershed_Delineated,Herring_Run,Shape_Length,Shape_Area,NHESP_NaturalCommunity,POSPinBuffer,OBJECTID,CCC_GIS_ID,Name,Great_Pond
Kellys Pond,Open Water,,31.6239366760539,West Dennis,,Dennis,41.6601408231032,-70.1761115455992,Not Indicated,,No,Yes,,30,No,No,Yes,No,1896.08263980839,127977.53123906,No,5,3,DE-706,Kelleys Pond,Yes - not on State List
 ,Open Water,Freshwater Pond,8.88474529007931,Woods Hole,,Falmouth,41.5183845076228,-70.6588149723833,Not Indicated,,,,,,No,No,No,,1177.82904569007,35955.2885385456,No,0,4,FA-1027,Nobska Pond,No
Great Flat Pond,Open Water,,39.6386712441644,Mashpee,,Mashpee,41.55401447522,-70.4941311393157,Not Indicated,,,,,6,No,No,Yes,,2393.62430367001,160412.011299849,No,51,6,MA-987,Flat Pond,Yes - on State List
 ,Open Water,,7.60183093226975,Falmouth,,Falmouth,41.5928729476726,-70.639620533441,Not Included,,,,,,No,No,No,,740.298368622114,30763.5183302548,No,29,7,FA-933,Fresh Pond,No
 ,,,3.62228010099421,Falmouth,,Falmouth,41.5434922055172,-70.6126089544164,Not Indicated,,,,,,No,No,No,,692.173264743514,14658.8474904401,No,0,8,FA-1008,Palmers Pond,No
Salt Pond,Open Water,,1.13989706321932,Mashpee,,Mashpee,41.5552483597525,-70.4857608427613,Not Indicated,,,,,,No,No,No,,360.946680453887,4612.99975116399,No,0,9,MA-992,Lily Pond,No
 ,Open Water,,1.35388316271001,Mashpee,,Mashpee,41.5582690408168,-70.4977692589525,Not Indicated,,,,,,No,No,No,,574.324876668474,5478.97077219224,No,100,10,MA-982,Beccas Pond,No
 ,Open Water,Freshwater Pond,6.69369783125321,North Falmouth,,Falmouth,41.6328923687128,-70.6308302987238,Not Included,,,,,,Yes,No,Yes,,1192.32185488805,27088.434058012,No,9,11,FA-832,Dam Pond,No
 ,Open Water,Freshwater Pond,5.41536621896544,South Yarmouth,,Yarmouth,41.6754785627933,-70.175623891108,Not Indicated,,No,Yes,,20,No,No,No,Yes,903.816721714109,21915.2095628683,No,89,12,YA-630,Labans Pond,No
 ,Open Water,Freshwater Pond,10.8927003238699,Buzzards Bay,,Bourne,41.7489671288397,-70.6007207495984,Not Indicated,,,,,,No,No,No,,934.36200544488,44081.1942629313,No,0,13,BO-239,Bourne Pond,Yes - not on State List
 ,Open Water,Freshwater Pond,7.66003858098864,Falmouth,,Falmouth,41.5541305521688,-70.6154577152963,Not Indicated,,,,,,No,No,No,,820.251663646526,30999.0763273057,No,0,15,FA-996,Shivericks Pond,Yes - on State List
 ,Open Water,Freshwater Pond,7.41451190237156,Osterville,,Barnstable,41.6384532178888,-70.399782959651,Mesotrophic,,,,,,No,No,Yes,,704.101183038652,30005.4651110736,No,0,16,BA-802,Bog Pond,No
 ,Open Water,Freshwater Pond,3.30231345391175,Wellfleet,,Wellfleet,41.9525773920118,-70.0313803004446,Not Indicated,,,,,,No,No,No,,479.965334441386,13363.9884097407,No,0,17,WE-62,Perch Pond,No
 ,Open Water,Freshwater Pond,4.69424752372475,Falmouth,,Falmouth,41.556672774375,-70.614261431911,Not Indicated,,,,,,No,No,No,,526.51800878555,18996.9457397208,No,1,18,FA-990,Weeks Pond,No
 ,Open Water,Freshwater Pond,11.0120703259652,Osterville,,Barnstable,41.6182229970385,-70.3728036624963,Mesotrophic,,,,,,No,No,No,,827.878012122539,44564.2675225527,No,0,20,BA-878,Crystal Lake,Yes - not on State List
 ,Open Water,Freshwater Pond,12.3154318927747,Osterville,,Barnstable,41.6186791989605,-70.387518819016,Eutrophic,,,,,,No,No,No,,1286.61086118961,49838.7846499052,No,14,21,BA-875,Parker Pond,Yes - not on State List
 ,Open Water,Freshwater Pond,7.44598729260563,Osterville,,Barnstable,41.6479243610667,-70.3765474421694,Not Indicated,,,,,,No,No,Yes,,1487.58782770058,30132.8414961899,No,90,22,BA-764,West Pond,No
 ,Open Water,Freshwater Pond,0.675619525792104,Chatham,,Chatham,41.6795181866848,-69.9845544499189,Not Included,,,,,,No,No,No,,203.398293508646,2734.13521705062,No,0,23,CH-582,Meadow View Pond,No
 ,Open Water,Freshwater Pond,4.73450977524403,Chatham,,Chatham,41.7176370040016,-69.9702785751703,Not Indicated,,,,,,No,No,No,,581.077241762049,19159.8812908619,No,6,24,CH-341,Fox Pond,No
Sewells Pond,Open Water,Freshwater Pond,17.9669936326817,Buzzards Bay,,Bourne,41.7554703700658,-70.6044190664317,Not Indicated,,,,333308.592003432,28,Yes,No,No,,1218.72648202589,72709.843573638,No,4,25,BO-212,Queen Sewell Pond,Yes - not on State List
 ,Open Water,Freshwater Pond,16.1432144425441,Orleans,,Orleans,41.7950932782002,-69.9917328531276,Eutrophic,,No,No,166999.847249434,14,No,No,Yes,Yes,1298.30484502173,65329.2710449899,No,1,26,OR-122,Cedar Pond,Yes - on State List
 ,Open Water,Freshwater Pond,0.884039428337553,Wellfleet,,Wellfleet,41.9388375395031,-70.0225766413974,Not Indicated,,,,,,No,No,No,,543.095441150657,3577.58063822265,No,0,27,WE-73,Hawes Pond,No
 ,,Freshwater Pond,22.8296513787102,Provincetown,,Provincetown,42.0474412604403,-70.2031132119354,Not Indicated,,,,,3,No,No,No,,4702.52021714679,92388.3213030864,No,54,28,PR-34,Shank Painter Pond,Yes - on State List
 ,Open Water,Freshwater Pond,14.4163142357835,Falmouth,,Falmouth,41.5572960241717,-70.6049864999973,Not Indicated,,,,,,No,No,Yes,,1213.66405012581,58340.7538524168,No,25,29,FA-988,Morse Pond,Yes - on State List
Fells Pond,Open Water,Freshwater Pond,10.4468165596291,Mashpee,,Mashpee,41.5694694642286,-70.4799437211425,Not Indicated,,Yes,Yes,,65,No,No,No,Yes,1090.40705991754,42276.7666879699,No,19,30,MA-960,Jim Pond,Yes - not on State List
 ,Open Water,Freshwater Pond,1.12818861263426,Mashpee,,Mashpee,41.5728769386177,-70.4792983825031,Not Indicated,,,,,65,No,No,No,,328.044331011597,4565.61733271749,No,73,31,MA-954,Witch Pond,No
 ,Open Water,Freshwater Pond,3.11537598786396,East Falmouth,,Falmouth,41.583285925022,-70.5215913602621,Not Indicated,,Yes,Yes,,,No,No,No,No,437.894841562995,12607.479324678,No,53,32,FA-944,Bog Pond,No
 ,Open Water,Freshwater Pond,11.2170344723844,East Falmouth,,Falmouth,41.5848088461703,-70.5206835914901,Not Indicated,,No,Yes,,18,No,No,Yes,No,978.092814214872,45393.7279948512,No,40,33,FA-941,Bournes Pond,Yes - on State List
 ,Open Water,Freshwater Pond,14.2178256486646,Osterville,,Barnstable,41.6192845023095,-70.38298759632,Oligotrophic,,,,,,No,No,No,,1083.63221909216,57537.4990388618,No,0,34,BA-874,Neck Pond,Yes - not on State List
 ,Open Water,Freshwater Pond,2.35160589206239,Dennisport,,Dennis,41.6597020549661,-70.1340333490783,Not Indicated,,No,Yes,,,No,No,No,No,632.753856843895,9516.61140724635,No,78,35,DE-714,The Plashes,No
 ,Open Water,Freshwater Pond,1.8154687735709,Dennisport,,Dennis,41.6619565687227,-70.1328417043859,Not Indicated,,,,,,No,No,No,,521.787509718351,7346.94146599204,No,73,36,DE-705,Great Pond Plash,No
Quanset Pond Bog,Open Water,Freshwater Pond,2.54370685428109,Orleans,,Orleans,41.7396509296946,-69.9770455395628,Not Included,,,,,,No,No,Yes,,401.331965720598,10294.0164199503,No,37,37,OR-256,Meadow Bog Pond,No
 ,Open Water,Freshwater Pond,1.20945831688801,Wellfleet,,Wellfleet,41.9406722807415,-70.0298407424629,Not Indicated,,,,,,No,No,No,,269.625751235957,4894.50415732334,No,0,38,WE-69,Squires Pond,No
 ,,,0.844442492649638,Wellfleet,,Wellfleet,41.9529114194039,-69.9905401537674,Not Included,,,,,,No,No,No,,236.823674543887,3417.33752472665,No,82,39,WE-60,Doanes Bog Pond,No
 ,Open Water,Freshwater Pond,7.76703057849623,North Truro,,Truro,42.0213739427405,-70.0857086827114,Not Indicated,,,,170833.459050442,35,No,No,No,,997.008518204554,31432.0575795647,No,12,40,TR-39,Great Swamp Pond,No
 ,Open Water,Freshwater Pond,2.76730084617582,North Truro,,Truro,42.032119182851,-70.0903153880072,Not Included,,,,,5,No,No,No,,887.816918723679,11198.8692020596,No,12,41,TR-38,Village Pond,No
 ,,,42.7841419118628,Provincetown,,Provincetown,42.0520951053751,-70.210775502008,Not Included,,,,,3,No,No,No,,4066.78720234857,173141.279472895,No,99,42,PR-28,Clapps Pond,Yes - on State List
 ,,,6.1240281903934,Provincetown,,Provincetown,42.0688423688518,-70.185828671491,Not Included,,,,,3,No,No,No,,843.381489469926,24783.0628132522,No,100,43,PR-1,Grassy Pond,No
 ,Open Water,Freshwater Pond,6.128546576948,Falmouth,,Falmouth,41.5544248141013,-70.6078596746918,Not Indicated,,,,,,No,No,No,,585.787762674555,24801.3480748995,No,24,44,FA-995,Nyes Pond,No
 ,Open Water,,3.78585590086416,Hyannis,,Barnstable,41.6367752548235,-70.2859696050395,Not Indicated,,,,,,No,No,No,,883.049261908307,15320.8152666931,No,14,45,BA-799, ,No
 ,Open Water,Freshwater Pond,7.14702469782017,Centerville,,Barnstable,41.6391100239358,-70.333075693724,Eutrophic,,,,13555.8251708227,4,No,No,Yes,,1085.96787297102,28922.982799425,No,0,46,BA-795,Lake Elizabeth,Yes - on State List
 ,Open Water,Freshwater Pond,4.19829973142633,West Yarmouth,,Yarmouth,41.6579599554414,-70.2609523844504,Not Included,,Yes,Yes,,5,No,No,Yes,Yes,1002.01119624358,16989.9162312828,No,47,47,YA-722,Mill Pond,No
 ,Open Water,Freshwater Pond,18.0608006402064,South Harwich,,Harwich,41.6737515668302,-70.0429098787881,Eutrophic,,,,380328.178579775,32,No,No,No,,1124.52877656647,73089.4670645055,No,3,48,HA-629,Skinequit Pond,Yes - on State List
 ,Open Water,Lake,72.7704256239634,West Harwich,,Harwich,41.6843008503558,-70.1186727413692,Not Indicated,,No,Yes,167864.989467081,6,Yes,No,No,Yes,5164.22683054024,294491.464297118,No,89,49,HA-530,West Reservoir,Yes - not on State List
 ,Open Water,Freshwater Pond,11.3737525638544,South Dennis,,Dennis,41.75691930637,-70.1366529958615,Eutrophic,,No,Yes,,5.19999980926514,No,No,Yes,No,1066.1889365271,46027.9436098227,No,27,50,DE-201,Coles Pond,Yes - not on State List
 ,Open Water,Freshwater Pond,3.71579593136466,Provincetown,,Provincetown,42.0562710022905,-70.1952351315258,Not Included,,,,,3,No,No,No,,840.948343907181,15037.2926291709,No,75,51,PR-26,Duck Pond,No
 ,,,1.66759040513135,Provincetown,,Provincetown,42.0569998847151,-70.210164694578,Not Indicated,,,,,3,No,No,No,,411.4787885249,6748.49894093841,No,100,52,PR-25,Clapps Round Pond,No
 ,,,2.58466365116986,Provincetown,,Provincetown,42.0589993810841,-70.2020030631329,Not Indicated,,,,,3,No,No,No,,488.372186233885,10459.7626964806,No,100,53,PR-20,Little Bennet Pond,No
 ,,,11.5245604440234,Provincetown,,Provincetown,42.0597291943234,-70.2076543181582,Not Included,,,,,3,No,No,No,,2010.09882625747,46638.2414482333,No,100,54,PR-16,Pasture Pond,Yes - not on State List
 ,Open Water,,0.437286346689989,East Falmouth,,Falmouth,41.5594009228528,-70.5337688294481,Not Indicated,,,,,,No,No,No,,178.673224576312,1769.63506053021,No,100,55,FA-981, ,No
 ,Open Water,,2.257367138865,Woods Hole,,Falmouth,41.5286023740667,-70.6717992233229,Not Indicated,,,,,,No,No,No,,512.354945406086,9135.24070363052,No,2,56,FA-1018, ,No
 ,Open Water,,0.709499851793677,Falmouth,,Falmouth,41.5804789889781,-70.6394277429741,Not Indicated,,,,,,No,No,No,,269.147315208578,2871.24403192309,No,3,57,FA-950, ,No
 ,Open Water,,0.287499733554859,Cotuit,,Barnstable,41.6098604370636,-70.4347848001595,Not Indicated,,,,,,No,No,No,,154.447588135094,1163.47014317477,No,0,58,BA-905, ,No
,,,0.436617711598598,Osterville,,Barnstable,41.6164944876371,-70.4216750235303,,,,,,,No,No,No,,319.62062777535,1766.92919031638,No,89,59,BA-1039,,No
 ,,,0.902296960524907,North Falmouth,,Falmouth,41.640056190389,-70.6405233007239,Not Indicated,,,,,,No,No,No,,419.019814089703,3651.46624961222,No,4,60,FA-803, ,No
 ,Open Water,,2.30240046925867,Woods Hole,,Falmouth,41.5339825735891,-70.6434212977699,Not Indicated,,,,,,No,No,No,,415.014890734706,9317.48412595622,No,26,61,FA-1015, ,No
 ,Open Water,,3.73078480696932,Falmouth,,Falmouth,41.5363240858513,-70.640124687042,Not Indicated,,,,,,No,No,No,,714.184130316832,15097.9504566761,No,18,62,FA-1013, ,No
,,,0.421594388074639,Falmouth,,Falmouth,41.5442624521123,-70.6203798133789,,,,,,,No,No,No,,150.497810271183,1706.13195702765,No,46,63,FA-1040,,No
 ,Open Water,Freshwater Pond,0.519933461566269,Falmouth,,Falmouth,41.5462778421821,-70.6295174136374,Not Indicated,,,,,,No,No,No,,352.532257493842,2104.09606816012,No,27,64,FA-1006, ,No
,Open Water,,0.258745584304346,Mashpee,,Mashpee,41.5554749715862,-70.4868147105288,,,,,,,No,No,No,,122.821444509853,1047.10622960968,No,0,65,MA-1041,,No
 ,,,0.471877141023823,East Falmouth,,Falmouth,41.5729479539857,-70.5313742036026,Not Indicated,,,,,,No,No,No,,214.827523616117,1909.61903873601,No,0,66,FA-955, ,No
 ,,,0.241636110918023,Falmouth,,Falmouth,41.5947503067306,-70.6443524850109,Not Indicated,,,,,,No,No,No,,124.924836332682,977.866647352361,No,41,67,FA-930, ,No
 ,Open Water,,3.28941418283757,Falmouth,,Falmouth,41.5970020015803,-70.6446428395146,Not Indicated,,,,,,No,No,No,,901.043758254348,13311.7869117499,No,23,68,FA-923, ,No
 ,,,0.788260261496275,Cotuit,,Barnstable,41.6004125896786,-70.4423831532997,Not Indicated,,,,,,No,No,No,,255.011781785363,3189.97610175891,No,0,69,BA-917, ,No
 ,,,1.48355385380911,Osterville,,Barnstable,41.6217925959042,-70.414392083059,Not Indicated,,,,,,No,No,No,,512.480612464387,6003.72944126365,No,72,70,BA-862, ,No
,,,0.442142082252569,Osterville,,Barnstable,41.6230760283345,-70.4131387409966,,,,,,,No,No,No,,222.365053572857,1789.28552517712,No,82,71,BA-1042,,No
,,,0.51597664713171,West Dennis,,Dennis,41.6643591328507,-70.1618183516758,,,,,,,No,No,No,,298.710886559422,2088.08340825338,No,0,72,DE-1043,,No
 ,Open Water,Freshwater Pond,0.890119962782319,Harwichport,,Harwich,41.6729115634671,-70.062681998956,Not Indicated,,,,,,Yes,No,No,,352.496627944183,3602.18768809207,No,57,73,HA-645, ,No
 ,Open Water,,1.05075810231618,Pocasset,,Bourne,41.7078575159555,-70.6227237471867,Not Indicated,,,,,,No,No,No,,335.404236394611,4252.26717474708,No,0,74,BO-417, ,No
 ,,Freshwater Pond,5.47538781653426,North Chatham,,Chatham,41.7056053815335,-69.9580637020718,Not Indicated,,,,,,No,No,Yes,,950.584438641575,22158.1083504724,No,9,75,CH-378,Bassing Pond,No
,,,0.326018003529983,Buzzards Bay,,Bourne,41.7356885785275,-70.6044919349636,,,,,,,Yes,No,No,,169.723884664239,1319.34805140334,No,0,76,BO-1044,,No
 ,Open Water,,0.539407182463825,Woods Hole,,Falmouth,41.5196480294942,-70.6545818391869,Not Indicated,,,,,,No,No,No,,180.388471799393,2182.90342064242,No,11,77,FA-1026, ,No
,Open Water,,0.775340176372852,Woods Hole,,Falmouth,41.5212786693909,-70.6692151415703,,,,,,,No,No,No,,272.769368422038,3137.69037229922,No,0,78,FA-1045,,No
 ,Open Water,,0.558793817584747,Woods Hole,,Falmouth,41.5238933626905,-70.6862312537497,Not Indicated,,,,,,No,No,No,,214.435608898546,2261.35834949025,No,0,79,FA-1023, ,No
 ,Open Water,Freshwater Pond,0.794217379586594,Falmouth,,Falmouth,41.6027666613919,-70.6499811468472,Not Indicated,,,,,,No,No,No,,235.749348249377,3214.08370336171,No,0,80,FA-915, ,No
 ,Open Water,,0.362983901293743,Cotuit,,Barnstable,41.6025143529318,-70.4439994604521,Not Indicated,,,,,,No,No,No,,147.379547588391,1468.94373217839,No,0,81,BA-912, ,No
 ,,,3.0922858529172,West Yarmouth,,Yarmouth,41.6204050316299,-70.2650344338957,Not Indicated,,,,,,No,No,No,,762.877816281978,12514.0368637746,No,0,82,YA-865, ,No
 ,Open Water,Freshwater Pond,2.11678262498566,West Yarmouth,,Yarmouth,41.6206344235384,-70.261255315722,Not Indicated,,,,,,No,No,No,,406.015752161101,8566.31536074797,No,14,83,YA-861, ,No
 ,,,1.16973118808567,Dennisport,,Dennis,41.6582250509059,-70.1202004348934,Not Indicated,,,,,,No,No,No,,737.856172408085,4733.73417098608,No,46,84,DE-713, ,No
 ,Open Water,,0.276847311467285,West Dennis,,Dennis,41.6633780457762,-70.1772298849746,Not Indicated,,,,,,No,No,No,,151.124552951743,1120.36132043555,No,11,85,DE-702, ,No
,,,1.67896563951398,Chatham,,Chatham,41.6668319166928,-69.9821836685547,,,,,,,No,No,No,,326.54885324108,6794.53288125608,No,11,86,CH-1046,,No
,,,0.999748879180004,Pocasset,,Bourne,41.6997471634028,-70.6166238532464,,,,,,,No,No,No,,386.702892460073,4045.8401724968,No,3,87,BO-1047,,No
 ,Open Water,Freshwater Pond,0.277019690180525,Orleans,,Orleans,41.7302462649839,-69.9920999267865,Not Indicated,,,,,,Yes,No,No,,139.548952528164,1121.05891233832,No,0,88,OR-291, ,No
 ,Open Water,Freshwater Pond,0.265807126599999,Buzzards Bay,,Bourne,41.7376637237069,-70.6141081500312,Not Indicated,,,,,,No,No,No,,131.532724679586,1075.68327740089,No,0,89,BO-290, ,No
 ,Open Water,Freshwater Pond,1.07864324944838,East Sandwich,,Sandwich,41.7499465806474,-70.4411409046257,Not Indicated,,,,,,No,No,No,,383.676392738742,4365.11436150857,No,6,90,SA-231, ,No
 ,,,0.497878628728625,Wellfleet,,Wellfleet,41.9623994095255,-70.0247846654527,Not Indicated,,,,,,No,No,No,,198.764062201859,2014.84332624614,No,91,91,WE-58, ,No
,,,0.268481027715323,Truro,,Truro,41.9983653360729,-70.0228807620197,,,,,,,No,No,No,,162.912190383138,1086.50417130231,No,82,92,TR-1048,,No
 ,Open Water,Freshwater Pond,2.17940409472457,Truro,,Truro,42.0018912543825,-70.0281760221015,Not Indicated,,,,,,No,No,No,,367.412688736475,8819.735457741,No,88,93,TR-44, ,No
 ,Open Water,,0.24160645316505,Woods Hole,,Falmouth,41.5329519992809,-70.6681042228564,Not Indicated,,,,,,No,No,No,,158.675653594166,977.746626684266,No,0,94,FA-1016, ,No
 ,,,1.21514399038488,Falmouth,,Falmouth,41.558920188723,-70.6527651704524,Not Indicated,,,,,,No,No,No,,477.722156256205,4917.51326162981,No,36,95,FA-984, ,No
 ,Open Water,,4.05285709158642,Falmouth,,Falmouth,41.5733381106555,-70.6393195074098,Not Indicated,,,,,,No,No,No,,815.537516692702,16401.3307501559,No,37,96,FA-956, ,No
 ,Open Water,Freshwater Pond,1.12326966338161,Falmouth,,Falmouth,41.5844517816003,-70.6363649681606,Not Indicated,,,,,,No,No,No,,374.296126866727,4545.71105134295,No,13,97,FA-943, ,No
,,,0.2919085310338,Falmouth,,Falmouth,41.5855737255621,-70.6365376181841,,,,,,,No,No,No,,192.654467373389,1181.31191356748,No,18,98,FA-1049,,No
 ,Open Water,,0.694124942787402,Falmouth,,Falmouth,41.6154912782177,-70.6452231516308,Not Indicated,,,,,,No,No,No,,315.595948864713,2809.02398266723,No,0,99,FA-898, ,No
,,,0.393269271411412,Osterville,,Barnstable,41.6217308891811,-70.3713604802241,,,,,,,No,No,No,,363.915204450329,1591.50427674384,No,15,100,BA-1050,,No
 ,Open Water,Freshwater Pond,1.28770126463022,Osterville,,Barnstable,41.6417606310137,-70.4042915887291,Not Indicated,,,,,,No,No,No,,361.653751348966,5211.14213290142,No,0,101,BA-791, ,No
 ,Open Water,Freshwater Pond,2.87912783826561,North Falmouth,,Falmouth,41.6444901855824,-70.6313648127134,Not Indicated,,,,,,No,No,Yes,,619.560651172912,11651.4169831958,No,0,102,FA-783,Trout Pond,No
 ,Open Water,Freshwater Pond,1.52147132661915,Dennisport,,Dennis,41.6562911411381,-70.1380134593081,Not Indicated,,,,,,No,No,No,,344.04727425834,6157.17600962614,No,10,103,DE-725, ,No
,,,0.565495994747207,West Dennis,,Dennis,41.6594213954358,-70.170719327984,,,,,,,No,No,No,,283.419054952932,2288.48109818421,No,0,104,DE-1051,,No
 ,,Freshwater Pond,1.96882660927613,Chatham,,Chatham,41.6717141410155,-69.9968319554177,Not Indicated,,,,,,No,No,No,,508.731498261477,7967.55860834113,No,0,105,CH-648, ,No
 ,Open Water,,0.450387274660645,Pocasset,,Bourne,41.7126177360202,-70.6148589800004,Not Indicated,,,,,,No,No,No,,162.192930035258,1822.65263502766,No,0,106,BO-388, ,No
 ,Open Water,Freshwater Pond,0.60998234178537,East Sandwich,,Sandwich,41.7525167055149,-70.4469001506282,Not Indicated,,,,,,Yes,No,No,,515.079295833495,2468.51095740472,No,7,107,SA-222, ,No
 ,,,1.93215412307079,Provincetown,,Provincetown,42.0528996677045,-70.216559428955,Not Indicated,,,,,,No,No,No,,461.036324071498,7819.15032201567,No,100,108,PR-30, ,No
 ,Open Water,Freshwater Pond,0.602655437423805,Mashpee,,Mashpee,41.5593530026121,-70.482274519682,Not Indicated,,,,,,No,No,No,,203.774131088832,2438.86002743281,No,0,109,MA-980, ,No
 ,,,3.80742690817911,Mashpee,,Mashpee,41.5710276571191,-70.4715080349365,Not Indicated,,,,,,No,No,No,,1229.98983034644,15408.1100361832,No,0,111,MA-953, ,No
 ,,,3.21510600602905,Mashpee,,Mashpee,41.5766805780765,-70.4673978106781,Not Indicated,,,,,,No,No,No,,1039.9867610674,13011.0723891955,No,0,112,MA-951, ,No
 ,Open Water,,2.43047888540915,Falmouth,,Falmouth,41.6222500449036,-70.6384636564936,Not Indicated,,,,,,No,No,No,,673.46524966909,9835.79908692563,No,42,113,FA-872, ,No
 ,Open Water,Freshwater Pond,2.05937020294655,Hyannis,,Barnstable,41.6358148133288,-70.3088082739838,Not Indicated,,,,,,No,No,No,,435.060791677455,8333.97553189343,No,0,114,BA-813, ,No
 ,Open Water,,1.62073101529255,West Yarmouth,,Yarmouth,41.6475795789251,-70.2716161198014,Not Indicated,,,,,,No,No,No,,375.304609715355,6558.86571821954,No,8,115,YA-766, ,No
 ,,,1.45571644240999,West Yarmouth,,Yarmouth,41.6478082792607,-70.2644173985629,Not Indicated,,,,,,No,No,No,,682.777025413452,5891.07543416016,No,25,116,YA-763, ,No
 ,Open Water,Freshwater Pond,0.582375012581951,Dennisport,,Dennis,41.6568044871918,-70.1397694876151,Not Indicated,,,,,,No,No,No,,194.910385997161,2356.78805991255,No,21,117,DE-724, ,No
 ,,Freshwater Pond,0.328786294364147,Chatham,,Chatham,41.670927653848,-69.9974053417799,Not Indicated,,,,,,No,No,No,,135.931769354817,1330.55092694465,No,0,118,CH-656, ,No
 ,Open Water,Freshwater Pond,0.265498612072159,Yarmouthport,,Yarmouth,41.7031113847345,-70.1995663961943,Not Indicated,,,,,,Yes,No,No,,120.259001356179,1074.4347634025,No,9,119,YA-427, ,No
 ,Open Water,Freshwater Pond,0.305841046396417,Buzzards Bay,,Bourne,41.7364391531531,-70.6170910818936,Not Indicated,,,,,,No,No,No,,145.412067250851,1237.69480284288,No,0,120,BO-292, ,No
,,,0.935548530607572,East Sandwich,,Sandwich,41.7504311870528,-70.4501386099292,,,,,,,Yes,No,No,,374.872878903613,3786.03057955614,No,0,121,SA-1052,,No
,,,1.9422956548639,East Sandwich,,Sandwich,41.7517182385899,-70.4481932157784,,,,,,,Yes,No,No,,341.178495889149,7860.1916450856,No,0,122,SA-1053,,No
 ,Open Water,,0.544276290839042,Dennis,,Dennis,41.7513714424963,-70.1891263460011,Not Indicated,,,,,,No,No,No,,210.707282315158,2202.60800314203,No,32,123,DE-217, ,No
 ,Open Water,,0.343222802598222,Orleans,,Orleans,41.7982814684482,-69.9452322183838,Not Indicated,,,,,,No,No,No,,149.943463363804,1388.97340300874,No,11,124,OR-114, ,No
,,,0.909392033350005,Truro,,Truro,41.9828280047797,-70.0599501558137,,,,,,,No,No,No,,514.672769317623,3680.17899064186,No,74,125,TR-1054,,No
 ,Open Water,Freshwater Pond,0.752835104979621,North Truro,,Truro,42.0224778331055,-70.0834139108453,Not Indicated,,,,,,No,No,No,,312.753644276676,3046.61557959496,No,9,126,TR-40, ,No
,,,0.286340995335342,Provincetown,,Provincetown,42.045940464419,-70.2081613623987,,,,,,,No,No,No,,200.786839677529,1158.78089596924,No,87,127,PR-1055,,No
 ,,,6.55426880185796,Provincetown,,Provincetown,42.0464189225808,-70.2089134927391,Not Indicated,,,,,,No,No,No,,1539.92433545916,26524.1847949348,No,81,128,PR-37, ,No
 ,,,0.542173338746279,Provincetown,,Provincetown,42.0496524387423,-70.1952713512453,Not Indicated,,,,,,No,No,No,,224.932324723918,2194.09765795943,No,27,129,PR-33, ,No
 ,,,1.0077255461147,Provincetown,,Provincetown,42.050988100794,-70.2150598172274,Not Indicated,,,,,,No,No,No,,398.919866405094,4078.12059831084,No,100,130,PR-32, ,No
,,,1.52625841313934,Provincetown,,Provincetown,42.0552927283394,-70.2152475152048,,,,,,,No,No,No,,597.877092191958,6176.54866145496,No,100,131,PR-1056,,No
 ,,,0.629575540337169,Provincetown,,Provincetown,42.0615626933901,-70.1821844032862,Not Indicated,,,,,,No,No,No,,245.712563623317,2547.80181879942,No,45,132,PR-15, ,No
 ,Open Water,Freshwater Pond,0.254936674329064,Woods Hole,,Falmouth,41.5222321675352,-70.6574242617393,Not Indicated,,,,,,No,No,No,,129.132895889591,1031.69211781387,No,11,133,FA-1024, ,No
 ,Open Water,Freshwater Pond,0.315168597640671,Mashpee,,Mashpee,41.5687870358749,-70.474837472559,Not Indicated,,,,,,No,No,No,,152.205600265683,1275.44206350095,No,0,134,MA-965, ,No
 ,Open Water,Freshwater Pond,0.948078365741507,Mashpee,,Mashpee,41.5688738712381,-70.4758419459466,Not Indicated,,,,,,No,No,No,,260.169708391482,3836.73702333952,No,0,135,MA-964, ,No
 ,Open Water,Freshwater Pond,0.682944649818606,West Yarmouth,,Yarmouth,41.6167494591148,-70.2645159054913,Not Indicated,,,,,,No,No,No,,261.182636391704,2763.77894226215,No,0,136,YA-887, ,No
 ,Open Water,Freshwater Pond,0.606772334460091,Dennisport,,Dennis,41.6623879307575,-70.1311612399329,Not Indicated,,,,,,No,No,No,,369.603200310441,2455.52051864446,No,74,137,DE-704, ,No
 ,Open Water,Freshwater Pond,6.93512335463066,South Yarmouth,,Yarmouth,41.7023888631376,-70.1963339724521,Not Indicated,,,,,,Yes,No,No,,656.655705487642,28065.4484878233,No,38,138,YA-423, ,No
 ,Open Water,Freshwater Pond,0.483584293292361,West Barnstable,,Barnstable,41.7216819200741,-70.3903299271151,Not Indicated,,,,,,No,No,No,,161.084237239477,1956.99620308196,No,0,139,BA-349, ,No
 ,Open Water,Freshwater Pond,0.45347257436575,Buzzards Bay,,Bourne,41.7332799198469,-70.6150908637372,Not Indicated,,,,,,No,No,No,,159.722504617386,1835.1383999543,No,5,140,BO-309, ,No
 ,Open Water,Freshwater Pond,0.587444166558879,Buzzards Bay,,Bourne,41.7379591432164,-70.6010924823107,Not Indicated,,,,,,Yes,No,No,,262.862976616387,2377.30219824022,No,0,141,BO-288, ,No
 ,Open Water,Freshwater Pond,1.72346280155813,East Dennis,,Dennis,41.7513145538325,-70.1722309523128,Not Indicated,,,,,,No,No,No,,373.837453079684,6974.606507253,No,68,142,DE-215, ,No
,Open Water,Freshwater Pond,1.4111357274333,Sagamore Beach,,Bourne,41.7893664714338,-70.526412607359,,,,,,,No,No,No,,319.454727513861,5710.66368144154,No,5,143,BO-1057,,No
,,,0.558200016319343,Truro,,Truro,42.002551407598,-70.0238603295172,,,,,,,No,No,No,,176.098058274166,2258.95532102572,No,95,144,TR-1058,,No
,,Lake,0.326484535601746,Provincetown,,Provincetown,42.0532265622112,-70.2022403269802,,,,,,,No,No,No,,153.868367355662,1321.23603971421,No,63,145,PR-1059,,No
,,Lake,0.353002719869746,Provincetown,,Provincetown,42.0545626575899,-70.2063577470472,,,,,,,No,No,No,,295.354867767674,1428.55132402955,No,100,146,PR-1060,,No
 ,,,1.2969363746983,Provincetown,,Provincetown,42.0562571581668,-70.2023693907243,Not Indicated,,,,,,No,No,No,,542.585768008407,5248.51529739199,No,100,147,PR-27, ,No
 ,,,1.87082340305274,Provincetown,,Provincetown,42.0579820476899,-70.2090410197124,Not Indicated,,,,,,No,No,No,,599.94204137379,7570.95370382019,No,100,148,PR-24, ,No
 ,Open Water,Freshwater Pond,3.45631778832334,Provincetown,,Provincetown,42.0605319546781,-70.2050462118696,Not Indicated,,,,,,No,No,No,,603.829480946638,13987.2218395317,No,100,149,PR-17, ,No
,,,0.518149678445707,Provincetown,,Provincetown,42.0608797315006,-70.1842279895058,,,,,,,No,No,No,,324.439426998886,2096.8773539825,No,69,150,PR-1061,,No
 ,Open Water,Freshwater Pond,2.62004650120452,Provincetown,,Provincetown,42.0615286206987,-70.2069068688977,Not Indicated,,,,,,No,No,No,,557.711221231998,10602.9520103861,No,100,151,PR-14, ,No
 ,Open Water,Freshwater Pond,12.0346227260307,Provincetown,,Provincetown,42.065065327016,-70.2001153403403,Not Included,,,,,3,No,No,No,,1278.43945685753,48702.3902699984,No,100,152,PR-9,Great Pond,Yes - on State List
 ,Open Water,Freshwater Pond,4.86688861422195,Cotuit,,Barnstable,41.6187813512562,-70.4433642742531,Not Included,,,,,,No,No,No,,603.249584160058,19695.5994455695,No,0,153,BA-881,Lewis Pond,No
 ,Open Water,Freshwater Pond,5.32385260944216,Mashpee,,Mashpee,41.6194088801039,-70.4828057294251,Not Indicated,,,,,,No,No,No,,962.461975017416,21544.867124432,No,16,154,MA-876,Trout Pond,No
 ,Open Water,Freshwater Pond,9.67266961142163,Osterville,,Barnstable,41.6336529119392,-70.365360869067,Mesotrophic,,,,,,No,No,No,,774.862379671433,39143.9051387349,No,5,155,BA-819,Coleman Pond,No
 ,Open Water,Freshwater Pond,3.8858446747487,Hyannisport,,Barnstable,41.6365464365527,-70.3039459409243,Eutrophic,,,,,,No,No,No,,536.117727213789,15725.4554784556,No,2,156,BA-806,Schoolhouse Pond,No
,Open Water,Freshwater Pond,4.48291316845862,North Falmouth,,Falmouth,41.6460326803233,-70.6253308519804,Not Included,,,,,,No,No,Yes,,618.796303911371,18141.7059468383,No,0,157,FA-780,Flax Pond,No
 ,Open Water,Lake,61.7266996990754,South Yarmouth,,Yarmouth,41.6710337526457,-70.1938034174979,Mesotrophic,,Yes,Yes,1609476.25274496,30,No,Yes,Yes,Yes,4200.89866410775,249799.09111076,No,2,158,YA-657,Long Pond,Yes - on State List
 ,Open Water,Lake,31.6559870110847,South Dennis,,Dennis,41.6782118674099,-70.1509599978627,Eutrophic,,No,Yes,159565.707502187,9.19999980926514,No,No,Yes,No,1793.29235836958,128107.234343219,No,47,159,DE-597,Fresh Pond,Yes - on State List
 ,Open Water,Freshwater Pond,19.5289189616926,Chatham,,Chatham,41.7031423668891,-69.9855470872,Mesotrophic,,Yes,Yes,709398.634727964,51,No,No,Yes,Yes,1354.89832205067,79030.7311226547,No,8,160,CH-396,Stillwater Pond,Yes - on State List
Matthews Pond,Open Water,,35.7286160247195,Yarmouthport,,Yarmouth,41.7100212511199,-70.2228170044024,Eutrophic,,No,Yes,,5,No,No,Yes,Yes,1955.64834228546,144588.5792231,No,93,161,YA-371,Tom Matthews Pond,Yes - not on State List
 ,Open Water,Freshwater Pond,5.90486596449746,Orleans,,Orleans,41.741546002764,-69.9739699020802,Eutrophic,,,,205621.739001442,57,No,No,Yes,,790.959403334549,23896.1447518377,No,64,162,OR-249,Sarahs Pond,No
 ,Open Water,Freshwater Pond,7.25730272545861,Buzzards Bay,,Bourne,41.7546749460259,-70.5916189935328,Not Indicated,,,,,11,No,No,No,,717.522010812778,29369.2621438232,No,39,163,BO-219,Nightingale Pond,No
 ,Open Water,,3.90594828613622,East Dennis,,Dennis,41.7590175965088,-70.1401878331196,Not Indicated,,,,,,No,No,No,,633.787091892842,15806.8119073126,No,0,164,DE-198,Little Coles Pond,No
Coles Pond,Open Water,Lake,45.6535862789937,Eastham,,Eastham,41.8251907376063,-69.9860135730413,Mesotrophic,,,,1023240.96289348,35,No,Yes,Yes,,1734.05957140447,184753.508838738,No,22,165,EA-103,Herring Pond,Yes - on State List
 ,Open Water,Lake,108.052008818891,Wellfleet,,Wellfleet,41.9563893071053,-70.0078604190673,Oligotrophic,,No,Yes,3879403.0798176,64,No,Yes,Yes,Yes,2440.9448422098,437270.965841949,No,47,166,WE-59,Gull Pond,Yes - on State List
 ,Open Water,Lake,26.714616425781,Wellfleet,,Wellfleet,41.9615216465286,-70.0084427308337,Mesotrophic,,Yes,Yes,,20,No,No,Yes,Yes,1272.21534636803,108110.217054624,No,36,167,WE-57,Higgins Pond,Yes - on State List
 ,Open Water,Freshwater Pond,18.9254984037721,Wellfleet,,Wellfleet,41.963188314989,-70.0134395821505,Not Included,,Yes,Yes,,7,No,No,Yes,Yes,1275.07186297809,76588.7747624262,No,69,168,WE-56,Herring Pond,Yes - on State List
 ,Open Water,Lake,8.57687330718991,Wellfleet,,Wellfleet,41.9641841216836,-70.0078184504529,Eutrophic,,No,No,,7,No,No,No,Yes,790.961366643455,34709.3748273126,No,4,169,WE-55,Williams Pond,No
Newcombs Pond,Open Water,Lake,30.9616099539176,Truro,,Truro,41.9674326710741,-70.0106426943579,Mesotrophic,,,,456526.909903589,25,No,No,No,,1506.98965328893,125297.190089855,No,50,170,TR-53,Slough Pond,Yes - not on State List
Long Pond,Open Water,Lake,24.9959463369341,Truro,,Truro,41.9699453561604,-70.0062323099172,Mesotrophic,,,,,16,No,No,No,,1497.64900653414,101155.005967588,No,49,171,TR-51,Horseleech Pond,Yes - on State List
 ,,,5.01888641677559,Provincetown,,Provincetown,42.0585479264602,-70.1988417313006,Not Included,,,,,6,No,No,No,,857.521588546229,20310.7127290244,No,100,172,PR-22,Bennett Pond,No
Beech Forest,,,5.66771525322259,Provincetown,,Provincetown,42.0675135922762,-70.1956346030198,Not Indicated,,,,,4,No,No,No,,775.308751431014,22936.4298728383,No,100,173,PR-2,Blackwater Pond,No
 ,Open Water,Freshwater Pond,13.360134745214,Falmouth,,Falmouth,41.562275823451,-70.6069782475539,Not Indicated,,No,Yes,,,No,No,Yes,No,1080.35517349012,54066.5470977988,No,20,174,FA-975,Jones Pond,Yes - on State List
 ,Open Water,Lake,26.9922537121795,North Falmouth,,Falmouth,41.6267060172376,-70.6258362197613,Not Indicated,,,,,,Yes,No,Yes,,1610.85409290045,109233.775290184,No,8,175,FA-845,Wing Pond,Yes - on State List
 ,Open Water,Freshwater Pond,4.9743454223424,Osterville,,Barnstable,41.6357700711716,-70.3646942541214,Not Indicated,,,,,,No,No,No,,536.813322130001,20130.4617196424,No,0,176,BA-816,North Pond,No
 ,Open Water,Freshwater Pond,8.08239931703798,Hyannis,,Barnstable,41.6404140861008,-70.3062192049358,Not Indicated,,,,,,No,No,Yes,,944.024318028637,32708.3095845565,No,49,177,BA-789,Simmons Pond,No
 ,Open Water,Lake,20.8177529592937,North Falmouth,,Falmouth,41.6494962835961,-70.6225807936152,Not Included,,,,,10,No,No,Yes,,1374.76338147933,84246.4572632544,No,12,178,FA-761,Cedar Lake,Yes - on State List
 ,Open Water,Freshwater Pond,4.89980674949112,South Yarmouth,,Yarmouth,41.665649051353,-70.1963572613015,Not Included,,,,,30,No,No,No,,536.031414495921,19828.814412697,No,0,179,YA-693,James Pond,No
 ,Open Water,Lake,43.7453062916044,Orleans,,Orleans,41.7641179362167,-69.9767012239864,Mesotrophic,,No,Yes,858471.75565081,30,Yes,No,Yes,Yes,2147.21601342791,177030.973716034,No,17,180,OR-176,Pilgrim Lake,Yes - on State List
 ,Open Water,Freshwater Pond,6.72641075366616,Eastham,,Eastham,41.8305412049362,-69.9964840429265,Mesotrophic,,,,71336.4331620755,20,No,No,No,,674.978448113778,27220.8185581743,No,79,181,EA-98,Bridge Pond,No
 ,Open Water,Lake,113.35047852585,Eastham,,Eastham,41.833445336346,-69.9896716987711,Mesotrophic,,,,3364266.77713526,36,No,No,Yes,,3494.51422110509,458713.112004448,No,27,182,EA-95,Great Pond,Yes - on State List
 ,Open Water,Freshwater Pond,1.68520707865175,Wellfleet,,Wellfleet,41.9513477703997,-69.9958963684195,Not Included,,,,,25,No,No,No,,300.389796032966,6819.79108931579,No,84,183,WE-64,Spectacle Pond,No
Kinnicums Pond,Open Water,Freshwater Pond,2.77696958892304,Wellfleet,,Wellfleet,41.9525673412717,-69.9984801414862,Eutrophic,,,,32836.1315561451,15,No,No,No,,418.568821612074,11237.9972157427,No,74,184,WE-61,Kinnicum Pond,No
Newcombs Pond,Open Water,Lake,20.4812587341924,Truro,,Truro,41.9669301098507,-70.0307464086624,Mesotrophic,,,,517414.28210295,35,No,No,Yes,,1215.08594127773,82884.7134473025,No,100,185,TR-54,Ryder Pond,Yes - not on State List
 ,Open Water,Freshwater Pond,7.43952260910529,Truro,,Truro,41.9697677739535,-70.0276256258406,Oligotrophic,,,,,26,No,No,Yes,,721.891196442784,30106.6798502478,No,100,186,TR-52,Snow Pond,No
 ,Open Water,Freshwater Pond,2.72227189155135,Truro,,Truro,41.9711998340528,-70.032157091675,Mesotrophic,,,,52701.4502894826,30,No,No,No,,401.784400105721,11016.6434878436,No,100,187,TR-50,Round Pond (West),No
 ,Open Water,Freshwater Pond,7.18609264852108,Truro,,Truro,41.9708269656126,-70.0102792609387,Oligotrophic,,,,96391.7503538128,34,No,No,No,,699.629569428408,29081.085186629,No,57,188,TR-49,Round Pond (East),No
 ,Open Water,Freshwater Pond,17.6433011929716,Truro,,Truro,41.9744474787349,-70.0299259956963,Oligotrophic,,,,463236.092378137,35,No,Yes,Yes,,1306.70447710582,71399.9067451147,No,100,189,TR-48,Great Pond,Yes - on State List
 ,Open Water,Freshwater Pond,4.41367128745862,Falmouth,,Falmouth,41.565363786534,-70.6081857322347,Not Indicated,,,,,,No,No,No,,545.00069125891,17861.4939960144,No,47,190,FA-970,Sols Pond,No
 ,Open Water,Freshwater Pond,14.7558503228558,Falmouth,,Falmouth,41.5698455888819,-70.6142629601975,Not Indicated,,,,328200.414013247,42,No,Yes,Yes,,997.523373535093,59714.8076470222,No,96,191,FA-962,Grews Pond,Yes - on State List
Robinsons Mill Pond,Open Water,Freshwater Pond,15.4955361444416,East Falmouth,,Falmouth,41.5809050576596,-70.5637076356281,Not Indicated,,,,,,Yes,No,Yes,,1763.47683423084,62708.2099646649,No,0,192,FA-948,Mill Pond,Yes - on State List
 ,Open Water,Lake,150.511907754898,Falmouth,,Falmouth,41.57909843184,-70.615448228467,Not Indicated,,,,,11,No,No,Yes,,5291.99259012314,609100.080545587,Yes,96,193,FA-942,Long Pond,Yes - on State List
 ,Open Water,Freshwater Pond,3.00702194566342,South Yarmouth,,Yarmouth,41.6823818158287,-70.1782300325793,Not Indicated,,,,,24,No,No,No,,429.583638059261,12168.9860731058,No,2,194,YA-572,Lily Pond,No
 ,Open Water,Freshwater Pond,2.44702470604281,South Yarmouth,,Yarmouth,41.6873580697241,-70.1764811378833,Not Indicated,,,,,,No,No,No,,696.055812805536,9902.75764742083,No,0,195,YA-540,Cat Swamp Pond,No
 ,Open Water,Freshwater Pond,3.99072886798795,Yarmouthport,,Yarmouth,41.6962093848619,-70.217065072503,Not Included,,No,No,,8,No,No,No,Yes,1315.20615577344,16149.9067494741,No,38,196,YA-478,Miss Thachers Pond,No
 ,Open Water,Freshwater Pond,15.6916031651686,West Barnstable,,Barnstable,41.7092191483132,-70.3849886427489,Eutrophic,,No,Yes,,5,No,No,Yes,No,1595.68373081184,63501.6650467146,No,25,197,BA-391,Mill Pond,Yes - not on State List
 ,,,0.781545392629371,Eastham,,Eastham,41.851632160269,-70.0033635255505,Not Indicated,,,,,,No,No,No,,468.247796007877,3162.8019915593,No,0,198,EA-86,Pennys Pond,No
 ,Open Water,Freshwater Pond,7.11250290551785,Falmouth,,Falmouth,41.5552310538876,-70.6480697303357,Not Indicated,,,,,,No,No,No,,807.358841821476,28783.2780625336,No,23,199,FA-993,Miles Pond,No
 ,Open Water,Freshwater Pond,5.66590544231018,Osterville,,Barnstable,41.6341573043716,-70.3850303622429,Not Indicated,,,,,,No,No,No,,641.644644538847,22929.1058279241,No,5,200,BA-820,Sam Pond,No
 ,Open Water,Freshwater Pond,15.5658869673548,Osterville,,Barnstable,41.6366632647148,-70.3811214279094,Oligotrophic,,,,222500.922396733,25,No,No,Yes,,1176.57645389893,62992.9096441922,No,15,201,BA-807,Joshua Pond,Yes - not on State List
Little Sandy Pond,Open Water,Freshwater Pond,14.3964525467342,West Yarmouth,,Yarmouth,41.6637110700883,-70.2494358938012,Not Included,,,,,,No,No,Yes,,978.087976306448,58260.3764485281,No,97,202,YA-700,West Sandy Pond,Yes - on State List
 ,Open Water,Lake,28.4622867390256,Harwich,,Harwich,41.6795274809193,-70.0756092338878,Not Included,,No,Yes,,3,No,No,Yes,No,6250.81307626897,115182.787886016,No,23,203,HA-579,Grass Pond,Yes - not on State List
 ,Open Water,Lake,60.9504466224446,Dennis,,Dennis,41.742608924711,-70.1825999907106,Mesotrophic,,No,Yes,2101996.50236774,48,No,Yes,Yes,Yes,2231.02354461775,246657.706362188,No,19,204,DE-236,Scargo Lake,Yes - on State List
 ,Open Water,Freshwater Pond,6.67134754642534,Orleans,,Orleans,41.7795125824082,-69.955007345405,Mesotrophic,,,,,,No,No,Yes,,640.557239050739,26997.9856643139,No,13,205,OR-142,Uncle Harveys Pond,No
 ,Open Water,Freshwater Pond,9.08949209978422,Eastham,,Eastham,41.8283780556476,-69.9935570424618,Mesotrophic,,,,55234.6876238363,13,No,No,No,,797.524838809926,36783.8694803659,No,47,206,EA-101,Widow Harding Pond,No
 ,Open Water,Freshwater Pond,6.52684791837316,Eastham,,Eastham,41.8296013344481,-69.9846851208861,Mesotrophic,,,,57279.0512735976,15,No,No,Yes,,619.793686041246,26413.2164164965,No,14,207,EA-100,Jemima Pond,No
 ,,,3.56265328723529,Eastham,,Eastham,41.8338729063377,-69.9828229894317,Not Included,,,,,,No,No,No,,512.183088992588,14417.5463362326,No,13,208,EA-97,Deborahs Pond,No
 ,Open Water,Freshwater Pond,2.78583000470275,Wellfleet,,Wellfleet,41.9400726476084,-69.9970384018174,Not Included,,,,,13,No,No,No,,561.101851682048,11273.8540462459,No,67,209,WE-68,Southeast Pond,No
 ,Open Water,Lake,43.9995784336974,Wellfleet,,Wellfleet,41.9404699481838,-70.000579694925,Oligotrophic,,,,,56,No,No,Yes,,1548.0062696255,178059.976567301,Yes,27,210,WE-67,Great Pond,Yes - on State List
 ,Open Water,Freshwater Pond,2.89550280846822,Falmouth,,Falmouth,41.5723904459288,-70.6165832801865,Not Indicated,,,,,,No,No,No,,413.668056823643,11717.6841365268,No,100,211,FA-958,Angel Mirror Pond,No
 ,Open Water,Freshwater Pond,8.05925637907779,Falmouth,,Falmouth,41.6168868030449,-70.6247772997878,Not Included,,,,,,No,No,No,,733.789865930034,32614.6534374391,No,73,212,FA-893,Crocker Pond,No
 ,Open Water,Freshwater Pond,15.9481422232037,Osterville,,Barnstable,41.6391804449427,-70.3792705323495,Oligotrophic,,,,402238.455051951,41,Yes,No,Yes,,1293.516138393,64539.8417813204,No,0,213,BA-797,Micah Pond,Yes - not on State List
 ,Open Water,Freshwater Pond,9.51330000712378,South Yarmouth,,Yarmouth,41.6824336677843,-70.185334590942,Oligotrophic,,,,,20,No,No,No,,724.187273658049,38498.9592320468,No,37,214,YA-569,Flax Pond,Yes - on State List
 ,Open Water,Lake,37.6498203204945,Chatham,,Chatham,41.697826087622,-69.9852168142669,Eutrophic,,No,Yes,704003.265435603,36,No,No,Yes,Yes,2242.21676275136,152363.417166199,No,21,215,CH-428,Lovers Lake,Yes - on State List
 ,Open Water,Lake,23.4153747337556,Brewster,,Brewster,41.7656028256745,-70.087786480857,Mesotrophic,,No,Yes,,12,No,No,No,No,1312.01969678429,94758.6596242017,No,0,216,BR-179,Cobbs Pond,Yes - on State List
 ,Open Water,Freshwater Pond,10.2426352333722,Eastham,,Eastham,41.8263966857589,-69.9768495816511,Eutrophic,,,,18623.8146579125,5,No,No,Yes,,1030.52285128646,41450.4741764729,No,0,217,EA-102,Muddy Pond,Yes - not on State List
 ,Open Water,Freshwater Pond,2.13193930595979,Eastham,,Eastham,41.8304763880356,-69.9822153372193,Not Included,,,,,10,No,No,Yes,,406.898064857859,8627.65227249036,No,15,218,EA-99,Little Depot Pond,No
 ,Open Water,Lake,28.8380532704168,Eastham,,Eastham,41.8321700702122,-69.979662688517,Mesotrophic,,,,614726.462063769,35,No,No,Yes,,1508.26812173705,116703.461086899,No,18,219,EA-96,Depot Pond,Yes - on State List
 ,Open Water,Freshwater Pond,12.9528541623388,Wellfleet,,Wellfleet,41.932830151775,-70.0004485989686,Mesotrophic,,,,575313.247272521,56,No,No,Yes,,820.402182993698,52418.3410552712,No,85,220,WE-76,Duck Pond,Yes - on State List
 ,,,0.957915062547168,Wellfleet,,Wellfleet,41.9382861149632,-70.0026078932967,Not Included,,,,,,No,No,No,,276.946622014605,3876.54472298271,No,69,221,WE-74,Grass Pond,No
 ,Open Water,Freshwater Pond,11.7740347686992,Wellfleet,,Wellfleet,41.9387360304472,-70.0094983741681,Oligotrophic,,,,260836.735797531,36,No,No,Yes,,868.777323600866,47647.8282212713,Yes,92,222,WE-71,Dyer Pond,Yes - not on State List
 ,,Freshwater Pond,3.90080735866692,Wellfleet,,Wellfleet,41.9391443821496,-70.0036360621931,Eutrophic,,,,,7,No,No,No,,683.585368437288,15786.0073119664,Yes,59,223,WE-70,Turtle Pond,No
 ,Open Water,Freshwater Pond,3.9845342679161,Wellfleet,,Wellfleet,41.943304564815,-69.999011609715,Not Included,,,,,,No,No,No,,640.837225602086,16124.8380923892,No,50,224,WE-66,Northeast Pond,No
 ,Open Water,Lake,36.8847650276399,Wellfleet,,Wellfleet,41.9449711109273,-70.0044982281023,Oligotrophic,,,,1578677.74253568,50,No,No,Yes,,2400.25171674932,149267.348240819,No,52,225,WE-65,Long Pond,Yes - on State List
Seine Pond,Open Water,Freshwater Pond,7.76084717057119,West Yarmouth,,Yarmouth,41.6596394103099,-70.2423294562111,Not Included,,No,Yes,,20,No,No,Yes,No,737.675314054862,31407.0342154909,No,7,226,YA-716,Jabez Neds Pond,No
 ,Open Water,Freshwater Pond,17.4677780657647,Pocasset,,Bourne,41.6778443593917,-70.6088906359764,Not Included,,No,Yes,,10,Yes,No,No,No,1885.32403931173,70689.5898504976,No,19,227,BO-644,Red Brook Pond,Yes - not on State List
,,,0.382670889710632,Provincetown,,Provincetown,42.0633829936542,-70.1800289285683,,,,,,,No,No,No,,289.015221981085,1548.61414769099,No,78,228,PR-1062,,No
 ,,,1.2098779595885,Provincetown,,Provincetown,42.0662783037283,-70.1874459296319,Not Indicated,,,,,,No,No,No,,282.057455921279,4896.20239108093,No,100,229,PR-7, ,No
 ,,,4.38147894861419,Provincetown,,Provincetown,42.0659014581526,-70.1956538179789,Not Indicated,,,,,,No,No,No,,1388.61402603074,17731.2162228097,No,100,230,PR-6, ,No
 ,,,2.40123204440837,Provincetown,,Provincetown,42.0671768848889,-70.1827657959584,Not Indicated,,,,,,No,No,No,,645.096492728482,9717.44132058669,No,100,231,PR-5, ,No
 ,,,1.30341019652543,Provincetown,,Provincetown,42.067352859867,-70.1846836733386,Not Indicated,,,,,,No,No,No,,340.723079557282,5274.71392483059,No,100,232,PR-3, ,No
,,,2.7565845434263,Provincetown,,Provincetown,42.06800521802,-70.1810530896295,,,,,,,No,No,No,,556.704756457733,11155.5018634533,No,98,233,PR-1063,,No
,,,0.399326057026129,Provincetown,,Provincetown,42.0683789504797,-70.1828401144208,,,,,,,No,No,No,,204.512987337822,1616.01521850786,No,100,234,PR-1064,,No
 ,,,0.262484716227428,Falmouth,,Falmouth,41.5542616071431,-70.6048607783158,Not Indicated,,,,,,No,No,No,,133.493397766634,1062.23795964681,No,0,235,FA-997, ,No
,,Freshwater Pond,0.254128225140221,Mashpee,,Mashpee,41.5704913563029,-70.4745306293462,,,,,,,No,No,No,,123.962020192811,1028.42044002182,No,0,236,MA-1065,,No
 ,Open Water,Freshwater Pond,0.284085508853029,Mashpee,,Mashpee,41.5713032853354,-70.4742234800525,Not Indicated,,,,,,No,No,No,,136.02147367464,1149.65326601265,No,0,237,MA-961, ,No
,,,0.280363294672439,Mashpee,,Mashpee,41.5716665467119,-70.4745081862901,,,,,,,No,No,No,,191.616122474537,1134.58999965038,No,0,238,MA-1066,,No
,,,0.809639620627514,Cotuit,,Barnstable,41.6103992539747,-70.4409913035771,,,,,,,No,No,No,,256.687138807873,3276.49529856596,No,0,239,BA-1067,,No
 ,Open Water,,0.759483400214337,West Yarmouth,,Yarmouth,41.6156791491095,-70.2584258093499,Not Indicated,,,,,,No,No,No,,273.537138117073,3073.52027586358,No,2,240,YA-889, ,No
 ,,,0.63160484044593,North Falmouth,,Falmouth,41.6473092445178,-70.6262628090416,Not Indicated,,,,,,No,No,No,,358.495414741635,2556.01410497754,No,0,241,FA-776, ,No
,,,0.763046448465901,Harwich,,Harwich,41.6930765667259,-70.1169117621417,,,,,,,No,No,No,,250.028876174182,3087.93942056374,No,96,242,HA-1068,,No
 ,Open Water,Freshwater Pond,2.20791436755882,South Yarmouth,,Yarmouth,41.6941492323077,-70.1794371845496,Not Indicated,,,,,,Yes,No,No,,374.429924576945,8935.11243846465,No,11,243,YA-505, ,No
 ,,Freshwater Pond,0.347420968233307,Barnstable,,Barnstable,41.705180785387,-70.2847173944239,Not Indicated,,,,,,No,No,No,,189.227935170104,1405.96277657138,No,3,244,BA-410, ,No
,,,0.959255885638554,East Sandwich,,Sandwich,41.7502869078283,-70.4513888719014,,,,,,,Yes,No,No,,324.78339113379,3881.97084152138,No,9,245,SA-1069,,No
,,,0.336804313169725,East Sandwich,,Sandwich,41.7514804654553,-70.4495551846705,,,,,,,Yes,No,No,,251.485483728639,1362.99869784292,No,0,246,SA-1070,,No
 ,,Freshwater Pond,0.434614572944326,Buzzards Bay,,Bourne,41.7545866402613,-70.58536050487,Not Indicated,,,,,,Yes,No,No,,197.308891230307,1758.82277578838,No,0,247,BO-220, ,No
 ,,,0.245605126915067,Orleans,,Orleans,41.7569962809593,-69.9769366570435,Not Indicated,,,,,,No,No,No,,113.571475972634,993.928685230606,No,36,248,OR-199, ,No
 ,Open Water,,0.381832081417126,Brewster,,Brewster,41.7600175965969,-70.1085109074398,Not Indicated,,,,,,No,No,No,,192.860980268957,1545.21961096126,No,0,249,BR-195, ,No
 ,,,1.86003754307401,Provincetown,,Provincetown,42.0633960558848,-70.2032420198637,Not Indicated,,,,,,No,No,No,,402.185837366234,7527.30487709416,No,100,250,PR-12, ,No
 ,,,1.31343149529191,Provincetown,,Provincetown,42.0651372508041,-70.1944877964286,Not Indicated,,,,,,No,No,No,,673.084753792561,5315.26868210451,No,100,251,PR-10, ,No
 ,,,0.966274789152446,Provincetown,,Provincetown,42.0652327730336,-70.1971647908168,Not Indicated,,,,,,No,No,No,,299.370207830561,3910.37533628478,No,100,252,PR-11, ,No
 ,Open Water,Freshwater Pond,2.0331479960141,Woods Hole,,Falmouth,41.537163646099,-70.6568736917383,Not Indicated,,,,,,No,No,No,,411.225055238628,8227.85802535934,No,13,253,FA-1012, ,No
,,,0.430147108758787,East Falmouth,,Falmouth,41.5811666373144,-70.5526979421026,,,,,,,Yes,No,No,,167.606645999562,1740.74358965729,No,8,254,FA-1071,,No
 ,Open Water,Freshwater Pond,0.552455053657066,Falmouth,,Falmouth,41.5918563294617,-70.6350983727705,Not Indicated,,,,,,No,No,No,,181.26834280255,2235.70628197943,No,4,255,FA-934, ,No
,,,0.323137452021116,Falmouth,,Falmouth,41.5930605199277,-70.6354188836408,,,,,,,No,No,No,,167.43634758259,1307.69087302963,No,1,256,FA-1072,,No
 ,Open Water,Freshwater Pond,0.819644278620257,Falmouth,,Falmouth,41.5982909181292,-70.6398015873841,Not Indicated,,,,,,No,No,No,,230.138471926656,3316.9827130178,No,6,257,FA-921, ,No
 ,Open Water,Freshwater Pond,1.63429077361133,East Sandwich,,Sandwich,41.7542252386698,-70.4554049098406,Not Indicated,,,,,,No,No,No,,411.006074443897,6613.74011325808,No,50,258,SA-216, ,No
 ,Open Water,Freshwater Pond,4.84926998876342,Buzzards Bay,,Bourne,41.7664400208262,-70.6028088779941,Not Indicated,,,,,,No,No,No,,856.583329390536,19624.2993979788,No,0,259,BO-190, ,No
 ,,,0.729902191575858,Orleans,,Orleans,41.7772698199472,-70.008033124811,Not Included,,,,,,No,No,No,,283.616934039757,2953.8093717026,No,0,260,OR-152, ,No
,,,1.09502507311694,Orleans,,Orleans,41.812024336872,-69.9574223896073,,,,,,,No,No,No,,364.358278518465,4431.40924983231,No,0,261,OR-1073,,No
 ,Open Water,Freshwater Pond,1.01845774515302,Wellfleet,,Wellfleet,41.9157479407432,-70.0037079279269,Not Indicated,,,,,,No,No,No,,255.104400601327,4121.55226691553,No,0,262,WE-79, ,No
 ,Open Water,Freshwater Pond,0.476159718284142,Wellfleet,,Wellfleet,41.9521065821077,-69.9951901571067,Not Indicated,,,,,,No,No,No,,165.047697124823,1926.95001402635,No,90,263,WE-63, ,No
 ,Open Water,Freshwater Pond,1.17842000068767,Truro,,Truro,41.9905725118296,-70.0497863684749,Not Indicated,,,,,,No,No,No,,338.968863275699,4768.89654806751,No,0,264,TR-46, ,No
,,,3.66513596986199,Provincetown,,Provincetown,42.0688890933179,-70.1974441331952,,,,,,,No,No,No,,725.291717572358,14832.2790386052,No,100,265,PR-1074,,No
 ,,Freshwater Pond,2.29960121360193,Osterville,,Barnstable,41.6329580409194,-70.3906856739273,Not Indicated,,,,,,No,No,No,,404.822700203385,9306.15594022381,No,2,266,BA-825, ,No
 ,Open Water,Freshwater Pond,0.363293328659129,West Yarmouth,,Yarmouth,41.6570535437954,-70.2284241592242,Not Indicated,,,,,,Yes,No,No,,146.042386960384,1470.19594029927,No,0,267,YA-729, ,No
 ,Open Water,Freshwater Pond,0.655718652580555,West Yarmouth,,Yarmouth,41.6596649028782,-70.2690015854965,Not Indicated,,,,,,No,No,No,,237.81066686552,2653.59924048309,No,87,268,YA-721, ,No
 ,Open Water,Freshwater Pond,0.833854372750246,South Yarmouth,,Yarmouth,41.664840630711,-70.2031025828316,Not Indicated,,,,,,No,No,No,,304.746939219872,3374.48892371066,No,3,269,YA-698, ,No
 ,,,0.59111209965178,Cataumet,,Bourne,41.674041562614,-70.6125721355183,Not Indicated,,,,,,No,No,No,,245.753967051823,2392.14579683415,No,15,270,BO-674, ,No
 ,,,0.817612023981634,Chatham,,Chatham,41.6822800026932,-69.9538011576987,Not Indicated,,,,,,No,No,No,,242.83917759145,3308.75847028154,No,68,271,CH-563, ,No
 ,Open Water,Freshwater Pond,2.02020494527293,Yarmouthport,,Yarmouth,41.697537994928,-70.2184828787052,Not Indicated,,,,,,No,No,No,,382.692172718917,8175.479357342,No,45,272,YA-468, ,No
 ,Open Water,,0.51871240539133,Yarmouthport,,Yarmouth,41.7094727304722,-70.2572792840593,Not Indicated,,,,,,No,No,No,,177.970907081008,2099.15462913646,No,8,273,YA-385,Perera Pond,No
,,,0.268106690558384,Harwich,,Harwich,41.7140868512183,-70.0034594757164,,,,,,,Yes,No,No,,133.831511330352,1084.98928257461,No,25,274,HA-1075,,No
 ,Open Water,Freshwater Pond,3.52913186178351,Brewster,,Brewster,41.7431451801245,-70.1450182577694,Not Indicated,,,,,,No,No,No,,839.815671636387,14281.8899403551,No,28,275,BR-252, ,No
 ,,,9.47807697200498,Woods Hole,,Falmouth,41.5250218406892,-70.6562152349054,Not Indicated,,,,,,No,No,No,,835.33931552185,38356.4166661599,No,7,276,FA-1022, ,No
,,,0.27068595195663,Mashpee,,Mashpee,41.5596896411272,-70.4867852965019,,,,,,,No,No,No,,160.660809565904,1095.42718312914,No,9,277,MA-1076,,No
 ,,,0.340489876436829,Falmouth,,Falmouth,41.561206012558,-70.6197712649545,Not Indicated,,,,,,No,No,No,,196.903171410515,1377.91364322057,No,0,278,FA-978, ,No
,,,0.580688754861566,Mashpee,,Mashpee,41.5653846137277,-70.4838841234694,,,,,,,No,No,No,,238.422418197079,2349.96401702699,No,0,279,MA-1077,,No
,,,0.816761397382072,Mashpee,,Mashpee,41.6174001725296,-70.4626264107913,,,,,,,Yes,No,No,,237.872231428538,3305.31610656404,No,0,280,MA-1078,,No
 ,Open Water,Freshwater Pond,5.45210336027421,Centerville,,Barnstable,41.6492129350012,-70.3624296199524,Not Indicated,,,,,,No,No,Yes,,780.39910617188,22063.8794991143,No,34,281,BA-750,Filends Pond,No
,Open Water,,0.507602204681179,West Yarmouth,,Yarmouth,41.6533227481325,-70.2696007276114,,,,,,,No,No,No,,195.074572310196,2054.19324203843,No,24,282,YA-1079,,No
 ,,,4.20826436027149,West Yarmouth,,Yarmouth,41.6571210373806,-70.2463316860815,Not Indicated,,,,,,Yes,No,No,,648.249863929501,17030.2416535217,No,0,283,YA-728, ,No
 ,,Freshwater Pond,2.03239921337005,Chatham,,Chatham,41.6787545739007,-70.0049924536189,Not Indicated,,,,,,Yes,No,No,,468.584494089478,8224.82780950728,No,56,284,CH-589, ,No
 ,Open Water,,1.35153590107274,Barnstable,,Barnstable,41.7037199939479,-70.3034985845392,Not Indicated,,,,,,No,No,No,,384.262734171049,5469.47174136039,No,26,285,BA-426, ,No
,Open Water,Freshwater Pond,1.96593558791298,Sagamore Beach,,Bourne,41.7896339848219,-70.5278523610753,,,,,,,No,No,No,,406.412082062357,7955.85905997035,No,1,286,BO-1080,,No
,,,0.351602238593144,Wellfleet,,Wellfleet,41.9546221388778,-70.036936193157,,,,,,,No,No,No,,137.371254737454,1422.88377738088,No,62,287,WE-1081,,No
 ,,,3.16305891672343,Woods Hole,,Falmouth,41.5288148778062,-70.6555345566029,Not Indicated,,,,,,No,No,No,,689.48933386253,12800.4452915718,No,0,288,FA-1020, ,No
 ,Open Water,Freshwater Pond,0.230383174814267,Falmouth,,Falmouth,41.550583936003,-70.6419000398078,Not Indicated,,,,,,No,No,No,,115.434207959754,932.327630610019,No,2,289,FA-1001, ,No
 ,,Freshwater Pond,1.19780814637155,Falmouth,,Falmouth,41.5500689435845,-70.6464603828783,Not Indicated,,,,,,No,No,No,,349.747004152162,4847.35758994676,No,26,290,FA-1000, ,No
 ,Open Water,Freshwater Pond,3.31373740963223,Falmouth,,Falmouth,41.5752143358892,-70.6090356369295,Not Indicated,,,,,,No,No,No,,575.202153647468,13410.2195183173,No,100,291,FA-952, ,No
,,,0.24451851099486,East Falmouth,,Falmouth,41.5871541500408,-70.5699904018349,,,,,,,Yes,No,No,,132.196052898549,989.531306615234,No,64,292,FA-1082,,No
 ,,,0.637060654587439,Mashpee,,Mashpee,41.5980848315694,-70.4957877025962,Not Indicated,,,,,,No,No,No,,201.534643856084,2578.09300147553,No,34,293,MA-919, ,No
 ,Open Water,Freshwater Pond,0.57961594947865,Mashpee,,Mashpee,41.617128309452,-70.4620899925728,Not Indicated,,,,,,Yes,No,No,,184.118101866067,2345.62252767315,No,0,294,MA-890, ,No
 ,,,0.666313968236962,Eastham,,Eastham,41.8160510801315,-69.9816688501975,Not Indicated,,,,,,No,No,No,,190.20361659325,2696.47696169458,No,9,295,EA-106, ,No
 ,,,0.467395231520994,Wellfleet,,Wellfleet,41.9189971993887,-70.0010625512287,Not Indicated,,,,,,No,No,No,,186.443832733404,1891.48139447987,No,5,296,WE-78, ,No
 ,,Freshwater Pond,0.44536992866823,Wellfleet,,Wellfleet,41.9355552827335,-70.0019782817583,Not Indicated,,,,,,No,No,No,,168.990482299927,1802.34815617486,No,80,297,WE-75, ,No
 ,,Freshwater Pond,0.800131478821609,Falmouth,,Falmouth,41.5832540139413,-70.609891396309,Not Indicated,,,,,,No,No,No,,283.706199808522,3238.01721383364,No,96,298,FA-945, ,No
 ,Open Water,Freshwater Pond,1.896884450572,East Falmouth,,Falmouth,41.5865950859477,-70.5503314781939,Not Indicated,,,,,,Yes,No,No,,418.866916977117,7676.41902134799,No,20,299,FA-940, ,No
 ,Open Water,Freshwater Pond,1.2537456770064,West Yarmouth,,Yarmouth,41.6163656951345,-70.2627985688717,Not Indicated,,,,,,No,No,No,,360.325780519753,5073.72874504959,No,0,300,YA-886, ,No
 ,,,0.421862703754734,Hyannis,,Barnstable,41.6418326508115,-70.2958740193269,Not Indicated,,,,,,No,No,No,,235.435772705641,1707.21779206087,No,1,301,BA-785, ,No
 ,Open Water,Freshwater Pond,0.402514852545511,Hyannis,,Barnstable,41.6440716558237,-70.3024328130328,Not Indicated,,,,,,No,No,No,,163.473750086415,1628.91981613519,No,0,302,BA-778, ,No
 ,Open Water,Lake,23.3937997928044,Harwich,,Harwich,41.6892592735793,-70.1121273064726,Not Included,,Yes,No,391923.725576441,25,Yes,No,No,No,1853.87201395543,94671.3489358501,No,22,303,HA-525,Sand Pond,Yes - on State List
 ,Open Water,Freshwater Pond,4.92685341080556,Chatham,,Chatham,41.7002977611062,-69.9992706163073,Not Included,,,,,,No,No,Yes,,547.92505074943,19938.2683677418,No,0,304,CH-425,Trout Pond,No
 ,Open Water,Lake,22.8234587018579,East Falmouth,,Falmouth,41.5889320830142,-70.5679230699434,Not Indicated,,No,Yes,,30,Yes,No,Yes,No,1260.77256588626,92363.2604289947,No,22,305,FA-937,Flax Pond,Yes - on State List
Flax Pond,Open Water,Freshwater Pond,20.06687636079,West Yarmouth,,Yarmouth,41.6604366983317,-70.2365887112683,Not Included,,Yes,No,,20,No,No,Yes,No,1259.94328444802,81207.7674781696,No,0,306,YA-711,Big Sandy Pond,Yes - on State List
 ,Open Water,Freshwater Pond,4.97475893173191,Chatham,,Chatham,41.6928293649762,-70.0017361776938,Not Included,,,,34485.1101608525,15,No,No,No,,954.214542115752,20132.135132771,Yes,1,307,CH-481,Ryders Pond,No
 ,Open Water,Lake,22.5416571611297,Chatham,,Chatham,41.6942915809369,-69.9965124917016,Mesotrophic,,,,750382.52535078,47,No,Yes,Yes,,1235.34312131232,91222.8500540566,Yes,15,308,CH-463,Schoolhouse Pond,Yes - on State List
 ,Open Water,Freshwater Pond,2.71242823777139,Chatham,,Chatham,41.6985247374586,-70.0144066662462,Not Included,,,,,,No,No,No,,394.905835904714,10976.8076343243,No,70,309,CH-439,Minister Pond,No
 ,Open Water,Freshwater Pond,4.91122075723506,Chatham,,Chatham,41.6987441701161,-69.9998739360021,Not Indicated,,,,,,No,No,No,,593.293698530382,19875.0052632409,No,0,310,CH-436,Pickerel Pond,No
Coggins Pond,Open Water,Freshwater Pond,10.5064847149067,Barnstable,,Barnstable,41.7043788818115,-70.3236277804176,Eutrophic,,,,,,No,No,Yes,,984.594119680589,42518.2351453674,No,16,311,BA-411,Hinckley Pond,Yes - not on State List
 ,,,4.82238977379614,Centerville,,Barnstable,41.6422605174382,-70.3303338566964,Mesotrophic,,No,Yes,15250.0225645884,6,No,No,No,No,1091.89174526554,19515.519027403,No,2,312,BA-782,Red Lily Pond,No
 ,Open Water,Freshwater Pond,8.19823154593797,Marstons Mills,,Barnstable,41.6580662093005,-70.4398569448071,Not Indicated,,,,,,Yes,No,No,,775.425618528271,33177.0659840014,No,24,313,BA-731,Pattys Pond,No
 ,Open Water,Freshwater Pond,2.37743230220335,Chatham,,Chatham,41.6840208303705,-69.9922510588837,Not Indicated,,,,,,No,No,No,,432.02139791623,9621.12718099287,No,12,314,CH-554,Bearses Pond,No
 ,Open Water,Freshwater Pond,0.987006938735468,Pocasset,,Bourne,41.6966083042046,-70.6058214397281,Not Indicated,,Yes,Yes,,,No,No,No,No,247.806040798516,3994.27536897499,No,6,315,BO-515,Mill Pond,No
 ,Open Water,Freshwater Pond,4.12817448549844,Chatham,,Chatham,41.6934600437584,-69.9909142367336,Not Included,,,,,,No,No,No,,597.026382187813,16706.1294294272,No,70,316,CH-484,Marys Pond,No
 ,Open Water,Freshwater Pond,2.98879091725438,Chatham,,Chatham,41.6937096275464,-69.9880516677942,Not Included,,,,,,Yes,No,No,,425.490279912905,12095.2077187017,No,69,317,CH-479,Barclay Pond,No
 ,Open Water,Lake,40.8839326897311,South Chatham,,Chatham,41.6943418413541,-70.0072491892701,Oligotrophic,,,,1324424.47314151,52,Yes,Yes,Yes,,1630.03042314033,165451.405578407,Yes,57,318,CH-458,Goose Pond,Yes - on State List
 ,Open Water,Lake,28.6249805935866,East Falmouth,,Falmouth,41.5882125573661,-70.5982228702562,Not Indicated,,,,1076019.03204873,55,No,Yes,Yes,,1387.71957025188,115841.186556232,Yes,21,319,FA-938,Mares Pond,Yes - on State List
 ,Open Water,Freshwater Pond,7.29697218426325,Hyannis,,Barnstable,41.64880867568,-70.2966752185278,Mesotrophic,,,,,,No,No,No,,700.102125789349,29529.7987479599,No,8,320,BA-756,Aunt Bettys Pond,No
Horn Pond,Open Water,Lake,30.9132580396893,West Yarmouth,,Yarmouth,41.6645862771102,-70.2388875925521,Not Included,,No,Yes,,19,No,No,Yes,No,1689.76098455343,125101.516835225,Yes,44,321,YA-692,Horse Pond,Yes - on State List
 ,Open Water,Freshwater Pond,12.1151400630146,Harwich,,Harwich,41.6828483621223,-70.062275434144,Not Indicated,,,,,,No,No,Yes,,1208.35055086368,49028.2323722862,No,0,322,HA-562,Paddocks Pond,Yes - on State List
 ,Open Water,Freshwater Pond,0.707614256367747,Harwich,,Harwich,41.6841872266801,-70.0426009701487,Not Indicated,,,,,,No,No,No,,246.426893360479,2863.61329796362,No,27,323,HA-557,Okers Pond,No
Fresh Pond,Open Water,Lake,39.3415911012613,Orleans,,Orleans,41.7740176718028,-69.9828244621522,Oligotrophic,,No,Yes,1202490.43733796,45,Yes,Yes,Yes,No,1838.33739960471,159209.770615574,No,2,324,OR-153,Crystal Lake,Yes - on State List
 ,Open Water,Freshwater Pond,3.58224214848247,Eastham,,Eastham,41.8450257014407,-69.9759189717845,Mesotrophic,,,,28879.4429127585,12,No,No,No,,476.880936856564,14496.8196451782,No,3,325,EA-91,Molls Pond,No
 ,Open Water,Freshwater Pond,3.57461213003862,Falmouth,,Falmouth,41.5481626723515,-70.65047501509,Not Indicated,,,,,,No,No,No,,580.466672419975,14465.9420560357,No,4,326,FA-1004,Flax Pond,No
 ,Open Water,Freshwater Pond,19.2820596433993,East Falmouth,,Falmouth,41.5870767465561,-70.591729730777,Not Indicated,,,,,,No,No,Yes,,1581.212927356,78031.7269049904,Yes,58,327,FA-939,Spectacle Pond,Yes - on State List
 ,Open Water,Freshwater Pond,5.97206048641562,Marstons Mills,,Barnstable,41.6518082336667,-70.4156507551276,Oligotrophic,,Yes,Yes,,,No,No,No,No,881.558829900499,24168.0713344123,No,30,328,BA-746,Mill Pond,No
Plashes,,,51.7401758307925,West Yarmouth,,Yarmouth,41.6706897113804,-70.2209003723632,Not Included,,No,Yes,,6,Yes,No,Yes,No,4441.09017506158,209385.062856948,No,13,329,YA-653,Plashes Pond,Yes - not on State List
 ,Open Water,Freshwater Pond,1.74158605777726,Chatham,,Chatham,41.6849479553782,-69.9906781799283,Not Included,,,,,,No,No,No,,332.06009591915,7047.9487230782,No,9,330,CH-550,Black Pond,No
 ,Open Water,Lake,42.97730500006,Chatham,,Chatham,41.6870611755102,-69.9853614027435,Oligotrophic,,,,1618735.8477707,59,No,No,Yes,,2393.41314212214,173922.982756936,Yes,12,331,CH-516,White Pond,Yes - on State List
 ,Open Water,Freshwater Pond,8.72519280791136,East Sandwich,,Sandwich,41.7324977670372,-70.4342188578467,Mesotrophic,,No,Yes,229643.57158941,37,Yes,No,Yes,No,744.986557736112,35309.6025513744,No,63,332,SA-295,Hoxies Pond,No
 ,Open Water,Freshwater Pond,4.43099731999617,Brewster,,Brewster,41.7671432688173,-70.078110443088,Mesotrophic,,,,,,No,No,No,,586.228042433691,17931.6099620637,No,0,333,BR-177,Myricks Pond,No
 ,Open Water,Freshwater Pond,4.20063046308134,Orleans,,Orleans,41.7660036770799,-69.9878030700686,Mesotrophic,,,,,,No,No,No,,534.567144259247,16999.3483676498,No,74,334,OR-174,Gould Pond,No
Meetinghouse Pond,Open Water,Lake,22.4198070281894,Eastham,,Eastham,41.8419583432153,-69.9789497847964,Eutrophic,,,,249504.587445991,16,No,No,Yes,,1957.97780852155,90729.7400609969,No,0,335,EA-92,Ministers Pond,Yes - on State List
 ,Open Water,Freshwater Pond,2.2813094203511,Eastham,,Eastham,41.8462515914947,-69.9891604073093,Not Indicated,,,,,,No,No,No,,526.58941481421,9232.13167922945,No,11,336,EA-90,Krogmans Pond,No
 ,Open Water,Freshwater Pond,16.6359510078214,East Falmouth,,Falmouth,41.5946639809088,-70.5709419333147,Not Indicated,,,,,,Yes,No,No,,1915.53306894903,67323.305178734,No,74,337,FA-920,Parker Road Pond,Yes - not on State List
 ,Open Water,Freshwater Pond,8.56739648942063,Cotuit,,Barnstable,41.6357694411913,-70.4271184811027,Eutrophic,,,,96699.8393501388,18,No,No,Yes,,905.610870490986,34671.0235064591,No,100,338,BA-815,Eagle Pond,No
 ,Open Water,Freshwater Pond,7.26355121894572,West Yarmouth,,Yarmouth,41.6672654755562,-70.2331053746187,Not Indicated,,,,,20,No,No,Yes,,664.351570436202,29394.5488998218,Yes,42,339,YA-686,Bassetts Lot Pond,No
 ,Open Water,Freshwater Pond,14.0953366086091,Chatham,,Chatham,41.6918266723853,-69.9815058947518,Eutrophic,,Yes,No,188582.763291288,21,Yes,No,Yes,No,1082.89209647959,57041.8034804396,No,3,340,CH-491,Emery Pond,Yes - on State List
 ,Open Water,Freshwater Pond,1.51539131863178,Chatham,,Chatham,41.7005107962096,-69.9886063986772,Not Indicated,,,,,,No,No,No,,320.93516274307,6132.57109025423,No,4,341,CH-421,Pinkwink Pond,No
 ,,Freshwater Pond,1.32137269146503,Eastham,,Eastham,41.8492772191172,-69.9901500108627,Not Indicated,,,,,,No,No,No,,287.769473691576,5347.40556283924,No,0,342,EA-89,Higgins Pond,No
 ,,Freshwater Pond,3.66485607873277,Eastham,,Eastham,41.8497322157523,-69.9863497972282,Not Indicated,,,,,,No,No,No,,727.839440721167,14831.1463593914,No,0,343,EA-87,Bakers Pond,No
 ,Open Water,Freshwater Pond,5.24950592595868,Sandwich,,Sandwich,41.6703008446658,-70.4735854763625,Not Indicated,,,,,,No,No,No,,598.932963043606,21243.9967708927,No,99,344,SA-682,Lily Pond,No
 ,,Freshwater Pond,1.94863410497172,South Chatham,,Chatham,41.6901766510449,-70.0262960169814,Not Indicated,,,,,,No,No,No,,364.302791404009,7885.84244261249,No,91,345,CH-517,Archies Pond,No
 ,Open Water,Freshwater Pond,2.15038238980709,Pocasset,,Bourne,41.6968085335107,-70.6044229676917,Not Included,,Yes,Yes,,,No,No,No,No,612.609870101292,8702.28878480667,No,33,346,BO-511,Shop Pond,No
 ,Open Water,Freshwater Pond,9.20208966482779,Orleans,,Orleans,41.7416772912804,-69.9835768978166,Mesotrophic,,,,82278.2419758383,14,No,No,Yes,,985.173863488334,37239.535659609,No,69,347,OR-247,Twinings Pond,No
 ,Open Water,Freshwater Pond,0.340932785069285,South Dennis,,Dennis,41.7443986617224,-70.152989385228,Not Indicated,,,,,,No,No,No,,153.443263135498,1379.70603086435,No,65,348,DE-246,Jonathans Pond,No
 ,,,5.67419931437048,Buzzards Bay,,Bourne,41.7733120992066,-70.564118355401,Not Indicated,,Yes,Yes,,4,No,No,No,Yes,1455.57705772937,22962.6699373378,No,11,349,BO-165,Foundry Pond,No
 ,Open Water,Freshwater Pond,8.7141928317456,East Falmouth,,Falmouth,41.5951789951422,-70.595652657809,Not Indicated,,,,,,No,No,Yes,,931.948235120874,35265.0872271817,No,44,350,FA-925,Deer Pond,No
 ,Open Water,Freshwater Pond,7.80588612284419,Osterville,,Barnstable,41.6565434046651,-70.3794877552326,Not Indicated,,,,,,No,No,No,,1194.10487984769,31589.3003887551,No,36,351,BA-733,Flowing Pond,No
 ,Open Water,Freshwater Pond,4.02056095436795,West Yarmouth,,Yarmouth,41.676210466592,-70.2256712991889,Not Indicated,,,,,,No,No,No,,473.988718486766,16270.6329198346,No,0,352,YA-637,Halfway Pond,No
 ,,Freshwater Pond,3.3809789776961,South Chatham,,Chatham,41.6917461419172,-70.0244350131379,Not Indicated,,,,,,No,No,No,,488.419722970083,13682.3364898889,No,67,353,CH-506,South Pond,No
Flax Pond,Open Water,Freshwater Pond,10.3181392105612,Yarmouthport,,Yarmouth,41.694851287072,-70.2287405992848,Not Included,,No,Yes,,20,No,No,Yes,No,939.955326765573,41756.027931477,No,16,354,YA-493,Elishas Pond,Yes - on State List
 ,,Freshwater Pond,2.8395662451076,South Chatham,,Chatham,41.6934725753692,-70.0224010955074,Not Indicated,,,,,,No,No,No,,454.329837652588,11491.3168958439,No,34,355,CH-490,Duane Pond,No
 ,Open Water,Freshwater Pond,7.36043236265112,Orleans,,Orleans,41.7836538825804,-69.991245123828,Mesotrophic,,,,135037.902994018,21,No,No,Yes,,1117.70709872667,29786.6129784355,No,5,356,OR-136,Bolands Pond,No
 ,Open Water,Freshwater Pond,13.3173111114031,Hyannis,,Barnstable,41.6496357873915,-70.3031818964349,Mesotrophic,,,,,,No,No,Yes,,1441.54565193723,53893.2460002804,No,0,357,BA-748,Fawcetts Pond,Yes - not on State List
 ,Open Water,Lake,86.277226035524,Sandwich,,Sandwich,41.6938193953869,-70.4559157674258,Mesotrophic,,,,,30,No,No,Yes,,3419.63765639728,349151.546288717,Yes,42,358,SA-504,Triangle Pond,Yes - on State List
 ,Open Water,Freshwater Pond,4.86225813965029,Yarmouthport,,Yarmouth,41.6961709589098,-70.2322636450888,Not Included,,,,,20,No,No,No,,563.99844094941,19676.8605798104,Yes,20,359,YA-483,Perch Pond,No
 ,,Freshwater Pond,2.68386098229911,South Dennis,,Dennis,41.711478144837,-70.1675118337182,Not Indicated,,,,,,No,No,No,,454.541391568083,10861.2000530459,No,4,360,DE-369,Whittemores Pond,No
 ,Open Water,Freshwater Pond,3.76108655724507,Dennis,,Dennis,41.7194271605992,-70.165554742864,Not Included,,,,,,No,No,No,,467.060294332162,15220.5772893895,Yes,60,361,DE-347,Clay Pond,No
 ,Open Water,Freshwater Pond,4.79378716462547,Dennis,,Dennis,41.7246954161917,-70.1648381286767,Oligotrophic,,,,,21.2999992370605,No,No,No,,588.200627398619,19399.7683747833,Yes,57,362,DE-325,Northern Simmons Pond,No
 ,Open Water,Freshwater Pond,1.93353734698719,Orleans,,Orleans,41.7448963029912,-69.9859446423551,Eutrophic,,,,,,No,No,No,,538.10304162976,7824.74803060537,No,0,363,OR-228,Uncle Israels Pond,No
 ,Open Water,Freshwater Pond,4.94886596333514,Buzzards Bay,,Bourne,41.7849975503563,-70.5599121408097,Not Indicated,,,,,,No,No,No,,600.12493614566,20027.3500073196,No,74,364,BO-144,Black Pond,No
 ,,Freshwater Pond,1.4727391425356,North Falmouth,,Falmouth,41.6350177683448,-70.6162870214835,Not Indicated,,,,,,No,No,No,,391.37823306827,5959.96385749007,No,41,365,FA-826,Crowell Pond,No
 ,Open Water,Lake,56.6334954172825,Marstons Mills,,Barnstable,41.6673275446094,-70.4441991635623,Eutrophic,,Yes,Yes,509115.380441466,22,No,No,Yes,No,3317.96783687097,229187.624652391,No,19,366,BA-675,Long Pond,Yes - on State List
 ,Open Water,Lake,22.9805045491559,South Chatham,,Chatham,41.6980604633645,-70.0263938684865,Not Included,,Yes,No,274861.257265065,16,No,No,Yes,No,2090.98902912025,92998.8024247442,No,28,367,CH-440,Mill Pond,Yes - on State List
 ,Open Water,Lake,106.189049877251,Sandwich,,Sandwich,41.7006750979289,-70.4592544185061,Mesotrophic,,,,3082629.85400852,43,No,Yes,Yes,,4759.68012436784,429731.838484305,Yes,2,368,SA-409,Spectacle Pond,Yes - on State List
 ,Open Water,Freshwater Pond,11.9474506874323,Dennis,,Dennis,41.7170215391304,-70.1625418785761,Not Indicated,,,,,,No,No,Yes,,1437.73283782991,48349.6175457428,Yes,77,369,DE-352,Grassy Pond,Yes - on State List
 ,Open Water,Freshwater Pond,5.58857669437091,Dennis,,Dennis,41.7229514624635,-70.1648804732241,Not Indicated,,,,,,No,No,Yes,,632.856666803088,22616.1674876899,Yes,2,370,DE-332,Southern Simmons Pond,No
 ,Open Water,Freshwater Pond,0.615166907475266,Buzzards Bay,,Bourne,41.7295309226141,-70.5994229653656,Not Indicated,,,,,,No,No,No,,238.969317392741,2489.49215036423,No,33,371,BO-326,Mill Pond,No
 ,Open Water,Freshwater Pond,4.88780202064173,Orleans,,Orleans,41.7391368993504,-69.9921894141986,Eutrophic,,,,,,No,No,Yes,,599.644138456566,19780.2329986537,No,0,372,OR-262,Deep Pond,No
 ,Open Water,Freshwater Pond,11.1641425588686,Orleans,,Orleans,41.7405490357904,-69.9894248366362,Eutrophic,,,,,,No,No,Yes,,1137.27393504547,45179.6820149467,No,1,373,OR-253,Shoal Pond,Yes - not on State List
 ,Open Water,Freshwater Pond,1.34810621540417,Orleans,,Orleans,41.7541396615969,-69.9967903381268,Eutrophic,,,,11295.9054836171,12,No,No,No,,283.841646215446,5455.59229588573,No,80,374,OR-203,Wash Pond,No
 ,Open Water,Freshwater Pond,10.1734498106071,Centerville,,Barnstable,41.6594733314105,-70.3772980925418,Mesotrophic,,Yes,Yes,,,No,No,No,No,1763.2243650726,41170.4907040196,No,27,375,BA-719,Lumbert Pond,Yes - not on State List
Upper Hog Pond,Open Water,Freshwater Pond,8.19498956761973,Sandwich,,Sandwich,41.6842422331435,-70.4523862641762,Oligotrophic,,,,,26,No,No,No,,677.014999422229,33163.9461632229,Yes,0,376,SA-581,Lower Hog Pond,No
Lower Hog Pond,Open Water,Freshwater Pond,11.7607283044383,Sandwich,,Sandwich,41.6875400704259,-70.4503684389848,Oligotrophic,,,,,20,No,No,No,,939.797497175156,47593.9788709177,Yes,18,377,SA-559,Upper Hog Pond,Yes - not on State List
 ,Open Water,Freshwater Pond,4.70010317861269,Chatham,,Chatham,41.6882401778509,-69.974995511445,Not Included,,,,,,No,No,Yes,,731.596843726168,19020.6427343114,No,0,378,CH-522,Newty Pond,No
 ,Open Water,Freshwater Pond,15.1002489229887,Harwich,,Harwich,41.6919109948071,-70.0972779942779,Oligotrophic,,Yes,No,133375.756731878,18,Yes,No,Yes,No,1296.59342902172,61108.5393338354,No,17,379,HA-507,Flax Pond,Yes - on State List
 ,Open Water,Freshwater Pond,0.51782866599401,South Dennis,,Dennis,41.694405046115,-70.1374756514257,Not Indicated,,,,,,No,No,No,,181.306579563832,2095.57826268069,No,0,380,DE-496,Duck Pond,No
 ,Open Water,Lake,26.8687068983444,Yarmouthport,,Yarmouth,41.694253174767,-70.2362937301885,Mesotrophic,,,,,25,No,No,Yes,,1657.69315094952,108733.799073148,Yes,0,381,YA-492,Greenough Pond,Yes - on State List
 ,Open Water,Freshwater Pond,4.66013234298872,Yarmouthport,,Yarmouth,41.6975023342121,-70.2392389708579,Not Indicated,,,,,,No,No,No,,678.076420674834,18858.8865014579,Yes,0,382,YA-470,Little Greenough Pond,No
 ,,Freshwater Pond,5.73377147809208,West Barnstable,,Barnstable,41.7106366071275,-70.3921780725208,Not Indicated,,,,,,Yes,No,No,,641.54758203063,23203.7499306909,No,0,383,BA-382, ,No
 ,,,2.19828516608658,West Barnstable,,Barnstable,41.7124570869778,-70.3934528528816,Not Indicated,,,,,,Yes,No,Yes,,640.700541047102,8896.14444264412,No,0,384,BA-372,Bog Pond,No
Nye Pond,Open Water,Freshwater Pond,6.69463116458508,East Sandwich,,Sandwich,41.7272992960552,-70.4324524534705,Not Indicated,,,,,,No,No,Yes,,942.550433227737,27092.2111240003,No,42,385,SA-324,Mill Pond,No
 ,Open Water,Freshwater Pond,6.80539401293008,Brewster,,Brewster,41.7537977584537,-70.0923627855725,Eutrophic,,,,,10,No,No,No,,756.770566238085,27540.4524681886,No,21,386,BR-205,Schoolhouse Pond,No
 ,Open Water,Lake,31.1420429046102,Orleans,,Orleans,41.7666965364897,-70.0036860818443,Oligotrophic,,,,1432831.73550937,60,No,Yes,Yes,,1908.77456436498,126027.376335178,Yes,41,387,OR-167,Bakers Pond,Yes - on State List
 ,Open Water,Freshwater Pond,3.90241594565456,Brewster,,Brewster,41.7704520419377,-70.0163015637802,Mesotrophic,,,,,,No,No,No,,463.428407043867,15792.5170325483,No,4,388,BR-162,Owl Pond,No
 ,Open Water,Freshwater Pond,16.9251374473026,Forestdale,,Sandwich,41.6794101391787,-70.4980283697271,Mesotrophic,,,,233475.524314341,25,No,Yes,Yes,,1074.64829043783,68493.6011786192,No,0,389,SA-615,Pimlico Pond,Yes - not on State List
 ,,Freshwater Pond,2.87502801036178,Harwich,,Harwich,41.688433786888,-70.0828237957147,Not Indicated,,,,,,No,No,No,,532.194307354431,11634.8255683124,No,36,390,HA-532,Island Pond,No
 ,Open Water,Lake,135.027358719877,Forestdale,,Sandwich,41.6874608427547,-70.4940845895554,Mesotrophic,,,,4124658.9591396,57,No,Yes,Yes,,4872.63866053112,546436.333835241,No,5,391,SA-526,Peters Pond,Yes - on State List
 ,Open Water,Freshwater Pond,2.03159714631668,Pocasset,,Bourne,41.6984436004657,-70.6026198257875,Not Indicated,,,,,,No,No,No,,380.196849169483,8221.58195930119,No,82,392,BO-498,The Basin,No
 ,Open Water,Freshwater Pond,2.35310241907829,Yarmouthport,,Yarmouth,41.6963256121029,-70.241584584018,Not Indicated,,,,,20,No,No,No,,403.077988660156,9522.66763721194,Yes,0,393,YA-487,Muddy Pond,No
 ,Open Water,Freshwater Pond,5.9300311657613,Yarmouthport,,Yarmouth,41.6984200355644,-70.2438080433786,Not Indicated,,,,,20,No,No,No,,629.295631169143,23997.9847081933,Yes,0,394,YA-457,Millers Pond,No
 ,Open Water,Freshwater Pond,2.08848175477969,Yarmouthport,,Yarmouth,41.703465992351,-70.2397794358977,Not Indicated,,No,No,,15,No,No,No,,336.619505568055,8451.78580239542,No,11,395,YA-422,Howes Pond,No
 ,Open Water,Freshwater Pond,5.77773541871666,Orleans,,Orleans,41.7378538738921,-69.9971038386029,Eutrophic,,,,,,No,No,Yes,,666.375741224119,23381.6656861615,No,0,396,OR-264,Uncle Seths Pond,No
 ,Open Water,Freshwater Pond,1.85730854019893,Brewster,,Brewster,41.7711595259815,-70.0115861777282,Not Indicated,,,,,,Yes,No,No,,337.439931853644,7516.26099428242,No,3,397,BR-161,Vespers Pond,No
 ,Open Water,Freshwater Pond,3.29533046035842,Brewster,,Brewster,41.7719326571705,-70.0268754904147,Not Indicated,,,,,,No,No,No,,731.779838081353,13335.7292374318,No,100,398,BR-160,Keeler Pond,No
 ,Open Water,Freshwater Pond,2.48640201476811,Brewster,,Brewster,41.77224327194,-70.013129776007,Not Indicated,,,,,,Yes,No,No,,580.640361076574,10062.1119621326,No,0,399,BR-158,Lees Pond,No
 ,Open Water,Freshwater Pond,4.29215037670877,Chatham,,Chatham,41.6881704050258,-69.9551390676331,Mesotrophic,,,,34635.5973251716,16,No,No,No,,576.16760841049,17369.7163178905,No,33,400,CH-524,Black Pond,No
 ,,,8.48501208146705,Yarmouthport,,Yarmouth,41.693444979637,-70.2579390015434,Not Included,,,,,25,No,No,No,,1208.67286367277,34337.6256360265,Yes,2,401,YA-494,Long Pond,No
 ,Open Water,Freshwater Pond,0.801461517253585,Cummaquid,,Barnstable,41.7032846307477,-70.2687661625974,Not Indicated,,,,,,No,No,No,,233.967374887337,3243.39968840412,No,3,402,BA-430,Andreas Pond,No
Goat Pond,,Lake,22.6281911709755,Buzzards Bay,,Bourne,41.7719625498008,-70.5971217030077,Not Indicated,,Yes,Yes,,5,No,No,No,No,3996.52710118999,91573.0407675573,No,48,403,BO-169,Goat Pasture Pond,Yes - not on State List
 ,Open Water,Freshwater Pond,1.73575979937303,Brewster,,Brewster,41.7705454330648,-70.0311457772874,Not Indicated,,,,,,No,No,No,,421.245018425568,7024.37069183648,No,100,404,BR-163,Triangle Pond,No
 ,Open Water,Freshwater Pond,2.37269678562074,North Falmouth,,Falmouth,41.6317943237842,-70.6144616477249,Not Indicated,,,,,,No,No,No,,515.034744586128,9601.96322529712,No,0,405,FA-833,Turtle Pond,No
 ,Open Water,Lake,48.3241251883735,Yarmouthport,,Yarmouth,41.6958795732914,-70.2526935332891,Mesotrophic,,No,No,423581.077643728,18,No,No,Yes,,2211.77826673648,195560.796375431,Yes,69,406,YA-472,Dennis Pond,Yes - on State List
 ,Open Water,Freshwater Pond,12.2892919422914,Brewster,,Brewster,41.7476624306706,-70.1042187192409,Eutrophic,,,,,,No,No,No,,1121.67085221888,49733.0000234104,No,10,407,BR-225,Smith Pond,Yes - on State List
 ,Open Water,Freshwater Pond,3.33526161281154,Brewster,,Brewster,41.7558705035855,-70.0076314977649,Mesotrophic,,,,,,No,No,No,,603.363551733308,13497.3248781906,Yes,100,408,BR-202,Eel Pond,No
White Pond,Open Water,Lake,29.4652743358304,Brewster,,Brewster,41.7580523183224,-70.0091938185913,Oligotrophic,,,,1396856.47239378,67,No,Yes,Yes,,1610.29331477916,119241.734683733,Yes,100,409,BR-194,Higgins Pond,Yes - on State List
Flat Pond,Open Water,Lake,52.6650706287536,Brewster,,Brewster,41.766871785074,-70.026373509245,Oligotrophic,,,,3209382.6182879,75,No,Yes,Yes,,1949.40425637853,213127.979310121,Yes,100,410,BR-168,Flax Pond,Yes - on State List
 ,,,2.21423627379242,Eastham,,Eastham,41.8388044158211,-69.9623139710087,Not Indicated,,,,,,No,No,No,,414.340366903886,8960.6962853079,No,73,411,EA-94,Uncle Dans Pond,No
 ,,,0.816668057703215,Harwich,,Harwich,41.693339227614,-70.0767021240533,Not Indicated,,,,,,No,No,No,,265.000762134059,3304.93837428519,No,8,412,HA-500,Abrams Pond,No
 ,Open Water,Freshwater Pond,8.11467167275117,South Dennis,,Dennis,41.6982171528935,-70.1360374217972,Mesotrophic,,No,Yes,,24,No,No,Yes,No,750.997943877032,32838.9111745404,No,0,413,DE-447,Eagle Pond,Yes - on State List
 ,Open Water,Freshwater Pond,8.76872774279278,Dennis,,Dennis,41.7194391128223,-70.1763501460862,Mesotrophic,,,,,10.5,No,No,No,,1346.3062457078,35485.782182198,No,73,414,DE-348,Run Pond,Yes - on State List
 ,,Freshwater Pond,2.40792521108114,South Dennis,,Dennis,41.7203723041253,-70.1528095466689,Not Indicated,,,,,,No,No,No,,457.231771115839,9744.52760512259,Yes,99,415,DE-340,Cash Pond,No
 ,Open Water,Lake,54.317133922027,Centerville,,Barnstable,41.6556178444511,-70.3354087087823,Eutrophic,,,,909545.091549242,23,No,No,Yes,,2996.84519869697,219813.642258716,No,7,416,BA-737,Long Pond,Yes - not on State List
 ,Open Water,Freshwater Pond,1.19412320004308,Cataumet,,Bourne,41.6658706733485,-70.6060244425683,Not Indicated,,Yes,Yes,,,No,No,No,No,308.156841594083,4832.44514123116,No,2,417,BO-709,Cuffs Pond,No
 ,,Freshwater Pond,7.23366479812747,Cataumet,,Bourne,41.6702016953299,-70.6035807167723,Not Indicated,,Yes,Yes,,,Yes,No,No,No,1144.21022000343,29273.602845791,No,6,418,BO-687,Long Pond,No
Halfway Pond,Open Water,Freshwater Pond,18.0840501613772,Hyannis,,Barnstable,41.6745720905984,-70.2777251807083,Oligotrophic,,,,59199.8395995866,9,No,No,Yes,,1181.08205059291,73183.554538573,Yes,58,419,BA-646,Mary Dunn Pond,Yes - not on State List
 ,Open Water,Freshwater Pond,0.749526723320839,West Yarmouth,,Yarmouth,41.6779819164367,-70.2503847951429,Not Indicated,,No,No,,,No,No,No,,230.215008284466,3033.22703403136,No,30,420,YA-625,Crow Pond,No
 ,Open Water,Freshwater Pond,2.50145195867702,Buzzards Bay,,Bourne,41.6988334329709,-70.5997291991218,Not Indicated,,Yes,Yes,,3,No,No,No,No,522.719164800861,10123.0169242972,No,95,421,BO-495,Freeman Pond,No
Lily Pond,Open Water,Freshwater Pond,2.84773726474992,Barnstable,,Barnstable,41.6977563022277,-70.2767761253598,Not Indicated,,,,,,No,No,No,,425.903134231304,11524.383839161,No,0,422,BA-473,Flax Pond,No
 ,Open Water,Freshwater Pond,1.60923441340819,Pocasset,,Bourne,41.7002659717124,-70.5982566267112,Not Indicated,,No,Yes,,,No,No,No,No,597.20930710553,6512.34062104803,No,99,423,BO-477,Upper Pond,No
Lizzies Pond,Open Water,Freshwater Pond,12.2997902108675,South Dennis,,Harwich,41.702490194208,-70.1327022701746,Oligotrophic,,No,No,,,No,No,Yes,Yes,828.740850814412,49775.4850090216,No,3,424,HA-414,White Pond,Yes - on State List
Mill Pond,Open Water,Lake,105.243100612718,Brewster,,Brewster,41.7237944642576,-70.1239190490461,Eutrophic,,No,Yes,590376.710827644,10,No,No,Yes,No,3228.63262153533,425903.717627869,No,50,425,BR-313,Walkers Pond,Yes - on State List
Mill Pond,Open Water,Lake,260.100026121123,Brewster,,Brewster,41.7295089586668,-70.117688500733,Eutrophic,,Yes,Yes,4564785.49984554,30,No,No,Yes,No,5183.15145694643,1052587.46117467,No,31,426,BR-272,Upper Mill Pond,Yes - on State List
 ,Open Water,Freshwater Pond,13.792589775812,Brewster,,Brewster,41.7366752644164,-70.1199462458984,Eutrophic,,No,Yes,,20,No,No,Yes,No,1134.06649172134,55816.6305157735,No,0,427,BR-269,Canoe Pond,Yes - on State List
 ,Open Water,Lake,51.6477057185819,Brewster,,Brewster,41.7407225326841,-70.1098767961268,Eutrophic,,Yes,No,246043.723094329,13,No,No,Yes,,2466.35910452733,209010.849589468,No,4,428,BR-245,Lower Mill Pond,Yes - on State List
 ,Open Water,Lake,35.6306390197194,Brewster,,Brewster,41.7571267422912,-70.0145187019285,Oligotrophic,,,,936062.236720643,37,No,Yes,Yes,,2400.52043568218,144192.080351167,Yes,100,429,BR-192,Little Cliff Pond,Yes - on State List
 ,Open Water,Freshwater Pond,7.06864950269713,Brewster,,Brewster,41.7608332738387,-70.0537357430011,Mesotrophic,,,,,,No,No,No,,653.601903309245,28605.8096376845,Yes,0,430,BR-189,Sols Pond,No
 ,Open Water,Lake,205.189170140625,Brewster,,Brewster,41.7580595661915,-70.0240030904027,Mesotrophic,,,,15878274.159136,95,No,Yes,Yes,,4524.5321490541,830371.110990513,Yes,100,431,BR-1028,Cliff Pond,Yes - on State List
 ,Open Water,Lake,22.0360388928943,Brewster,,Brewster,41.7633742636179,-70.0536192425173,Oligotrophic,,,,372012.800864623,24,No,No,Yes,,1566.24416387103,89176.6855179656,Yes,14,432,BR-180,Blueberry Pond,Yes - on State List
 ,,Freshwater Pond,12.3805518979777,East Falmouth,,Falmouth,41.6094299331552,-70.5855073371413,Not Indicated,,,,,,No,No,Yes,,1130.71913504734,50102.3159611877,No,50,433,FA-904,Shallow Pond,Yes - on State List
 ,Open Water,Freshwater Pond,4.18074069833343,Hyannis,,Barnstable,41.6707264062979,-70.2794841555078,Not Included,,,,,,No,No,No,,597.171838270383,16918.8573454397,No,34,434,BA-670,Lewis Pond,No
 ,Open Water,Freshwater Pond,1.13976817099439,Hyannis,,Barnstable,41.6751293994803,-70.2810611452121,Not Indicated,,,,,,No,No,No,,276.824772768635,4612.47814283576,No,59,435,BA-652,Upper Gate Pond,No
 ,Open Water,Freshwater Pond,13.1495629952038,Hyannis,,Barnstable,41.6789159268368,-70.2668646699624,Not Indicated,,,,,,No,No,No,,2045.94082694968,53214.3934588938,No,74,436,BA-596,Lamson Pond,Yes - not on State List
Katies Pond,Open Water,Freshwater Pond,6.87322910206772,Harwich,,Harwich,41.6981624524001,-70.0803628945045,Oligotrophic,,,,,,No,No,No,,651.340800097241,27814.9713343293,No,25,437,HA-442,Andrews Pond,Yes - on State List
 ,Open Water,Freshwater Pond,16.605774279876,Dennis,,Dennis,41.716428328414,-70.1874719435576,Oligotrophic,,,,,29,No,No,Yes,,948.876760230737,67201.1842934409,No,58,438,DE-355,Flax Pond,Yes - on State List
 ,Open Water,Freshwater Pond,9.93939359302573,South Dennis,,Dennis,41.7197033768884,-70.1447715241591,Oligotrophic,,,,,19,No,No,Yes,,898.520383109217,40223.2987966976,Yes,34,439,DE-342,Bakers Pond,Yes - on State List
 ,Open Water,Lake,32.3656337462738,Brewster,,Brewster,41.7244320976151,-70.1317189071492,Oligotrophic,,,,,30,No,No,Yes,,1352.94496445801,130979.072791154,No,19,440,BR-321,Slough Pond,Yes - on State List
 ,Open Water,Freshwater Pond,9.48522810339436,Brewster,,Brewster,41.7449454254291,-70.0151133144999,Not Indicated,,,,124436.97932484,18,No,No,Yes,,927.210295843718,38385.3562681504,Yes,72,441,BR-232,Rafe Pond,No
 ,,Freshwater Pond,7.29172685836816,Brewster,,Brewster,41.7508950756173,-70.023324482251,Not Indicated,,,,,3,No,No,No,,1055.05385540693,29508.5716671738,No,100,442,BR-1029,Grassy Nook Pond,No
 ,,,2.50395342148777,Hyannis,,Barnstable,41.6822915220581,-70.2762642089793,Eutrophic,,,,,,No,No,No,,446.407630453788,10133.1399851382,No,82,443,BA-587,Round Pond,No
 ,,,0.585624405603874,Harwich,,Harwich,41.7067188888564,-70.1312117809377,Not Indicated,,,,,,No,No,No,,188.757088529692,2369.93788693222,No,90,444,HA-393,Washburn Bog Pond,No
Pleasant Lake,Open Water,Lake,174.756687495496,Harwich,,Harwich,41.7130627405809,-70.0898451965325,Eutrophic,,Yes,Yes,2940055.313676,28,Yes,No,Yes,Yes,3546.82126585877,707215.223148499,No,15,445,HA-353,Hinckleys Pond,Yes - on State List
 ,Open Water,Freshwater Pond,7.99549424926194,Brewster,,Brewster,41.7517898923207,-70.0322214534597,Not Indicated,,,,101121.670727777,18,No,No,Yes,,768.616737865348,32356.617252888,No,100,446,BR-209,Ruth Pond,No
Widgeon Hole Pond,Open Water,Freshwater Pond,3.28923755661351,Brewster,,Brewster,41.7585859388187,-70.0559018899211,Not Indicated,,,,,,No,No,No,,454.466025199659,13311.0721307807,No,0,447,BR-197,Widger Hole,No
 ,Open Water,Freshwater Pond,5.24219796107648,Hyannis,,Barnstable,41.658583148474,-70.3162233626404,Eutrophic,,,,,,No,No,No,,717.133862666785,21214.4224862746,No,9,448,BA-723,Dunns Pond,No
 ,Open Water,Freshwater Pond,5.4274280761563,Harwich,,Harwich,41.7072359942082,-70.1265528302561,Not Indicated,,,,,,No,No,No,,571.288232622777,21964.0221671072,No,16,449,HA-387,Littlefields Pond,No
 ,Open Water,Lake,32.7616666558865,Harwich,,Harwich,41.7054723589598,-70.1100797776657,Mesotrophic,,,,,12,Yes,No,Yes,,1773.63744095494,132581.761114902,No,25,450,HA-386,Robbins Pond,Yes - on State List
 ,Open Water,Lake,36.8276636444785,Brewster,,Brewster,41.7147782038721,-70.1270844109859,Oligotrophic,,,,817024.730945006,31,Yes,No,Yes,,2085.54026077214,149036.267141645,Yes,15,451,BR-357,Elbow Pond,Yes - on State List
 ,Open Water,Lake,24.1935786944062,Brewster,,Brewster,41.7209477277714,-70.1361868718591,Mesotrophic,,,,,,Yes,No,Yes,,1220.49276686732,97907.9393202976,Yes,54,452,BR-335,Pine Pond,Yes - on State List
Bangs Pond,Open Water,Lake,183.380274044983,Harwich,,Brewster,41.7243130758727,-70.092698961371,Mesotrophic,,No,Yes,5794031.77719462,38,No,No,Yes,Yes,3498.40623099361,742113.639760412,No,32,453,HA-306,Seymour Pond,Yes - on State List
 ,Open Water,Freshwater Pond,3.30984778542551,East Falmouth,,Falmouth,41.6140328996197,-70.5811973799031,Not Indicated,,,,,,No,No,No,,519.667972807362,13394.4787676157,No,2,454,FA-901,Randal Pond,No
 ,Open Water,Freshwater Pond,2.83312726570126,Hyannis,,Barnstable,41.6645888221488,-70.2969583119833,Not Indicated,,,,,,No,No,No,,440.950827399754,11465.2592706797,No,1,455,BA-701,Fresh Pond,No
 ,Open Water,Freshwater Pond,1.59533339140431,Hyannis,,Barnstable,41.6799318115753,-70.2833852371684,Not Indicated,,,,,,No,No,No,,380.517083509517,6456.08518087369,No,19,456,BA-608,Little Israel Pond,No
Israels Pond,Open Water,Freshwater Pond,8.52388855458394,Hyannis,,Barnstable,41.6817654660266,-70.278967221521,Not Indicated,,,,11358.9738223509,2,No,No,No,,938.957813771544,34494.9531409399,No,56,457,BA-585,Israel Pond,No
Round Pond,Open Water,Freshwater Pond,4.96581754151903,Brewster,,Brewster,41.7089830626149,-70.1246705076697,Not Indicated,,,,,,No,No,No,,514.514103586852,20095.9506103629,Yes,25,458,BR-377,Dark Bottom Pond,No
 ,Open Water,Freshwater Pond,8.78270433945286,South Dennis,,Dennis,41.7286107811726,-70.1487587388525,Not Indicated,,,,,,No,No,No,,1363.43832070652,35542.3434621551,Yes,51,459,DE-304,Aunt Pattys Pond,No
 ,Open Water,Freshwater Pond,1.47928024195201,Brewster,,Brewster,41.7287856496572,-70.1059129438182,Not Indicated,,,,,,No,No,No,,284.299244664227,5986.43474767292,No,100,460,BR-298,1858 Bog,No
 ,,,0.302342147964397,Orleans,,Orleans,41.7682154329678,-70.0008226607615,Not Included,,,,,,No,No,No,,141.56065490627,1223.53526325193,No,12,461,OR-171,Chigger Pond,No
 ,Open Water,Lake,88.312704219074,East Falmouth,,Falmouth,41.5967284178873,-70.5854106519423,Not Indicated,,,,2872795.35406508,51,No,No,Yes,,3704.97012856287,357388.834248471,No,0,462,FA-918,Jenkins Pond,Yes - on State List
 ,Open Water,Freshwater Pond,0.986883065457623,Mashpee,,Mashpee,41.6160829935757,-70.522849562609,Not Indicated,,,,,6,No,No,No,,290.983268579805,3993.77407160498,No,0,463,MA-895,Flying Squirrel Pond,No
 ,Open Water,Lake,35.3870397200576,East Falmouth,,Falmouth,41.6168200519959,-70.5836073539557,Not Indicated,,,,1167465.44845896,42,No,No,Yes,,2621.62413108311,143206.268960839,Yes,15,464,FA-884,Crooked Pond,Yes - on State List
 ,Open Water,Freshwater Pond,6.92694614937029,Hyannis,,Barnstable,41.6782186339261,-70.2864527732263,Not Indicated,,,,,,No,No,No,,707.782983172514,28032.3565121981,No,26,465,BA-614,Flint Rock Pond,No
 ,Open Water,Freshwater Pond,0.767511298293924,Hyannis,,Barnstable,41.6812180321401,-70.282418887558,Not Indicated,,,,,,No,No,No,,242.244704647385,3106.00802676533,No,69,466,BA-600,Small Pond,No
 ,,Freshwater Pond,2.65753369129273,Harwich,,Harwich,41.7008459225045,-70.0390687163731,Not Indicated,,,,,,No,No,No,,396.744188576244,10754.6572863524,No,0,467,HA-424,Kiddies Pond,No
 ,Open Water,Lake,34.3659845864756,Harwich,,Harwich,41.7001025276733,-70.0432914117238,Oligotrophic,,,,,,No,No,Yes,,1838.86365695081,139074.205435878,No,0,468,HA-420,Bucks Pond,Yes - on State List
 ,Open Water,Freshwater Pond,8.30372642285679,Harwich,,Harwich,41.7004596774969,-70.0366314885843,Mesotrophic,,,,,,No,No,Yes,,1257.67978061199,33603.9886041906,No,0,469,HA-418,Sand Lake,No
John Josephs Pond,Open Water,Lake,21.811592723396,Harwich,,Harwich,41.7007931449287,-70.0494151082485,Mesotrophic,,,,808718.085860504,55,No,No,Yes,,1195.83289764705,88268.3840954482,No,0,470,HA-416,Josephs Pond,Yes - on State List
 ,Open Water,Freshwater Pond,12.5972322956136,Harwich,,Brewster,41.7238168667127,-70.0310763208807,Not Indicated,,Yes,Yes,,,No,No,Yes,No,1372.54275575276,50979.1904199684,Yes,25,471,BR-319,Grassy Pond,Yes - on State List
 ,Open Water,Freshwater Pond,11.3666280878753,Brewster,,Brewster,41.7254662080599,-70.0825526574784,Eutrophic,,,,,,No,No,No,,799.534479991166,45999.1118784506,No,5,472,BR-316,Black Pond,Yes - not on State List
 ,Open Water,Freshwater Pond,17.3207426847588,Brewster,,Brewster,41.7252661434575,-70.0448233703701,Mesotrophic,,,,94872.3812643596,10,No,No,No,,1286.12187558597,70094.5587745539,No,16,473,BR-314,Smalls Pond,Yes - on State List
 ,Open Water,Lake,37.5392851175217,Brewster,,Brewster,41.7262458824881,-70.0510403758973,Oligotrophic,,,,,18,No,No,No,,1852.61262909733,151916.097070147,No,15,474,BR-305,Greenland Pond,Yes - on State List
 ,,,11.0092518779964,Harwich,,Harwich,41.7257904398336,-70.0262085153065,Not Indicated,,No,Yes,,,No,No,Yes,No,1379.67450121032,44552.861668289,Yes,46,475,HA-300,Mud Pond,Yes - not on State List
 ,Open Water,Lake,32.8955154506659,Brewster,,Brewster,41.726219582911,-70.0346458986119,Oligotrophic,,,,,14,No,No,No,,1589.66965784884,133123.427969686,Yes,39,476,BR-299,Cahoon Pond,Yes - on State List
 ,Open Water,Lake,742.9484129307,Brewster,,Brewster,41.7236616676155,-70.0666031679675,Mesotrophic,,No,Yes,41274889.3145305,70,Yes,No,Yes,Yes,11325.4578631964,3006605.55638049,No,10,477,BR-279,Long Pond,Yes - on State List
 ,Open Water,Freshwater Pond,2.92032475103383,Brewster,,Brewster,41.7379595690604,-70.1004221539307,Not Indicated,,,,,,No,No,No,,563.758102499326,11818.1349742149,No,92,478,BR-267,Calf Field Pond,No
 ,,,5.78125174598348,East Falmouth,,Falmouth,41.622334990652,-70.5874842183052,Not Indicated,,,,,,No,No,No,,998.247046507107,23395.8957577444,No,9,479,FA-867,Spectacle Pond,No
 ,Open Water,Freshwater Pond,1.34967450057212,Cotuit,,Barnstable,41.6376169343953,-70.4556306142614,Not Indicated,,,,,,No,No,No,,313.974993022899,5461.93892078979,No,70,480,BA-812,Naomi Pond,No
 ,Open Water,Freshwater Pond,4.72941562683012,Marstons Mills,,Barnstable,41.6654427646602,-70.3805913150025,Not Indicated,,,,,,No,No,No,,727.977364920169,19139.2660036364,No,10,481,BA-699, ,No
 ,,Freshwater Pond,1.75910280447973,Harwich,,Harwich,41.7028344273233,-70.0412033366656,Not Indicated,,,,,,No,No,No,,375.168252536203,7118.83648197066,No,8,482,HA-404,Jacks Pond,No
Little Hawksnest Pond,,Freshwater Pond,9.35493542993959,Harwich,,Harwich,41.7114750369247,-70.0479815260371,Not Indicated,,,,,,No,No,Yes,,1025.48000813038,37858.0805257883,No,55,483,HA-364,Black Pond,Yes - on State List
Wolf's Field Pond,Open Water,Lake,29.5494140598233,Harwich,,Harwich,41.7137019001298,-70.0448839674164,Oligotrophic,,,,,,No,No,Yes,,1660.53513550288,119582.236066153,No,75,484,HA-354,Hawksnest Pond,Yes - on State List
Kenneys Pond,Open Water,Freshwater Pond,14.5965462702908,Harwich,,Harwich,41.7160182245934,-70.0387565586794,Not Indicated,,,,,,No,No,No,,1525.6679221224,59070.127018785,Yes,84,485,HA-351,Olivers Pond,Yes - on State List
 ,Open Water,Freshwater Pond,13.5819615374532,Harwich,,Harwich,41.725500586853,-70.0397459131634,Not Included,,,,108396.482574595,15,No,No,No,,903.378688240781,54964.2482766325,No,15,486,HA-310,Mill Pond,Yes - not on State List
 ,Open Water,Freshwater Pond,3.77627503212086,Brewster,,Brewster,41.7274419070393,-70.0732024273986,Not Indicated,,,,,,Yes,No,No,,512.684972634816,15282.0428664871,No,0,487,BR-303,Girl Scout Pond,No
 ,Open Water,Freshwater Pond,3.52592183397969,Brewster,,Brewster,41.7334705731131,-70.1368057950332,Not Indicated,,,,,,No,No,No,,476.151420277674,14268.8994187211,No,0,488,BR-287,Round Pond,No
 ,Open Water,Freshwater Pond,5.44648985405375,South Dennis,,Dennis,41.7335058542438,-70.1547737778235,Not Indicated,,,,,,No,No,No,,577.471706891276,22041.1624454139,No,88,489,DE-286,Fund Pond,No
 ,Open Water,Freshwater Pond,2.85384025389383,Brewster,,Brewster,41.733353230392,-70.0977693482292,Not Indicated,,,,,,No,No,No,,394.516501104215,11549.0817599739,No,42,490,BR-285,Tuckers Pond,No
 ,Open Water,Lake,150.888599327141,Brewster,,Brewster,41.7405707647508,-70.0676736877664,Oligotrophic,,,,5780313.16092887,63,No,Yes,Yes,,4483.49333441281,610624.497253981,No,8,491,BR-240,Sheep Pond,Yes - on State List
 ,Open Water,Freshwater Pond,3.27103166540861,Brewster,,Brewster,41.7506029840298,-70.0592755823899,Not Indicated,,,,,,No,No,No,,446.49956666891,13237.3955030326,No,27,492,BR-213,No Bottom Pond,No
 ,Open Water,Freshwater Pond,2.07585253130683,Mashpee,,Mashpee,41.6385310284723,-70.456360744769,Not Indicated,,,,,,No,No,No,,344.740374043203,8400.67714827434,No,37,493,MA-804,Coombs Pond,No
 ,Open Water,Lake,80.9742046812505,Centerville,,Barnstable,41.6762922508861,-70.3210226275067,Mesotrophic,,,,79691.4993813998,7,No,No,No,,4634.8753329159,327690.980263051,Yes,8,494,BA-626,Shallow Pond,Yes - not on State List
Eldridge Pond,Open Water,Freshwater Pond,12.7329400125803,Harwich,,Harwich,41.7054895131609,-70.0605006369492,Eutrophic,,Yes,Yes,,7,No,No,Yes,No,1243.3897433576,51528.3800659446,No,22,495,HA-381,Cornelius Pond,Yes - on State List
Josiah Bassetts Pond,Open Water,Lake,21.7778078001595,Harwich,,Harwich,41.7079633708895,-70.0678949487928,Mesotrophic,,,,,7,No,No,Yes,,1505.60322104031,88131.6613618684,Yes,0,496,HA-376,Aunt Edies Pond,Yes - not on State List
Eldredge Pond,Open Water,Lake,36.1654705508489,Harwich,,Harwich,41.7126036096769,-70.0513995799272,Mesotrophic,,No,Yes,,27,No,No,Yes,No,2373.5653508819,146356.466767821,No,21,497,HA-358,Walkers Pond,Yes - on State List
 ,Open Water,Freshwater Pond,5.43036570363618,East Sandwich,,Sandwich,41.7222399249691,-70.4102986560648,Not Indicated,,,,,,Yes,No,No,,683.110029054496,21975.9103237408,No,0,498,SA-345,Lily Pond,No
 ,Open Water,Freshwater Pond,9.20467933558743,South Dennis,,Dennis,41.7347836833119,-70.1461870427695,Eutrophic,,,,,13.8999996185303,No,No,Yes,,1035.53608887594,37250.0156853546,Yes,6,499,DE-281,Cedar Pond,No
 ,Open Water,Freshwater Pond,1.81920494260918,East Sandwich,,Sandwich,41.7385574916188,-70.3958336832456,Not Indicated,,,,,,Yes,No,No,,394.708573301381,7362.06120565978,No,6,500,SA-277,Dead Swamp Pond,No
 ,Open Water,Freshwater Pond,0.910019520967317,Brewster,,Brewster,41.7360797045121,-70.0974399905415,Not Indicated,,,,,,No,No,No,,232.497033931189,3682.71834293596,No,65,501,BR-275,Balogs Bog,No
 ,Open Water,Freshwater Pond,4.45693770528303,Brewster,,Brewster,41.7441879323825,-70.0920587693136,Not Indicated,,,,,,No,No,No,,698.390043378621,18036.5869768614,No,0,502,BR-241,Ed Snow Pond,No
 ,Open Water,Freshwater Pond,12.0657259538884,East Falmouth,,Falmouth,41.6192162254274,-70.5608597875517,Not Included,,,,52785.5613359941,10,No,No,Yes,,985.070363272265,48828.2605674116,No,13,503,FA-882,Round Pond,Yes - on State List
Wills Pond,,,12.7937588836318,Mashpee,,Mashpee,41.6197483742361,-70.5127472350244,Not Indicated,,No,Yes,,13,No,No,No,No,2043.64946919919,51774.5053048623,No,0,504,MA-871,Martha Pond,Yes - not on State List
Pickerel Pond,Open Water,Lake,169.426068735463,East Falmouth,,Falmouth,41.6192073638887,-70.5671564897935,Not Included,,,,3271886.68727669,35,No,No,Yes,,5839.33232652929,685642.974384091,No,17,505,FA-888,Coonamessett Pond,Yes - on State List
 ,Open Water,Freshwater Pond,5.70934837964909,Mashpee,,Mashpee,41.6393717024995,-70.4593581351043,Not Indicated,,,,,,No,No,No,,556.409904149627,23104.913157902,No,0,506,MA-801,Amos Pond,No
 ,Open Water,Freshwater Pond,13.2410221622205,Barnstable,,Barnstable,41.6816216177747,-70.3146464342304,Oligotrophic,,,,,,No,No,Yes,,1198.49721989193,53584.5155763228,Yes,70,507,BA-594,Hathaway Pond (South),Yes - on State List
 ,Open Water,Lake,21.8365617180876,Barnstable,,Barnstable,41.6843772610601,-70.3121282399013,Oligotrophic,,,,933529.289050553,57,No,Yes,Yes,,1456.30571785162,88369.430031977,Yes,99,508,BA-565,Hathaway Pond (North),Yes - not on State List
 ,Open Water,Freshwater Pond,8.526345448429,Buzzards Bay,,Bourne,41.717093022394,-70.593780165126,Not Indicated,,,,,,No,No,Yes,,1324.22616373238,34504.8958375759,No,2,509,BO-365,Clay Pond,No
 ,Open Water,Lake,27.9250504840218,East Falmouth,,Falmouth,41.6235544787449,-70.5775082750321,Not Indicated,,,,429433.169690366,28,No,Yes,Yes,,1984.45877873151,113008.669897108,No,2,510,FA-857,Deep Pond,Yes - on State List
 ,Open Water,Freshwater Pond,2.48924852705085,Buzzards Bay,,Bourne,41.7372669558133,-70.5830256679023,Not Indicated,,,,,,No,No,No,,519.202230153602,10073.6313886455,No,23,511,BO-289,Great Pond,No
 ,Open Water,Lake,34.0170257427851,Brewster,,Brewster,41.741222569566,-70.0914963380312,Mesotrophic,,,,,15,Yes,No,No,,2037.27199000251,137662.019098136,No,5,512,BR-248,Griffiths Pond,Yes - on State List
 ,Open Water,Freshwater Pond,1.160154476997,Orleans,,Orleans,41.7777921329916,-69.9894304246341,Eutrophic,,,,7452.11178302983,10,No,No,No,,374.642956721941,4694.9785962114,No,0,513,OR-147,Kettle Pond,No
Tim Pond,,,10.7761059829044,Mashpee,,Mashpee,41.6209571211933,-70.5167405840956,Not Indicated,,,,,,No,No,No,,1140.84772744515,43609.3537053797,No,0,514,MA-870,Cataquin Pond,Yes - not on State List
Picture Lake,Open Water,Lake,22.7798500633938,Pocasset,,Bourne,41.6888314339964,-70.595139815646,Oligotrophic,,,,74099.0869832113,6,No,No,No,,1432.64596078557,92186.7825303545,No,1,515,BO-556,Flax Pond,Yes - not on State List
 ,Open Water,Freshwater Pond,1.72931491181301,West Barnstable,,Barnstable,41.6931805027034,-70.357760931318,Mesotrophic,,,,,,No,No,No,,332.365788018581,6998.28915722259,No,14,516,BA-523,No Bottom Pond,No
Mill Pond,,,26.4470840792999,Sandwich,,Sandwich,41.752522357575,-70.502751196646,Eutrophic,,Yes,Yes,69826.7023427251,16,No,No,Yes,No,2715.94151067307,107027.552060068,No,11,517,SA-210,Shawme Lake,Yes - not on State List
Deborah Bottles Pond,Open Water,Freshwater Pond,4.97284207338836,Mashpee,,Mashpee,41.6152537870844,-70.5269592944894,Not Indicated,,,,,,No,No,No,,641.680012673534,20124.3778822726,No,6,518,MA-897,Flashy Pond,No
 ,Open Water,Lake,336.720878294966,Mashpee,,Mashpee,41.6277350324353,-70.5208510243871,Mesotrophic,,,,17434879.4575122,65,No,Yes,Yes,,6660.49095657263,1362661.04888415,No,13,519,MA-818,Johns Pond,Yes - on State List
 ,Open Water,Lake,55.6678279805672,Cotuit,,Barnstable,41.6486689454218,-70.4418545004191,Mesotrophic,,Yes,Yes,805011.813269488,37,Yes,Yes,Yes,,1937.13752148633,225279.707184217,No,8,520,BA-759,Lovells Pond,Yes - on State List
 ,Open Water,Freshwater Pond,8.0708628783799,Pocasset,,Bourne,41.6926965493552,-70.5934350261489,Not Included,,,,,5,No,No,No,,1256.30676855247,32661.6232736814,No,0,521,BO-538,Lily Pond,No
 ,Open Water,Freshwater Pond,19.9053361017559,East Falmouth,,Falmouth,41.6006074514294,-70.5777014844942,Not Indicated,,,,304374.971935313,23,No,No,Yes,,1262.41468867366,80554.0372434215,No,3,522,FA-916,Round Pond,Yes - on State List
,Open Water,Freshwater Pond,8.19083247778242,East Falmouth,,Falmouth,41.6229915581088,-70.5354592709438,Not Indicated,,,,,,No,No,Yes,,790.272153265929,33147.1230175163,Yes,70,523,FA-860,Grassy Pond,No
 ,Open Water,Freshwater Pond,10.2328089496619,Marstons Mills,,Barnstable,41.6676902658822,-70.3891414394791,Not Included,,,,,14,No,No,No,,757.64494457769,41410.7086171313,Yes,0,524,BA-691,Round Pond,Yes - on State List
 ,Open Water,Freshwater Pond,1.14409800199969,East Falmouth,,Falmouth,41.6259637158613,-70.5364026760255,Not Indicated,,,,,,No,No,No,,261.080831865848,4630.00034724746,No,21,525,FA-850,Frog Pond,No
 ,Open Water,Lake,175.382819883945,Mashpee,,Mashpee,41.6543496415126,-70.4583732314205,Eutrophic,,,,748342.130652035,10,Yes,No,Yes,,6574.48103554931,709749.091025966,No,45,526,MA-718,Santuit Pond,Yes - on State List
 ,Open Water,Lake,118.583785986102,Marstons Mills,,Barnstable,41.6683079723665,-70.4093041594486,Oligotrophic,,,,4324668.84319597,62,No,Yes,Yes,,3212.67208990098,479891.555910362,No,7,527,BA-668,Hamblin Pond,Yes - on State List
 ,Open Water,Freshwater Pond,4.80206680200338,West Barnstable,,Barnstable,41.6910114138525,-70.3601650893632,Not Indicated,,,,,,No,No,No,,595.976125125866,19433.2748784812,No,94,528,BA-535,Spruce Pond,No
Moodys Pond,Open Water,Freshwater Pond,20.2958991284222,Mashpee,,Mashpee,41.6407569020409,-70.5133691872623,Not Included,,,,,5,No,No,Yes,,1581.76337300849,82134.5897362378,No,100,529,MA-793,Moody Pond,Yes - not on State List
Stewards Pond,Open Water,Lake,29.0443564213879,West Barnstable,,Barnstable,41.6926946461092,-70.3514810090256,Oligotrophic,,,,659297.248267518,28,No,No,Yes,,1705.14536617006,117538.340318368,No,1,530,BA-510,Garretts Pond,Yes - on State List
 ,Open Water,Freshwater Pond,25.0330053157714,Marstons Mills,,Barnstable,41.6664134604554,-70.4329461419624,Eutrophic,,,,314314.338082846,14,Yes,No,Yes,,1623.80005951718,101304.978334103,No,0,531,BA-694,Muddy Pond,Yes - not on State List
 ,Open Water,Lake,24.5689628214344,Sandwich,,Sandwich,41.7475047314962,-70.501686912116,Eutrophic,,No,Yes,176629.765655271,24,No,No,Yes,No,1764.50358010851,99427.0649856288,No,28,532,SA-234,Upper Shawme Lake,Yes - not on State List
 ,Open Water,Lake,220.219701234543,Mashpee,,Mashpee,41.6327979802994,-70.5341833633078,Mesotrophic,,No,Yes,11489649.8782137,84,No,Yes,Yes,Yes,4521.13251445342,891197.512280018,No,5,533,MA-808,Ashumet Pond,Yes - on State List
 ,,,7.83571484374865,Mashpee,,Mashpee,41.6438544178379,-70.4838298477116,Not Indicated,,,,,,No,No,No,,945.736605725644,31710.0129395192,No,48,534,MA-781,Washburn Pond,No
 ,Open Water,Lake,56.481080286096,Marstons Mills,,Barnstable,41.6719298115589,-70.3933871804055,Oligotrophic,,,,1905124.45501123,45,No,Yes,Yes,,1771.98033926579,228570.822499878,Yes,13,535,BA-664,Shubael Pond,Yes - on State List
,,,151.335753221113,Marstons Mills,,Barnstable,41.679467,-70.415186,,,,,4753280.98718303,48,Yes,No,Yes,,4633.62737962445,612434.064861602,No,12,536,BA-584,Mystic Lake,Yes - on State List
 ,Open Water,Freshwater Pond,1.13657485916548,Buzzards Bay,,Bourne,41.6814590642401,-70.5901509172643,Not Indicated,,,,,,No,No,No,,365.720941055147,4599.55526835219,No,0,537,BO-619,Connery South Pond,No
 ,,,0.511818800185089,Barnstable,,Barnstable,41.7005761487473,-70.2952913918917,Not Indicated,,,,,,No,No,No,,184.658920779163,2071.25719863409,No,3,538,BA-449,,No
 ,,,0.423135712756617,Pocasset,,Bourne,41.6918874225658,-70.6126108048475,Not Indicated,,,,,,No,No,No,,257.549450109083,1712.36947671592,No,0,539,BO-548, ,No
 ,Open Water,,0.247342657968022,Cummaquid,,Barnstable,41.708185178947,-70.2782685671069,Not Indicated,,,,,,No,No,No,,200.443029560256,1000.96022393138,No,46,540,BA-395, ,No
 ,,Freshwater Pond,0.538391646692342,Pocasset,,Bourne,41.7124847889134,-70.6110080659098,Not Indicated,,,,,,No,No,No,,228.707241405712,2178.79369318342,No,0,541,BO-389, ,No
 ,Open Water,Freshwater Pond,2.72387360600785,West Barnstable,,Barnstable,41.7136589196376,-70.3813784422906,Not Indicated,,,,,,No,No,No,,447.32395418701,11023.1253962787,No,2,542,BA-370, ,No
,,,1.41871921167915,Buzzards Bay,,Bourne,41.7683494685209,-70.6151924341888,,,,,,,Yes,No,No,,524.169323451319,5741.35295336605,No,0,543,BO-1083,,No
,,,0.352174299454464,Sandwich,,Sandwich,41.7718818254537,-70.497009951657,,,,,,,No,No,No,,165.10546985991,1425.19882555152,No,0,544,SA-1084,,No
 ,Open Water,Freshwater Pond,0.285262604604267,Brewster,,Brewster,41.774181400677,-70.0507148491006,Not Indicated,,,,,,No,No,No,,139.484147673753,1154.41680351333,No,0,545,BR-157, ,No
 ,,Freshwater Pond,3.50325839365272,Brewster,,Brewster,41.7804359415897,-70.0216041091132,Not Indicated,,,,,,No,No,No,,576.876081583019,14177.1837296802,No,9,546,BR-143, ,No
,,,1.72017096526303,Falmouth,,Falmouth,41.5822775352744,-70.6070011499396,Not Indicated,,,,,,No,No,No,,637.741474998954,6961.28491840069,No,94,547,FA-947,,No
 ,Open Water,Freshwater Pond,1.03002668737796,South Yarmouth,,Yarmouth,41.6946236892161,-70.1921412350354,Not Indicated,,,,,,No,No,No,,343.887103499485,4168.37011505891,No,73,548,YA-499, ,No
 ,Open Water,,2.38205413285287,West Barnstable,,Barnstable,41.7009030533038,-70.3545799732469,Not Indicated,,,,,,No,No,No,,519.889278549227,9639.83106604011,No,45,549,BA-450, ,No
 ,Open Water,,0.290877920035906,Cummaquid,,Barnstable,41.7086673563518,-70.2774995439877,Not Indicated,,,,,,No,No,No,,191.480878464936,1177.14117883166,No,82,551,BA-392, ,No
 ,Open Water,Freshwater Pond,0.846636967594712,Dennis,,Dennis,41.7365449274866,-70.2106250585902,Not Indicated,,,,,,No,No,No,,354.901417977227,3426.21824975192,No,0,552,DE-278, ,No
,,,0.234833826498459,Orleans,,Orleans,41.7824241303184,-69.9800371189312,,,,,,,No,No,No,,166.629411146926,950.338778962056,No,0,553,OR-1086,,No
,,,0.322814991874447,Orleans,,Orleans,41.7854953894026,-69.971425267449,,,,,,,No,No,No,,130.140846431766,1306.38592311411,No,0,554,OR-1087,,No
 ,Open Water,Freshwater Pond,0.563914516880424,Eastham,,Eastham,41.8227019309071,-69.9667474358337,Not Indicated,,,,,,No,No,No,,176.425084801787,2282.08108432214,No,91,555,EA-104, ,No
,,,0.256308673482307,Eastham,,Eastham,41.8429003290464,-69.9656091283365,,,,,,,No,No,No,,125.410668759131,1037.2444013987,No,26,556,EA-1088,,No
 ,,Freshwater Pond,0.577176004632872,Eastham,,Eastham,41.8506151331398,-69.9627965876059,Not Indicated,,,,,,No,No,No,,172.709682683095,2335.74842120371,No,58,557,EA-88, ,No
 ,Open Water,Freshwater Pond,0.264078875667441,Wellfleet,,Wellfleet,41.9207215404114,-70.0116106202497,Not Indicated,,,,,,No,No,No,,160.052172630939,1068.68929401495,No,0,558,WE-77, ,No
,Open Water,Freshwater Pond,1.14757704846108,Mashpee,,Mashpee,41.5609909071145,-70.4807024768835,,,,,,,No,No,No,,282.137362425632,4644.07954876354,No,0,559,MA-1089,,No
 ,Open Water,Freshwater Pond,0.909445549911788,East Falmouth,,Falmouth,41.5927227440301,-70.5247357507477,Not Indicated,,,,,,No,No,No,,238.797402484253,3680.39556448362,No,54,560,FA-932, ,No
 ,Open Water,Freshwater Pond,0.321250570600225,Centerville,,Barnstable,41.6502071167153,-70.355874183746,Not Indicated,,,,,,Yes,No,No,,154.751439817754,1300.05493483318,No,0,561,BA-757, ,No
,,Freshwater Pond,5.49608394386935,Chatham,,Chatham,41.6804235786514,-70.0044168696464,,,,,,,Yes,No,No,,1110.2468462918,22241.8626062972,No,10,562,CH-1090,,No
 ,,Freshwater Pond,0.528868336121256,South Chatham,,Chatham,41.6959245115059,-70.003566179297,Not Indicated,,,,,,Yes,No,No,,209.469398896071,2140.25422263631,No,48,563,CH-456, ,No
 ,,Freshwater Pond,0.233853293210314,East Sandwich,,Sandwich,41.7414647655829,-70.4480138782343,Not Indicated,,,,,,No,No,No,,114.185128762769,946.370701527548,No,51,564,SA-270, ,No
 ,Open Water,Freshwater Pond,0.33433264759525,Sandwich,,Sandwich,41.7507239822426,-70.4820675505121,Not Indicated,,,,,,No,No,No,,141.639813209964,1352.99622213883,No,0,565,SA-233, ,No
,,,0.284021688267491,Eastham,,Eastham,41.802927782921,-69.9843723492007,,,,,,,No,No,No,,129.350987891065,1149.39499326619,No,77,566,EA-1091,,No
,,,0.328083091619278,Eastham,,Eastham,41.8429109595087,-69.9935880327604,,,,,,,No,No,No,,143.810562026789,1327.70516640032,No,0,567,EA-1092,,No
 ,Open Water,Freshwater Pond,2.663936490273,Cotuit,,Barnstable,41.6271345213897,-70.4477878453077,Not Indicated,,,,,,No,No,No,,430.044504975867,10780.568494527,No,0,568,BA-843, ,No
 ,Open Water,Freshwater Pond,0.436288174955986,Cotuit,,Barnstable,41.6330780607073,-70.4297088648213,Not Indicated,,,,,,No,No,No,,208.371669303227,1765.59560283781,No,1,569,BA-827, ,No
 ,,,1.9055995739726,Hyannis,,Barnstable,41.6450987802129,-70.3086321039725,Not Indicated,,,,,,No,No,No,,372.290861919737,7711.68787445374,No,64,570,BA-772, ,No
 ,Open Water,Freshwater Pond,2.66698267175998,West Yarmouth,,Yarmouth,41.6637238422512,-70.2292224598236,Not Indicated,,,,,,Yes,No,No,,489.828945703008,10792.8959536414,No,0,571,YA-703, ,No
 ,Open Water,Freshwater Pond,0.545378631003278,Pocasset,,Bourne,41.6815293753372,-70.6056559352852,Not Indicated,,,,,,Yes,No,No,,190.487888747632,2207.06901551534,No,38,572,BO-622, ,No
 ,Open Water,Freshwater Pond,0.353318102022643,Harwich,,Harwich,41.6893708871225,-70.1051384235206,Not Indicated,,,,,,Yes,No,No,,145.87151715364,1429.82763032051,No,0,573,HA-531, ,No
 ,Open Water,Freshwater Pond,0.735058145762338,Barnstable,,Barnstable,41.702625887921,-70.2815858778697,Not Indicated,,,,,,No,No,No,,315.499186253885,2974.67477801575,No,0,574,BA-433, ,No
 ,Open Water,,0.238127768199157,Barnstable,,Barnstable,41.7052013885545,-70.279358906144,Not Indicated,,,,,,No,No,No,,151.296897464898,963.668888088539,No,17,575,BA-412, ,No
,,,0.35879234291118,South Dennis,,Dennis,41.7070267640952,-70.1709608548446,,,,,,,No,No,No,,151.947685066923,1451.98109721805,No,0,576,DE-1093,,No
 ,Open Water,Freshwater Pond,0.471685390509179,Orleans,,Orleans,41.7522400304385,-69.9790406969713,Not Indicated,,,,,,No,No,No,,182.412135643937,1908.84305193432,No,55,577,OR-207, ,No
 ,Open Water,Freshwater Pond,1.34270347631773,Brewster,,Brewster,41.778769494467,-70.0428563479776,Not Indicated,,,,,,No,No,No,,290.068341107569,5433.72818651523,No,31,578,BR-146, ,No
 ,Open Water,Freshwater Pond,4.84588587518186,Chatham,,Chatham,41.689760897563,-69.9795076451013,Not Indicated,,,,,,No,No,No,,591.267772858486,19610.6043761972,Yes,25,579,CH-514, ,No
,,Freshwater Pond,0.421734366792295,Yarmouthport,,Yarmouth,41.6943319671931,-70.2202514909121,,,,,,,Yes,No,No,,164.265989579925,1706.69843080019,No,55,580,YA-1094,,No
 ,Open Water,Freshwater Pond,0.731889034850277,Pocasset,,Bourne,41.7088827927284,-70.6085282868362,Not Indicated,,,,,,No,No,No,,245.854058048667,2961.84984116798,No,4,581,BO-405, ,No
 ,Open Water,Freshwater Pond,6.12437657432603,East Sandwich,,Sandwich,41.7437576553702,-70.461473051314,Not Indicated,,,,,,No,No,No,,894.758688265174,24784.4726730074,No,6,582,SA-263, ,No
 ,Open Water,Freshwater Pond,0.723887987632336,East Sandwich,,Sandwich,41.7480882701376,-70.471359085194,Not Indicated,,,,,,No,No,No,,354.731459082405,2929.47075184813,No,2,583,SA-242, ,No
,Open Water,Freshwater Pond,1.49247629263981,Orleans,,Orleans,41.7670277900999,-69.9895732619254,,,,,,,No,No,No,,372.975505351003,6039.83727014916,No,100,584,OR-1095,,No
 ,Open Water,Freshwater Pond,1.39118015886859,Brewster,,Brewster,41.7781697310494,-70.0125751125775,Not Indicated,,,,,,No,No,No,,370.774021439317,5629.9063606328,No,0,585,BR-148, ,No
,Open Water,,0.306615361211932,East Falmouth,,Falmouth,41.5928015052532,-70.560409661069,,,,,,,Yes,No,No,,161.498004718274,1240.828343727,No,0,586,FA-1096,,No
 ,Open Water,Freshwater Pond,0.566632446219591,Cotuit,,Barnstable,41.6348930700229,-70.4303770917663,Not Indicated,,,,,,No,No,No,,187.269768929899,2293.08015412398,No,9,587,BA-822, ,No
 ,Open Water,Freshwater Pond,5.08225935475083,Hyannis,,Barnstable,41.6460935673335,-70.3101231876425,Not Indicated,,,,,,No,No,Yes,,564.268434946065,20567.1739100759,No,41,588,BA-771,Straightway Pond,No
 ,Open Water,Freshwater Pond,1.23562014445941,West Yarmouth,,Yarmouth,41.6678864061196,-70.238776790241,Not Indicated,,,,,,No,No,No,,401.894702776573,5000.37731725237,No,100,589,YA-683, ,No
 ,Open Water,Freshwater Pond,0.236181778888483,Pocasset,,Bourne,41.6859628721168,-70.6087763168224,Not Indicated,,,,,,No,No,No,,117.160618976379,955.793748748714,No,0,590,BO-583, ,No
 ,Open Water,Freshwater Pond,0.538752921229494,South Dennis,,Dennis,41.685171927034,-70.1426747627689,Not Indicated,,,,,,No,No,No,,254.462819517334,2180.25571936434,No,13,591,DE-561, ,No
 ,Open Water,Freshwater Pond,0.247071084382716,South Dennis,,Dennis,41.6910567149476,-70.1342174914376,Not Indicated,,,,,,No,No,No,,119.844114466738,999.861204623527,No,0,592,DE-521, ,No
 ,Open Water,Freshwater Pond,0.917895820680103,South Dennis,,Dennis,41.6919429336579,-70.1344514918809,Not Indicated,,,,,,No,No,No,,274.322734527299,3714.59259701339,No,0,593,DE-513, ,No
 ,Open Water,Freshwater Pond,1.19104237213371,Barnstable,,Barnstable,41.7023367588061,-70.3095237362064,Not Indicated,,,,,,No,No,No,,436.52262652878,4819.97747301982,No,0,594,BA-438, ,No
 ,Open Water,Freshwater Pond,1.81319688515282,East Sandwich,,Sandwich,41.7271678322561,-70.4241858829773,Not Indicated,,,,,,Yes,No,No,,403.358240142288,7337.74745975636,No,30,595,SA-329, ,No
 ,Open Water,Freshwater Pond,2.19237506315045,East Sandwich,,Sandwich,41.7448952520451,-70.4603776583595,Not Indicated,,,,,,No,No,No,,383.909947552343,8872.22710462,No,13,596,SA-261, ,No
,,,0.302863070671253,Sandwich,,Sandwich,41.7534666560718,-70.4979201296079,,,,,,,No,No,No,,146.685090419025,1225.64336265375,No,0,597,SA-1097,,No
 ,,,0.253370081975565,Eastham,,Eastham,41.8041658781209,-69.9818193000323,Not Indicated,,,,,,No,No,No,,151.333660855478,1025.35234348683,No,44,598,EA-108, ,No
 ,Open Water,Freshwater Pond,0.263858723662831,Falmouth,,Falmouth,41.5502867004366,-70.6326836434881,Not Indicated,,,,,,No,No,No,,130.804352073753,1067.79837046119,No,34,599,FA-1002, ,No
 ,Open Water,Freshwater Pond,0.902009537501903,Mashpee,,Mashpee,41.6236035108096,-70.4625703007245,Not Indicated,,,,,,Yes,No,No,,294.663792420248,3650.30308990563,No,0,600,MA-859, ,No
 ,Open Water,Freshwater Pond,0.712323706550166,Centerville,,Barnstable,41.6480356626846,-70.3453472313438,Not Indicated,,,,,,No,No,No,,351.807535897652,2882.67176668031,No,0,601,BA-767, ,No
 ,Open Water,Freshwater Pond,0.437729604289385,Centerville,,Barnstable,41.6487522172075,-70.3454855089706,Not Indicated,,,,,,No,No,No,,162.089939875897,1771.42886039311,No,0,602,BA-762, ,No
 ,Open Water,Freshwater Pond,0.325552509166129,Marstons Mills,,Barnstable,41.6542339542655,-70.4142261215547,Not Indicated,,,,,,No,No,No,,136.487001112949,1317.46426254738,No,5,603,BA-744, ,No
 ,,Freshwater Pond,0.385733372925804,South Dennis,,Dennis,41.7100839734499,-70.1699882316591,Not Indicated,,,,,,No,No,No,,178.588279125001,1561.00757755881,No,18,604,DE-375, ,No
 ,Open Water,Freshwater Pond,0.577430728196131,Orleans,,Orleans,41.7464098628451,-69.9748509382291,Not Indicated,,,,,,No,No,No,,189.389326236022,2336.77925089162,No,6,605,OR-227, ,No
 ,Open Water,Freshwater Pond,0.686362645300235,Falmouth,,Falmouth,41.5511677085468,-70.6444361306549,Not Indicated,,,,,,No,No,No,,221.824157670028,2777.61107922871,No,0,606,FA-999, ,No
,,,0.290984675781035,Mashpee,,Mashpee,41.5996287394436,-70.5238633170846,,,,,,,Yes,No,No,,184.320913118976,1177.57320400446,No,99,607,MA-1098,,No
 ,,Freshwater Pond,0.2819885171724,Osterville,,Barnstable,41.648076923942,-70.38425955224,Not Indicated,,,,,,No,No,No,,133.638113999424,1141.16704176218,No,0,608,BA-768, ,No
 ,Open Water,Freshwater Pond,0.916426837981851,Mashpee,,Mashpee,41.6576929858104,-70.5105743919244,Not Indicated,,,,,,No,No,No,,417.492760492695,3708.64783494658,No,0,609,MA-739, ,No
 ,,Freshwater Pond,1.63860907546087,South Chatham,,Chatham,41.6913227960728,-70.0270236362342,Not Indicated,,,,,,No,No,No,,340.563367063085,6631.21566083174,No,58,610,CH-509, ,No
,,,0.315253430748107,Sandwich,,Sandwich,41.7052487192223,-70.4393506390164,,,,,,,No,No,No,,139.302827012448,1275.78537090661,No,2,611,SA-1099,,No
 ,Open Water,Freshwater Pond,1.38316925816605,South Dennis,,Dennis,41.7131492832356,-70.1711642647917,Not Indicated,,,,,,No,No,No,,360.372293279629,5597.48739567552,No,11,612,DE-367, ,No
,,,1.1961849353028,East Sandwich,,Sandwich,41.7355174831347,-70.4394176353072,,,,,,,Yes,No,No,,452.663433838236,4840.78868780825,No,10,613,SA-1100,,No
 ,,Freshwater Pond,0.592554412590469,Orleans,,Orleans,41.7953687938321,-70.0024529627597,Not Included,,,,,,No,No,No,,196.416160761359,2397.9826302132,No,3,614,OR-124, ,No
 ,Open Water,Freshwater Pond,0.261232093263934,East Falmouth,,Falmouth,41.5970237818024,-70.5975371531531,Not Indicated,,,,,,No,No,No,,178.858475040942,1057.16877436215,No,71,615,FA-922, ,No
 ,Open Water,Freshwater Pond,0.392625851607076,Pocasset,,Bourne,41.686702796711,-70.6067856456946,Not Indicated,,,,,,No,No,No,,156.424268042999,1588.90044917637,No,0,616,BO-573, ,No
,,Freshwater Pond,0.767216248523652,Yarmouthport,,Yarmouth,41.6927004082615,-70.2258176517143,,,,,,,No,No,No,,226.580538797922,3104.81400270758,No,15,617,YA-1101,,No
 ,Open Water,Freshwater Pond,0.983924570927599,South Chatham,,Chatham,41.6948675064511,-70.024680093158,Not Indicated,,,,,,No,No,No,,242.732195168197,3981.80146901552,No,13,618,CH-475, ,No
 ,Open Water,Freshwater Pond,0.766071599197686,East Sandwich,,Sandwich,41.7317304746787,-70.4350022998391,Not Indicated,,,,,,Yes,No,No,,283.697798261729,3100.18177123139,No,6,619,SA-307, ,No
 ,Open Water,Freshwater Pond,0.677521183550343,Orleans,,Orleans,41.7454907878778,-69.9838069099143,Not Included,,,,,,No,No,No,,253.090688511256,2741.83095296276,No,0,620,OR-230, ,No
 ,Open Water,Freshwater Pond,1.47104640251213,Brewster,,Brewster,41.7515776140582,-70.1068091726316,Not Indicated,,,,,,No,No,No,,288.610394941137,5953.11358165462,No,20,621,BR-214, ,No
 ,,,3.16280244248763,Orleans,,Orleans,41.7601304405395,-69.9961788550091,Not Indicated,,,,,,No,No,No,,783.732223614268,12799.4073771635,No,100,622,OR-191, ,No
 ,Open Water,Freshwater Pond,1.02651505477492,Mashpee,,Mashpee,41.6190325435162,-70.4590901961123,Not Indicated,,,,,,Yes,No,No,,442.377718013986,4154.15904210618,No,0,623,MA-883, ,No
,,,0.33745651047817,North Falmouth,,Falmouth,41.6546368385336,-70.614583762978,,,,,,,No,No,No,,186.585868568591,1365.63804670927,No,41,624,FA-1102,,No
,,,0.588705343770381,Marstons Mills,,Barnstable,41.6734503290401,-70.4412222324346,,,,,,,No,No,No,,215.863988374354,2382.40600133837,No,0,625,BA-1103,,No
 ,Open Water,Freshwater Pond,0.570115539306157,Sandwich,,Sandwich,41.682478795616,-70.4509632717216,Not Indicated,,,,,,No,No,No,,218.482781491051,2307.17573175116,No,0,626,SA-603, ,No
,,,0.267475487736702,West Barnstable,,Barnstable,41.6995432086158,-70.3469673451441,,,,,,,No,No,No,,160.238224729289,1082.43489538184,No,5,627,BA-1104,,No
,,,1.16043122630376,Harwich,,Harwich,41.6992635716183,-70.1131225225184,,,,,,,Yes,No,No,,350.062772126662,4696.09856092089,No,5,628,HA-1105,,No
,,,0.451103180948957,Barnstable,,Barnstable,41.7023282295132,-70.3308894475066,,,,,,,No,No,No,,162.187968119483,1825.54980498836,No,90,629,BA-1106,,No
 ,Open Water,Freshwater Pond,0.357823445247739,East Sandwich,,Sandwich,41.7218596874369,-70.4022304647401,Not Indicated,,,,,,Yes,No,No,,181.499009166033,1448.06010748611,No,0,630,SA-350, ,No
 ,,Freshwater Pond,0.591104653044385,Dennis,,Dennis,41.7256866841077,-70.1669857314427,Not Indicated,,,,,,No,No,No,,203.882197473565,2392.11566148319,No,67,631,DE-323, ,No
 ,Open Water,Freshwater Pond,1.08421516174313,Orleans,,Orleans,41.7432446806069,-69.9912079182425,Not Included,,,,,,No,No,No,,283.410170560398,4387.66309056365,No,0,632,OR-238, ,No
 ,Open Water,Freshwater Pond,8.51142476678282,Buzzards Bay,,Bourne,41.7697452809245,-70.6017891844197,Not Indicated,,,,,,No,No,No,,1372.61692406518,34444.5139812295,No,32,633,BO-181, ,No
 ,Open Water,Freshwater Pond,0.48701432541053,Brewster,,Brewster,41.7688051290883,-70.0705214810543,Not Indicated,,,,,,Yes,No,No,,174.340144790064,1970.87705058841,No,0,634,BR-172, ,No
 ,Open Water,Freshwater Pond,1.29384998303977,Orleans,,Orleans,41.8004687457861,-69.9576961815298,Not Indicated,,,,,,No,No,No,,410.036810151873,5236.02511348664,No,11,635,OR-110, ,No
,Open Water,,0.289005025834692,East Falmouth,,Falmouth,41.6048076285502,-70.5721556881447,,,,,,,Yes,No,No,,136.188963988492,1169.561844905,No,10,636,FA-1107,,No
,Open Water,,0.241549720413898,Mashpee,,Mashpee,41.6260893759426,-70.4642623755108,,,,,,,Yes,No,No,,180.571426154686,977.517037385907,No,0,637,MA-1108,,No
,,,0.669354429183531,North Falmouth,,Falmouth,41.6325145627272,-70.6167846295226,,,,,,,No,No,No,,246.675959787962,2708.78127060326,No,0,638,FA-1109,,No
 ,Open Water,Freshwater Pond,0.30521956531869,Marstons Mills,,Barnstable,41.6552264780893,-70.4162444240184,Not Indicated,,,,,,No,No,No,,141.832050265497,1235.17975815208,No,17,639,BA-742, ,No
 ,,,1.50722677235856,West Yarmouth,,Yarmouth,41.6731960376351,-70.241836314734,Not Indicated,,,,,,No,No,No,,345.117971001814,6099.53034373248,Yes,55,640,YA-659, ,No
,Open Water,,0.34095333746172,Harwich,,Harwich,41.6956501169625,-70.1303920627844,,,,,,,Yes,No,No,,158.488497380524,1379.78920344568,No,0,641,HA-1110,,No
 ,,,2.47237748873763,West Barnstable,,Barnstable,41.713051135036,-70.3752463356137,Not Indicated,,,,,,No,No,No,,591.250174099956,10005.356718895,No,13,642,BA-373, ,No
,,Freshwater Pond,0.409420287504074,Dennis,,Dennis,41.7212843421106,-70.1713667049311,,,,,,,No,No,No,,162.493664175698,1656.86511994672,No,27,643,DE-1111,,No
 ,Open Water,Freshwater Pond,0.744888109302596,Brewster,,Brewster,41.7677128427485,-70.0064946406999,Not Indicated,,,,,,No,No,No,,217.851211637796,3014.4552291006,Yes,89,644,BR-173, ,No
 ,,Freshwater Pond,0.631220836619895,Orleans,,Orleans,41.8017573916735,-69.9567426125512,Not Indicated,,,,,,No,No,No,,197.045459804888,2554.46009662793,No,8,645,OR-109, ,No
 ,Open Water,,1.33730830424543,Orleans,,Orleans,41.8066984843597,-69.9623614156769,Not Indicated,,,,,,No,No,No,,281.682279448332,5411.89469976446,No,0,646,OR-107, ,No
 ,Open Water,Freshwater Pond,1.44949170709732,East Falmouth,,Falmouth,41.6050723755711,-70.5894705800496,Not Indicated,,,,,,No,No,No,,290.951366977813,5865.88482408232,No,84,647,FA-911, ,No
 ,Open Water,Freshwater Pond,1.99613067632739,Centerville,,Barnstable,41.6574159063282,-70.3588335605614,Not Indicated,,,,,,Yes,No,No,,650.214098578826,8078.05424744514,No,20,648,BA-727, ,No
 ,Open Water,Freshwater Pond,0.241402698952466,Cataumet,,Bourne,41.6636260732619,-70.6069846109784,Not Indicated,,,,,,No,No,No,,116.045868375845,976.92206264048,No,0,649,BO-717, ,No
,Open Water,,0.24433539700621,Sandwich,,Sandwich,41.6855964534821,-70.4484934377768,,,,,,,No,No,No,,132.868088252351,988.790270594233,No,0,650,SA-1112,,No
 ,Open Water,Freshwater Pond,0.271591811138964,Harwich,,Harwich,41.6906630660527,-70.1016452506013,Not Indicated,,,,,,Yes,No,No,,144.524777910216,1099.09306517897,No,100,651,HA-520, ,No
 ,Open Water,Freshwater Pond,0.443526364448711,Harwich,,Harwich,41.6924638090311,-70.0882757495836,Not Indicated,,,,,,Yes,No,No,,174.109185377935,1794.88751647299,No,0,652,HA-508, ,No
 ,Open Water,Freshwater Pond,0.247551420172998,West Barnstable,,Barnstable,41.6988139979878,-70.3484095508909,Not Indicated,,,,,,No,No,No,,119.824433581428,1001.80505460134,No,25,653,BA-474, ,No
,,Freshwater Pond,0.396131775817904,Dennis,,Dennis,41.7240518689764,-70.161826428297,,,,,,,No,No,No,,166.614652639868,1603.0884210854,No,58,654,DE-1113,,No
,,Freshwater Pond,0.233455313837089,Brewster,,Brewster,41.7489852444535,-70.0013817654731,,,,,,,No,No,No,,186.965253384647,944.76013614503,No,31,655,BR-1114,,No
 ,Open Water,Freshwater Pond,3.32359778304936,Buzzards Bay,,Bourne,41.7699711153387,-70.5990313356407,Not Indicated,,,,,,No,No,No,,591.612865013164,13450.1230338077,No,22,656,BO-184, ,No
,Open Water,Freshwater Pond,0.905150724536617,East Falmouth,,Falmouth,41.6011156044755,-70.5588806430185,,,,,,,Yes,No,No,,261.600291343245,3663.01502283102,No,8,657,FA-1115,,No
,,,0.534786738554061,North Falmouth,,Falmouth,41.6345752163502,-70.6140055252606,,,,,,,No,No,No,,240.021560222149,2164.20514753185,No,19,658,FA-1116,,No
 ,,,0.371142323263352,Osterville,,Barnstable,41.6514077654427,-70.4011229606121,Not Indicated,,,,,,No,No,No,,191.041955239478,1501.95969452275,No,9,659,BA-751, ,No
 ,Open Water,Freshwater Pond,1.43896374057703,Hyannis,,Barnstable,41.6538653010696,-70.2944724218984,Not Indicated,,,,,,No,No,No,,337.090125200346,5823.27965515487,No,8,660,BA-743, ,No
 ,,,0.533171734137355,Harwich,,Harwich,41.694576282657,-70.0840146736442,Not Indicated,,,,,,No,No,No,,194.476171996332,2157.6694565359,No,41,661,HA-489, ,No
,,,0.702493419554985,Orleans,,Orleans,41.7879013517347,-69.9620280958527,,,,,,,No,No,No,,264.760176887463,2842.89000661983,No,0,662,OR-1117,,No
 ,Open Water,Freshwater Pond,1.17238771232439,Orleans,,Orleans,41.7966269377563,-69.9539200602075,Not Indicated,,,,,,No,No,No,,326.317279866516,4744.48474316278,No,32,663,OR-119, ,No
 ,Open Water,Freshwater Pond,0.366459281744149,East Falmouth,,Falmouth,41.6095035017618,-70.5718045654889,Not Indicated,,,,,,Yes,No,No,,170.244948617612,1483.0080978744,No,84,664,FA-909, ,No
 ,Open Water,Freshwater Pond,0.387382754588205,North Falmouth,,Falmouth,41.6311893911873,-70.6129381965093,Not Indicated,,,,,,No,No,No,,183.709405861423,1567.68238833228,No,0,665,FA-835, ,No
 ,,,0.5061536457328,West Yarmouth,,Yarmouth,41.6734627795294,-70.2534369057738,Not Indicated,,,,,,No,No,No,,175.795522853878,2048.33113195496,No,100,666,YA-661, ,No
 ,Open Water,Freshwater Pond,1.39882035011405,Chatham,,Chatham,41.6842234230349,-69.9756677459185,Not Indicated,,,,,,No,No,No,,436.230752760652,5660.82511764287,No,20,667,CH-552, ,No
 ,Open Water,Freshwater Pond,0.283325103789905,Yarmouthport,,Barnstable,41.6953764030933,-70.2680173502856,Not Indicated,,,,,,No,No,No,,140.551511571473,1146.57601589932,No,0,668,BA-503, ,No
,,,0.232239083125513,South Dennis,,Dennis,41.70404503385,-70.1442362701673,,,,,,,No,No,No,,229.114934048108,939.83822507877,No,3,669,DE-1118,,No
 ,Open Water,Freshwater Pond,1.27501328673219,East Sandwich,,Sandwich,41.7271816593006,-70.4271516177547,Not Indicated,,,,,,Yes,No,No,,297.161601564235,5159.79570805748,No,28,670,SA-330, ,No
 ,Open Water,Freshwater Pond,1.21228761346513,Brewster,,Brewster,41.7425519450044,-70.0029471005724,Not Indicated,,,,,,No,No,No,,286.227471201546,4905.95391434731,No,39,671,BR-244, ,No
,,,0.389323571766129,Mashpee,,Mashpee,41.6087938925247,-70.5119951429926,,,,,,,No,No,No,,301.128023811482,1575.53659679347,No,100,672,MA-1119,,No
 ,Open Water,Freshwater Pond,0.616895395945647,East Falmouth,,Falmouth,41.6104377455444,-70.5714848468416,Not Indicated,,,,,,Yes,No,No,,332.554890867537,2496.48709503163,No,97,673,FA-906, ,No
 ,Open Water,Freshwater Pond,0.597811040869996,Cotuit,,Barnstable,41.6372529517188,-70.4360298207568,Not Indicated,,,,,,No,No,No,,182.557417035428,2419.25545012637,No,96,674,BA-814, ,No
 ,Open Water,Freshwater Pond,0.55629270684286,Hyannis,,Barnstable,41.6448826757717,-70.2969276270732,Not Indicated,,,,,,No,No,No,,217.715607377299,2251.23671342131,No,0,675,BA-774, ,No
 ,,,0.354869420919824,Chatham,,Chatham,41.6868037052359,-69.9726684747173,Not Included,,,,,,No,No,No,,167.891933635096,1436.10559516276,No,1,676,CH-536, ,No
,,Freshwater Pond,0.557472376433719,Chatham,,Chatham,41.6899095802375,-69.9678774091532,,,,,,,Yes,No,No,,198.497880081479,2256.01066688139,No,0,677,CH-1120,,No
 ,Open Water,Freshwater Pond,0.308119076109676,Barnstable,,Barnstable,41.6974512083326,-70.2936333312034,Not Indicated,,,,,,No,No,No,,130.199031671538,1246.9136620184,No,42,678,BA-482, ,No
 ,Open Water,Freshwater Pond,1.10133083119679,South Dennis,,Dennis,41.6968967759865,-70.1351023129441,Not Indicated,,,,,,No,No,No,,247.597994679973,4456.92774741586,Yes,0,679,DE-467, ,No
 ,Open Water,Freshwater Pond,1.16747144911325,Dennis,,Dennis,41.7474802864264,-70.1997333472099,Eutrophic,,,,,,No,No,No,,321.648126410864,4724.5893318126,No,0,680,DE-235, ,No
 ,,,0.439395686797902,Brewster,,Brewster,41.7642975970981,-70.0239548848028,Not Indicated,,,,,,No,No,No,,196.099208316366,1778.17125709295,No,100,681,BR-183, ,No
 ,Open Water,Freshwater Pond,0.301281080503781,Mashpee,,Mashpee,41.6272912482142,-70.4921102761584,Not Indicated,,,,,,No,No,No,,132.047714095924,1219.24127558434,No,0,682,MA-846, ,No
 ,Open Water,Freshwater Pond,0.248026144785621,Cummaquid,,Barnstable,41.7065767739664,-70.2674433782294,Not Indicated,,,,,,No,No,No,,132.49196679069,1003.7261969488,No,19,683,BA-399, ,No
 ,,,0.674967003016603,South Dennis,,Dennis,41.7197657407207,-70.1481954569308,Not Indicated,,,,,,No,No,No,,195.76015346749,2731.49455106582,No,71,684,DE-346, ,No
,,,0.310691202292279,Brewster,,Brewster,41.7342417710055,-70.1207236012357,,,,,,,No,No,No,,139.951727479611,1257.32268737969,No,0,685,BR-1121,,No
 ,,,0.481155153322437,Brewster,,Brewster,41.7526765626445,-70.0116536305283,Not Indicated,,,,,,No,No,No,,173.335297359952,1947.16582239376,No,100,686,BR-206, ,No
 ,,,1.18218430606478,Orleans,,Orleans,41.7874802315239,-69.9588147503738,Not Indicated,,,,,,No,No,No,,378.114830526629,4784.13015145874,No,4,687,OR-132, ,No
,Open Water,Freshwater Pond,2.33470765015363,Mashpee,,Mashpee,41.6190274283759,-70.4577720245831,,,,,,,No,No,No,,473.706216177247,9448.22664845064,No,0,688,MA-1122,,No
 ,Open Water,Freshwater Pond,0.551285180798014,Mashpee,,Mashpee,41.6287094748015,-70.5043973340081,Not Indicated,,,,,,No,No,No,,264.05335237964,2230.97197448639,No,0,689,MA-840, ,No
 ,Open Water,Freshwater Pond,0.590088417770126,North Falmouth,,Falmouth,41.6444006061925,-70.6076956985652,Not Indicated,,,,,,No,No,No,,249.43394136821,2388.00310323689,No,0,690,FA-787, ,No
,,,0.313771841353448,Yarmouthport,,Barnstable,41.6945387311483,-70.2672472164975,,,,,,,No,No,No,,193.594661760277,1269.78959134948,No,0,691,BA-1123,,No
 ,Open Water,Freshwater Pond,1.50710400910865,East Sandwich,,Sandwich,41.7301287816337,-70.4349320990094,Not Indicated,,,,,,No,No,No,,423.547122001018,6099.03353848611,No,0,692,SA-318, ,No
,,Freshwater Pond,0.720430011064996,Brewster,,Brewster,41.7526326165693,-70.0192374517236,,,,,,,No,No,No,,375.701356508933,2915.47681716808,No,100,693,BR-1124,,No
 ,,,1.74321645334988,Brewster,,Brewster,41.7564286291423,-70.0318093984667,Not Indicated,,,,,,No,No,No,,348.204555666779,7054.54669987231,No,100,694,BR-200, ,No
,,,0.996112170522534,Orleans,,Orleans,41.7838430362546,-69.9962151739342,,,,,,,No,No,No,,657.749939701567,4031.12293470992,No,0,695,OR-1125,,No
,Open Water,,0.341359815094345,Mashpee,,Mashpee,41.6203212520867,-70.4589395690043,,,,,,,Yes,No,No,,148.238123553549,1381.43416006383,No,0,696,MA-1126,,No
 ,Open Water,Freshwater Pond,0.322631761936673,Mashpee,,Mashpee,41.6250949726959,-70.4986109437151,Not Indicated,,,,,,No,No,No,,194.721249555824,1305.64441786365,No,0,697,MA-853, ,No
 ,Open Water,Freshwater Pond,1.3907200385629,Mashpee,,Mashpee,41.6268032310477,-70.4985465897727,Not Indicated,,,,,,No,No,No,,502.752089160393,5628.04431981866,No,1,698,MA-847, ,No
 ,Open Water,Freshwater Pond,0.731196655798352,Mashpee,,Mashpee,41.6290908806487,-70.4991433665888,Not Indicated,,,,,,No,No,No,,349.874539363019,2959.04788255496,No,0,699,MA-838, ,No
 ,Open Water,Freshwater Pond,1.59018398770438,Hyannis,,Barnstable,41.6574870836407,-70.3035322440614,Not Indicated,,,,,,No,No,No,,376.631905367729,6435.24628343912,No,0,700,BA-732, ,No
 ,Open Water,Freshwater Pond,6.32437422069558,Hyannis,,Barnstable,41.6704580728147,-70.2836518480057,Not Indicated,,,,,,No,No,No,,779.922981455677,25593.8344326829,No,0,701,BA-673, ,No
 ,Open Water,Freshwater Pond,0.26166777930114,Hyannis,,Barnstable,41.6775591256031,-70.2680314470184,Not Indicated,,,,,,No,No,No,,116.52128680052,1058.93193319996,No,0,702,BA-631, ,No
 ,Open Water,Freshwater Pond,0.995031155499806,West Yarmouth,,Yarmouth,41.6829472425196,-70.2251132158464,Not Indicated,,,,,,No,No,No,,309.949135114022,4026.74822212248,No,0,703,YA-575, ,No
 ,,Freshwater Pond,3.64633143440214,Hyannis,,Barnstable,41.6827961983866,-70.2642729684839,Not Indicated,,,,,,No,No,No,,704.826888046365,14756.1797835093,No,60,704,BA-574,Campground Pond,No
 ,,,2.5148147042009,Buzzards Bay,,Bourne,41.7773968689052,-70.5624091307705,Not Indicated,,,,,,No,No,No,,824.126201761548,10177.0940368414,No,58,705,BO-159, ,No
,,,0.426288722941222,Marstons Mills,,Barnstable,41.6601843305334,-70.4179533436746,,,,,,,No,No,No,,177.861759140344,1725.12925623138,No,0,706,BA-1127,,No
,,,0.512571866882023,Pocasset,,Bourne,41.6745884101172,-70.5998543843891,,,,,,,Yes,No,No,,200.054949707586,2074.30475143307,No,0,707,BO-1128,,No
 ,Open Water,Freshwater Pond,1.21156128233459,Sandwich,,Sandwich,41.6777130717555,-70.4479158616367,Not Indicated,,,,,,No,No,No,,322.503111411334,4903.01455654693,No,0,708,SA-643, ,No
 ,Open Water,Freshwater Pond,0.493822133841909,Barnstable,,Barnstable,41.6957775897465,-70.2888250278991,Not Indicated,,,,,,No,No,No,,196.218416511252,1998.4272738614,No,47,709,BA-502, ,No
 ,Open Water,Freshwater Pond,0.684711848513999,Cummaquid,,Barnstable,41.6999780299835,-70.2723589100879,Not Indicated,,,,,,No,No,No,,202.627118461115,2770.93054165225,No,0,710,BA-451, ,No
 ,Open Water,Freshwater Pond,1.57962158949797,Dennis,,Dennis,41.722174411906,-70.1842354319555,Not Indicated,,,,,,No,No,No,,329.566367658359,6392.50177442155,No,100,711,DE-336, ,No
 ,,Freshwater Pond,0.858142300029876,East Falmouth,,Falmouth,41.6104986279456,-70.5585218934344,Not Indicated,,,,,,No,No,No,,245.163558933401,3472.77867820901,No,32,712,FA-907, ,No
 ,Open Water,Freshwater Pond,0.771084347234086,Hyannis,,Barnstable,41.6658020929692,-70.2976989674226,Not Indicated,,,,,,No,No,No,,230.941742495338,3120.46764281637,No,0,713,BA-697, ,No
 ,,,1.56795360215333,Hyannis,,Barnstable,41.6794778132253,-70.2814071461957,Not Indicated,,,,,,No,No,No,,507.397657176204,6345.28310489943,No,58,714,BA-610, ,No
 ,Open Water,Freshwater Pond,0.477871484269818,Hyannis,,Barnstable,41.6832457460773,-70.2765497028691,Not Indicated,,,,,,No,No,No,,188.434588754128,1933.87728519913,No,100,715,BA-580, ,No
 ,,,0.963959093734803,Hyannis,,Barnstable,41.684157288992,-70.2757128282109,Not Indicated,,,,,,No,No,No,,393.130875974687,3901.00404941157,No,100,716,BA-570, ,No
 ,,Freshwater Pond,1.77101395758136,Harwich,,Harwich,41.6958543296637,-70.0404978290796,Not Indicated,,,,,,No,No,No,,498.528314586867,7167.03920839816,No,0,717,HA-465, ,No
 ,,Freshwater Pond,0.366743452682254,Harwich,,Harwich,41.6968253384714,-70.0381493798279,Not Indicated,,,,,,No,No,No,,162.060420718585,1484.15809686033,No,0,718,HA-454, ,No
,,,0.478579116188199,Brewster,,Brewster,41.7124705457514,-70.1222931203155,,,,,,,Yes,No,No,,282.626987572316,1936.74096997273,Yes,0,719,BR-1129,,No
 ,,Freshwater Pond,0.689052629153009,Harwich,,Harwich,41.7274593543791,-70.0227164031509,Not Indicated,,,,,,No,No,No,,199.045398902798,2788.49705765946,No,31,720,HA-301, ,No
 ,,Freshwater Pond,0.92530513786344,Brewster,,Brewster,41.7286362277345,-70.023493091069,Not Indicated,,,,,,No,No,No,,266.858829705426,3744.57703984238,No,94,721,BR-296, ,No
 ,Open Water,Freshwater Pond,1.24852106260603,Orleans,,Orleans,41.8001969741953,-69.9598832294171,Not Included,,,,,,No,No,No,,281.750653118145,5052.58548070889,No,6,722,OR-111, ,No
 ,,,5.83098539100775,Mashpee,,Mashpee,41.6150782123131,-70.5128403813538,Not Indicated,,,,,,No,No,No,,724.583362727478,23597.1606785203,No,0,723,MA-896, ,No
 ,Open Water,Freshwater Pond,3.27318035150534,East Falmouth,,Falmouth,41.6197662395184,-70.5886022043845,Not Indicated,,,,,,No,No,No,,946.116245011598,13246.0909271629,No,66,724,FA-879, ,No
 ,Open Water,Freshwater Pond,0.260288556563112,Marstons Mills,,Barnstable,41.6556608512036,-70.4023759066423,Not Indicated,,,,,,No,No,No,,123.589373871679,1053.35041680466,No,0,725,BA-741, ,No
 ,Open Water,Freshwater Pond,1.53074228730818,Sandwich,,Sandwich,41.6770175482441,-70.4505251852467,Not Indicated,,,,,,No,No,No,,572.674326778404,6194.69425643239,No,0,726,SA-650, ,No
 ,Open Water,Freshwater Pond,2.01502670608079,Sandwich,,Sandwich,41.6806381900151,-70.4503365367391,Not Indicated,,,,,,No,No,No,,575.420488820885,8154.52376681056,No,0,727,SA-612, ,No
 ,Open Water,Freshwater Pond,0.658919386583114,Hyannis,,Barnstable,41.6796109724363,-70.2847087027286,Not Indicated,,,,,,No,No,No,,258.152469137661,2666.55215143774,No,0,728,BA-611, ,No
 ,Open Water,Freshwater Pond,0.688956517159297,Harwich,,Harwich,41.6942509934124,-70.0444484250191,Not Indicated,,,,,,No,No,No,,271.745601144516,2788.10810622044,No,0,729,HA-486, ,No
 ,Open Water,Freshwater Pond,1.58323633344195,Harwich,,Harwich,41.6979072203544,-70.0644154518152,Not Indicated,,,,,,No,No,No,,385.019044696621,6407.13012416658,No,76,730,HA-446, ,No
 ,,Freshwater Pond,1.22680344037436,Harwich,,Harwich,41.7219847797843,-70.0429078685049,Not Indicated,,,,,,No,No,No,,484.785380226582,4964.69738170137,No,49,731,HA-331, ,No
 ,,Freshwater Pond,0.408424742335373,Brewster,,Brewster,41.7250592046655,-70.0544379140635,Not Indicated,,,,,,No,No,No,,159.004080510664,1652.83629158697,No,26,732,BR-320, ,No
 ,Open Water,Freshwater Pond,0.545710541663286,Sandwich,,Sandwich,41.75943596502,-70.5058988382667,Not Indicated,,,,,,No,No,No,,201.173976656688,2208.41221030145,No,0,733,SA-204, ,No
 ,,,1.96660441093776,Orleans,,Orleans,41.7884030921966,-69.969234091695,Not Included,,,,,,No,No,No,,494.128790154739,7958.56569072363,No,0,734,OR-131, ,No
 ,,Freshwater Pond,0.265759925917392,Mashpee,,Mashpee,41.6164502184864,-70.5157967306698,Not Indicated,,,,,,No,No,No,,132.484040028525,1075.49226301534,No,0,735,MA-894, ,No
 ,,Freshwater Pond,0.276699854450769,Centerville,,Barnstable,41.6633601677059,-70.3566966965015,Not Indicated,,,,,,No,No,No,,132.618948047516,1119.76458306124,No,30,736,BA-710, ,No
,,Freshwater Pond,1.79221505825049,Hyannis,,Barnstable,41.663024685992,-70.2978043176288,,,,,,,No,No,No,,361.780763120858,7252.837018803,No,1,737,BA-1130,,No
 ,Open Water,Freshwater Pond,1.72817516522021,Hyannis,,Barnstable,41.6664992396963,-70.2971382819991,Not Indicated,,,,,,No,No,No,,363.519869792655,6993.6767664036,No,0,738,BA-696, ,No
 ,Open Water,Freshwater Pond,0.977926194761956,Hyannis,,Barnstable,41.6677826400729,-70.3012300375536,Not Indicated,,,,,,No,No,No,,248.053063458942,3957.52690190561,No,0,739,BA-690, ,No
 ,Open Water,Freshwater Pond,0.64808066078129,Hyannis,,Barnstable,41.6783859135486,-70.2903197774689,Not Indicated,,,,,,No,No,No,,266.456643778873,2622.689384316,No,100,740,BA-621, ,No
 ,Open Water,Freshwater Pond,0.287092904338028,Hyannis,,Barnstable,41.6815675787834,-70.2816599494914,Not Indicated,,,,,,No,No,No,,162.36663700334,1161.82376374582,No,53,741,BA-595, ,No
 ,Open Water,Freshwater Pond,0.343371250843311,Harwich,,Harwich,41.688066973557,-70.0794139617676,Not Indicated,,,,,,No,No,No,,143.610860665171,1389.57415174277,No,15,742,HA-537, ,No
 ,,Freshwater Pond,0.449437486091909,Harwich,,Harwich,41.6960882510109,-70.0594019561889,Not Indicated,,,,,,No,No,No,,223.096672895234,1818.80897705835,No,100,743,HA-461, ,No
,,Freshwater Pond,0.331999468053778,Harwich,,Harwich,41.6964680051074,-70.0441407686657,,,,,,,No,No,No,,386.295867959396,1343.55417952681,No,0,744,HA-1131,,No
 ,Open Water,Freshwater Pond,0.275471035061242,Harwich,,Harwich,41.7004895620565,-70.0564894972293,Not Indicated,,,,,,No,No,No,,132.009735840204,1114.79172742276,No,0,745,HA-434, ,No
 ,Open Water,Freshwater Pond,1.41580771442184,Harwich,,Harwich,41.7032329114875,-70.063582652055,Not Indicated,,,,,,No,No,No,,506.760655957045,5729.57054199151,No,29,746,HA-403, ,No
 ,Open Water,Freshwater Pond,0.852554063371001,Brewster,,Brewster,41.7255889366661,-70.0418800395459,Not Indicated,,,,,,No,No,No,,345.636519119748,3450.16388679615,No,1,747,BR-317, ,No
 ,Open Water,Freshwater Pond,0.333019799957654,East Falmouth,,Falmouth,41.6139396760757,-70.569041818793,Not Indicated,,,,,,No,No,No,,175.932197162977,1347.683316245,No,0,748,FA-902, ,No
 ,Open Water,Freshwater Pond,0.779238404804982,Mashpee,,Mashpee,41.6144256230496,-70.5200348571901,Not Indicated,,,,,,No,No,No,,328.079274635786,3153.46594306577,No,0,749,MA-899, ,No
 ,Open Water,Freshwater Pond,0.349044126108382,Mashpee,,Mashpee,41.6302726256404,-70.505592426384,Not Indicated,,,,,,No,No,No,,165.417834858296,1412.5314634427,No,0,750,MA-837, ,No
 ,Open Water,Freshwater Pond,1.43030912856543,Marstons Mills,,Barnstable,41.6574598392727,-70.3995759915443,Not Indicated,,,,,,Yes,No,No,,322.917060278124,5788.25568295236,No,0,751,BA-735, ,No
 ,Open Water,Freshwater Pond,1.75450293850059,Hyannis,,Barnstable,41.6630896326185,-70.3050036161675,Not Indicated,,,,,,No,No,No,,323.850849111489,7100.2214847908,No,0,752,BA-708, ,No
 ,Open Water,Freshwater Pond,4.6634413170304,Hyannis,,Barnstable,41.6735893088136,-70.2970728630139,Not Indicated,,,,,,No,No,No,,560.397012535749,18872.27744431,No,0,753,BA-662, ,No
,Open Water,Freshwater Pond,0.251285149132965,Hyannis,,Barnstable,41.681445477932,-70.2904750939625,,,,,,,No,No,No,,159.288500115459,1016.91491962248,No,16,754,BA-1132,,No
,,,0.569126825273482,Harwich,,Harwich,41.7041539279276,-70.0813083312176,,,,,,,No,No,No,,312.699249689692,2303.17454801811,No,0,755,HA-1133,,No
,,,0.383812809011401,Harwich,,Harwich,41.7083074069142,-70.0640370086553,,,,,,,No,No,No,,189.8110523451,1553.23533114717,No,0,756,HA-1134,,No
 ,,,0.24309532113033,Harwich,,Harwich,41.708778909426,-70.0509383496308,Not Indicated,,,,,,No,No,No,,116.369409962478,983.771861571666,No,85,757,HA-374, ,No
,,Freshwater Pond,0.857025921637255,Harwich,,Harwich,41.7123177011299,-70.0557315260039,,,,,,,No,No,No,,302.900162675645,3468.260855141,No,0,758,HA-1135,,No
 ,Open Water,Freshwater Pond,0.851773623734459,Brewster,,Brewster,41.7366589172494,-70.1387413492133,Not Indicated,,,,,,No,No,No,,308.514686234837,3447.00555964072,No,21,759,BR-273, ,No
 ,Open Water,Freshwater Pond,0.256167720333105,Brewster,,Brewster,41.738816587939,-70.0980396091141,Not Indicated,,,,,,No,No,No,,152.466602914039,1036.67398424159,No,81,760,BR-266, ,No
,Open Water,,0.405832848185142,East Falmouth,,Falmouth,41.5905851103594,-70.5481156821529,,,,,,,No,No,No,,151.65484324179,1642.34726809893,No,100,761,FA-1136,,No
 ,Open Water,Freshwater Pond,0.493290617755638,Mashpee,,Mashpee,41.6143288218654,-70.5222477007216,Not Indicated,,,,,,No,No,No,,185.491926262043,1996.27630457407,No,0,762,MA-900, ,No
 ,Open Water,Freshwater Pond,0.67252721052073,Hyannis,,Barnstable,41.6583436065938,-70.3199779523932,Not Indicated,,,,,,No,No,No,,199.542736853464,2721.62106113457,No,0,763,BA-726, ,No
 ,,Freshwater Pond,0.629569805958694,Centerville,,Barnstable,41.6636598560893,-70.3472453057237,Not Indicated,,,,,,No,No,No,,205.454664445911,2547.77861259306,No,0,764,BA-707, ,No
 ,Open Water,Freshwater Pond,0.848854010296231,Hyannis,,Barnstable,41.6698130455674,-70.3001174946792,Not Indicated,,,,,,No,No,No,,222.908925990428,3435.1903032473,No,0,765,BA-680, ,No
 ,Open Water,Freshwater Pond,0.868064754467345,Hyannis,,Barnstable,41.6735242306371,-70.2999829750976,Not Indicated,,,,,,No,No,No,,233.514927135092,3512.93342667525,No,0,766,BA-663, ,No
 ,,Freshwater Pond,2.18278101525619,Hyannis,,Barnstable,41.6745024981437,-70.2989669831752,Not Indicated,,,,,,No,No,No,,399.179571291644,8833.40137028232,No,0,767,BA-655, ,No
 ,Open Water,Freshwater Pond,0.447992049766508,East Falmouth,,Falmouth,41.6054560806301,-70.5901654349806,Not Indicated,,,,,,No,No,No,,157.091866806286,1812.95950378173,No,100,768,FA-910, ,No
 ,Open Water,Freshwater Pond,0.387972042447169,Centerville,,Barnstable,41.662802578133,-70.3453211998524,Not Indicated,,,,,,No,No,No,,151.319103937423,1570.06715168897,No,0,769,BA-712, ,No
 ,Open Water,Freshwater Pond,0.699939685057455,Hyannis,,Barnstable,41.6787835881614,-70.3172687922463,Not Indicated,,,,,,No,No,No,,211.075162088881,2832.55540976739,No,0,770,BA-623, ,No
 ,Open Water,Freshwater Pond,1.13369153202117,Hyannis,,Barnstable,41.6796079640283,-70.3170193172701,Not Indicated,,,,,,No,No,No,,283.334067522344,4587.88685738037,No,17,771,BA-613, ,No
,,,0.971819937461882,Yarmouthport,,Yarmouth,41.7039477649792,-70.214375534499,,,,,,,No,No,No,,256.854561013156,3932.81575533398,No,0,772,YA-1137,,No
 ,Open Water,Freshwater Pond,0.26519603626537,Falmouth,,Falmouth,41.5678429131163,-70.6392068506315,Not Indicated,,,,,,No,No,No,,127.968760388912,1073.21028255554,No,0,773,FA-967, ,No
,,,0.254232739282037,West Barnstable,,Barnstable,41.6936518839743,-70.3616276575061,,,,,,,Yes,No,No,,169.676801843053,1028.84339374786,No,6,774,BA-1138,,No
,,,0.345177663177214,Falmouth,,Falmouth,41.551279136139,-70.6500152893498,,,,,,,No,No,No,,166.081683698657,1396.88444309773,No,0,775,FA-1139,,No
,,,0.260611023125721,Marstons Mills,,Barnstable,41.6638545005525,-70.4191295084509,,,,,,,Yes,No,No,,128.742744363124,1054.65539268456,No,0,776,BA-1140,,No
,,,0.280213534151184,Brewster,,Brewster,41.7338641020166,-70.0007446580493,,,,,,,No,No,No,,125.492553107547,1133.98394032312,No,0,777,BR-1141,,No
,,,0.247321840597597,Mashpee,,Mashpee,41.6254574306203,-70.5263541974967,,,,,,,No,No,No,,128.751699348875,1000.87597902218,No,65,778,MA-1142,,No
 ,Open Water,Freshwater Pond,1.0963189725763,East Falmouth,,Falmouth,41.6308475395893,-70.579394166673,Not Indicated,,,,,,No,No,No,,291.042710914715,4436.64547516937,No,0,779,FA-836, ,No
,,Freshwater Pond,0.501312101707161,East Sandwich,,Sandwich,41.720408172068,-70.4059888281104,,,,,,,Yes,No,No,,191.467011369233,2028.73809842047,No,0,780,SA-1143,,No
 ,Open Water,Freshwater Pond,0.285523198626456,Brewster,,Brewster,41.7604836189072,-70.0746113684315,Not Indicated,,,,,,No,No,No,,142.535732917525,1155.47139010567,No,0,781,BR-193, ,No
 ,,,0.673197905886891,Orleans,,Orleans,41.7878820139464,-69.997915550092,Not Indicated,,,,,,No,No,No,,197.581606268856,2724.3352689846,No,0,782,OR-133, ,No
 ,Open Water,Freshwater Pond,3.19235123918361,East Falmouth,,Falmouth,41.6239737625204,-70.5524985007191,Not Indicated,,,,,,No,No,No,,611.668236721618,12918.9871148468,No,65,783,FA-858, ,No
 ,Open Water,Freshwater Pond,0.411564235076844,Mashpee,,Mashpee,41.6253055279403,-70.4581042071988,Not Indicated,,,,,,No,No,No,,174.328811440442,1665.54136795087,No,0,784,MA-851, ,No
 ,Open Water,Freshwater Pond,0.68097158743062,West Yarmouth,,Yarmouth,41.6790242917219,-70.2329524139558,Not Indicated,,,,,,No,No,No,,196.478328681299,2755.79424206553,No,100,785,YA-609, ,No
,Open Water,,0.618677691408532,East Falmouth,,Falmouth,41.5910743206925,-70.5469852052285,,,,,,,No,No,No,,204.560162839229,2503.69978887222,No,100,786,FA-1144,,No
,,,0.699839189418948,Mashpee,,Mashpee,41.647147894436,-70.4579723348591,,,,,,,Yes,No,No,,234.827094747898,2832.14871834728,No,100,787,MA-1145,,No
 ,Open Water,Freshwater Pond,0.6053751194411,Marstons Mills,,Barnstable,41.6734220091464,-70.4271021998773,Not Indicated,,,,,,Yes,No,No,,191.855589514394,2449.86619007138,No,0,788,BA-665, ,No
,Open Water,Freshwater Pond,0.352558005878198,Marstons Mills,,Barnstable,41.6737866021776,-70.4266245693321,,,,,,,Yes,No,No,,144.781982482811,1426.75163035672,No,0,789,BA-1146,,No
 ,Open Water,Freshwater Pond,0.462216409155125,Pocasset,,Bourne,41.6918851346431,-70.5898283043192,Not Indicated,,,,,,No,No,No,,176.479704638411,1870.52344392808,No,0,790,BO-547, ,No
 ,Open Water,Freshwater Pond,0.44003453776565,East Sandwich,,Sandwich,41.7371447057944,-70.394703924654,Not Indicated,,,,,,Yes,No,No,,187.107638517746,1780.75659523474,No,48,791,SA-283, ,No
 ,Open Water,Freshwater Pond,0.302645940581891,Falmouth,,Falmouth,41.5695192125391,-70.643233603465,Not Indicated,,,,,,No,No,No,,172.61670861662,1224.76466835711,No,0,792,FA-966, ,No
,Open Water,,0.287782551985922,Mashpee,,Mashpee,41.618868443136,-70.4655191679396,,,,,,,No,No,No,,163.916003402583,1164.61466875889,No,0,793,MA-1147,,No
 ,Open Water,Lake,2.41166141596566,Mashpee,,Mashpee,41.6267066161447,-70.5326691042065,Not Indicated,,,,,,No,No,No,,499.503028584499,9759.64748985492,No,1,794,MA-848, ,No
 ,,Freshwater Pond,3.62029746048348,East Falmouth,,Falmouth,41.630726397722,-70.5552801011628,Not Indicated,,,,,,No,No,No,,503.639632610642,14650.824028956,No,94,795,FA-834, ,No
 ,Open Water,Freshwater Pond,0.292770172858924,Buzzards Bay,,Bourne,41.6829967995606,-70.5893904598033,Not Indicated,,,,,,No,No,No,,143.671734607222,1184.79885432129,No,0,796,BO-607, ,No
,Open Water,,0.64407015695374,East Falmouth,,Falmouth,41.5917121954611,-70.5457279927041,,,,,,,No,No,No,,249.245883981532,2606.45945114442,No,100,797,FA-1148,,No
,,,0.232121288792978,Mashpee,,Mashpee,41.6168357791582,-70.4671508245954,,,,,,,No,No,No,,192.751197454859,939.361528327627,No,0,798,MA-1149,,No
 ,,,0.675708595201746,Mashpee,,Mashpee,41.6416785954298,-70.5307291303751,Not Indicated,,,,,,No,No,No,,234.75332884133,2734.49566816307,No,30,799,MA-796, ,No
 ,,Freshwater Pond,0.733513826650965,Mashpee,,Mashpee,41.6418354364619,-70.5320160717171,Not Indicated,,,,,,No,No,No,,249.604905273562,2968.42514030166,No,0,800,MA-794, ,No
 ,Open Water,Freshwater Pond,1.19276313010562,Hyannis,,Barnstable,41.6705305148474,-70.2931603308985,Not Indicated,,,,,,No,No,No,,375.873375042022,4826.94113346986,No,0,801,BA-676, ,No
 ,Open Water,Freshwater Pond,1.18966057739454,Marstons Mills,,Barnstable,41.6724113828261,-70.4374114798047,Not Indicated,,,,,,Yes,No,No,,369.04227019032,4814.38554810519,No,0,802,BA-672, ,No
 ,Open Water,Freshwater Pond,0.958051161170521,Centerville,,Barnstable,41.6782931332305,-70.3572636738343,Not Indicated,,,,,,No,No,No,,280.405800135119,3877.0954945707,No,0,803,BA-632, ,No
 ,Open Water,Freshwater Pond,6.95892601973501,West Barnstable,,Barnstable,41.6898605541463,-70.3642542650684,Not Indicated,,,,,,Yes,No,No,,879.220666032323,28161.7744559711,No,58,804,BA-542,Sandy Hill Pond,No
 ,Open Water,Freshwater Pond,1.42315597183043,Buzzards Bay,,Bourne,41.7330297413114,-70.5709715966359,Not Indicated,,,,,,No,No,No,,332.618029272387,5759.3078846789,No,100,805,BO-302,Deep Bottom Pond,No
 ,Open Water,Freshwater Pond,2.19107438095492,Buzzards Bay,,Bourne,41.7241369598631,-70.5777156934988,Not Indicated,,,,,,No,No,No,,367.197310599203,8866.96343052351,No,100,806,BO-343,Donnely Pond,No
 ,Open Water,Freshwater Pond,5.55330400675645,Orleans,,Orleans,41.798059052153,-69.9605353049552,Mesotrophic,,,,,,No,No,No,,628.827545080709,22473.423985282,No,37,807,OR-113,Ice House Pond,No
 ,Open Water,Freshwater Pond,10.8064282599751,Buzzards Bay,,Bourne,41.6854571169217,-70.5883429624545,Not Included,,,,,,No,No,No,,1292.31342237158,43732.0636070852,No,83,808,BO-578,Fish and Game Pond (South),Yes - not on State List
 ,Open Water,Freshwater Pond,0.783959162116429,Buzzards Bay,,Bourne,41.7261052603456,-70.5745144117615,Not Indicated,,,,,,No,No,No,,215.461117789665,3172.57017011019,No,100,809,BO-337,Little Halfway Pond,No
 ,Open Water,Freshwater Pond,1.12547266824335,Orleans,,Orleans,41.7954997132147,-69.9626646606134,Eutrophic,,,,2727.26923363589,5,No,No,No,,375.650301645229,4554.62629571626,No,29,810,OR-123,Reubens Pond,No
 ,Open Water,Freshwater Pond,0.667453886119919,Buzzards Bay,,Bourne,41.6529310389655,-70.5777844033081,Not Indicated,,,,,,No,No,No,,212.578509965362,2701.09004570023,No,0,811,BO-753,Spit Pond,No
 ,Open Water,Freshwater Pond,9.81681573316611,Marstons Mills,,Barnstable,41.6861998608863,-70.4185202669245,Eutrophic,,,,,,No,No,No,,914.488542557601,39727.2437972807,Yes,28,812,BA-564,Little Pond,No
 ,Open Water,Freshwater Pond,7.92319513347043,Buzzards Bay,,Bourne,41.6886954192437,-70.5859832912113,Not Indicated,,,,,,No,No,No,,1213.9394431099,32064.0331118132,No,100,813,BO-560,Fish and Game Pond (North),No
Duck,Open Water,Freshwater Pond,1.18913063535615,Orleans,,Orleans,41.7907050431956,-69.9552873250533,Not Indicated,,,,,,No,No,No,,409.129757115668,4812.24094876362,No,0,814,OR-129,Critchetts Pond,No
 ,Open Water,Freshwater Pond,0.719065372930605,Falmouth,,Falmouth,41.5584085200917,-70.6378993622736,Not Indicated,,,,,,No,No,No,,239.26733600037,2909.95432256967,No,2,815,FA-986,Two Ponds (South),No
 ,Open Water,Lake,735.859985229364,Mashpee,,Mashpee,41.6606659335225,-70.4867570224445,Mesotrophic,,,,56934878.7843112,90,Yes,Yes,Yes,,13014.6570762359,2977931.61892719,No,39,816,MA-634,Mashpee-Wakeby Pond,Yes - on State List
 ,Open Water,Lake,138.618179819364,Sandwich,,Sandwich,41.7001106123791,-70.4392565985725,Oligotrophic,,,,2238615.19743968,27,No,No,Yes,,4093.00129090077,560967.87126339,Yes,26,817,SA-431,Lawrence Pond,Yes - on State List
Punch Bowl,Open Water,Freshwater Pond,2.77399400214509,Falmouth,,Falmouth,41.5640177061893,-70.6357710856507,Not Indicated,,,,,,No,No,No,,422.725107546876,11225.9554432799,No,90,818,FA-974,Deep Pond,No
Osborne Pond,Open Water,Freshwater Pond,8.70936311924286,Buzzards Bay,,Bourne,41.6576161258946,-70.5723715705278,Not Indicated,,,,,5,No,No,Yes,,895.491711312283,35245.5420741217,No,0,819,BO-736,Osbourne Pond,No
 ,,Freshwater Pond,1.08903547237791,Buzzards Bay,,Bourne,41.6943469420999,-70.5565313119152,Not Indicated,,,,,,No,No,No,,271.41436086243,4407.17019561396,No,100,820,BO-529,Opening Pond,No
Succonessetts Pond,Open Water,Freshwater Pond,1.27410781634829,Buzzards Bay,,Bourne,41.7074782092761,-70.5511235820165,Not Indicated,,,,,,No,No,No,,263.409099689528,5156.1313994191,No,100,821,BO-415,Succonnessett Pond,No
 ,Open Water,Freshwater Pond,17.3058395627696,Forestdale,,Sandwich,41.6797823246247,-70.5237707626236,Mesotrophic,,,,,15,No,No,Yes,,1231.36032135104,70034.2479796183,No,20,822,SA-616,Weeks Pond,Yes - not on State List
 ,Open Water,Freshwater Pond,6.76770452731203,Buzzards Bay,,Bourne,41.6541824970697,-70.57208449942,Not Indicated,,,,,8,No,No,Yes,,807.879133139004,27387.9285312583,No,0,823,BO-745,Edmunds Pond,No
 ,Open Water,Lake,87.4643773803658,Forestdale,,Sandwich,41.6827582570678,-70.5201395033699,Oligotrophic,,,,2193107.99221776,33,No,No,Yes,,2954.87264070614,353955.777332951,No,0,824,SA-568,Snake Pond,Yes - on State List
 ,Open Water,Lake,673.12024735729,Centerville,,Barnstable,41.6717783661179,-70.3447805928148,Mesotrophic,,No,Yes,13354074.9933894,32,Yes,No,Yes,,19574.0716638872,2724020.99606533,No,3,825,BA-605,Wequaquet Lake,Yes - on State List
 ,Open Water,Freshwater Pond,0.801199450813119,Buzzards Bay,,Bourne,41.7310714758792,-70.5545477006679,Not Indicated,,,,,,No,No,No,,262.83872350766,3242.33914314642,No,100,826,BO-315,Baileys Pond,No
 ,Open Water,Freshwater Pond,13.4720460929538,East Falmouth,,Falmouth,41.5940012925402,-70.5328438793644,Not Included,,No,Yes,193715.866786664,22,No,No,Yes,No,1057.40080470479,54519.4362541388,No,37,827,FA-924,Fresh Pond,Yes - on State List
 ,,,3.74145984503813,Sandwich,,Sandwich,41.7439153497472,-70.4701263154243,Not Indicated,,,,,,Yes,No,No,,1357.81861328468,15141.1508030443,No,81,828,SA-259,Boiling Springs Pond,No
 ,Open Water,,3.59834894056518,North Falmouth,,Falmouth,41.6282334024416,-70.6375185511682,Not Indicated,,,,,,No,No,No,,753.947686059601,14562.0015201624,No,0,829,FA-844,Potters Hole,No
,Open Water,,16.0607808230719,Cotuit,,Barnstable,41.599566518743,-70.445178225723,Not Included,,,,,,No,No,Yes,,2071.49484270168,64995.6740226072,No,1,830,BA-914,Rushy Marsh Pond,Yes - on State List
 ,,,0.873333600614482,Buzzards Bay,,Bourne,41.6861198554673,-70.5899066149575,Not Indicated,,,,,,No,No,No,,300.117514099782,3534.25569054443,No,44,831,BO-576, ,No
,Open Water,Freshwater Pond,0.56132185707601,Yarmouthport,,Barnstable,41.6992124837364,-70.2663912505491,,,,,,,No,No,No,,202.511232023802,2271.58896234155,No,0,832,BA-1150,,No
,,,0.799064684293215,Sandwich,,Sandwich,41.7418885341524,-70.4972663002405,,,,,,,No,No,No,,421.820494145115,3233.70004954502,No,100,833,SA-1151,,No
 ,Open Water,Freshwater Pond,0.772988837070041,Brewster,,Brewster,41.775407660822,-70.0170813919069,Not Indicated,,,,,,No,No,No,,210.499944403782,3128.1748397404,No,0,834,BR-156, ,No
 ,Open Water,Freshwater Pond,0.265386628131022,Orleans,,Orleans,41.7993982905014,-69.962094935085,Not Indicated,,,,,,No,No,No,,144.013376391873,1073.98158047111,No,69,835,OR-112, ,No
 ,Open Water,,0.498166499293671,Orleans,,Orleans,41.7678983814581,-69.9403597272061,Not Indicated,,,,,,No,No,No,,181.202061475969,2016.00829709112,No,100,836,OR-166, ,No
 ,Open Water,Freshwater Pond,0.583506575825794,Orleans,,Orleans,41.7838955258334,-69.9570234632186,Not Indicated,,,,,,No,No,No,,282.452961354736,2361.36733389325,No,0,837,OR-137, ,No
 ,Open Water,Freshwater Pond,0.427510873496956,Orleans,,Orleans,41.7836060348518,-69.9583071561536,Not Indicated,,,,,,No,No,No,,168.377950305181,1730.07512405699,No,0,838,OR-138, ,No
 ,Open Water,Freshwater Pond,0.298700419826343,East Falmouth,,Falmouth,41.6121562218596,-70.597956457162,Not Indicated,,,,,,No,No,No,,138.524082622112,1208.79771234781,No,0,839,FA-903, ,No
,Open Water,Freshwater Pond,1.37045528137592,West Yarmouth,,Yarmouth,41.6856426329025,-70.2300145253664,,,,,,,No,No,No,,329.07210236013,5546.03575704816,No,80,840,YA-1152,,No
 ,,,0.283575763133314,West Barnstable,,Barnstable,41.6904163150348,-70.3711486601692,Not Indicated,,,,,,Yes,No,No,,133.457878528646,1147.59039827303,No,0,841,BA-541, ,No
 ,Open Water,Freshwater Pond,3.23907319513523,Centerville,,Barnstable,41.6779970157573,-70.3617538732249,Not Indicated,,,,,,No,No,No,,738.854642811121,13108.0641623567,No,15,842,BA-636, ,No
 ,Open Water,Freshwater Pond,0.621712930363529,Barnstable,,Barnstable,41.6817771845289,-70.3034082944556,Not Indicated,,,,,,No,No,No,,337.922825135933,2515.98296513077,No,0,843,BA-590, ,No
 ,Open Water,Freshwater Pond,0.817618844397506,West Yarmouth,,Yarmouth,41.6798429031732,-70.2324381284148,Not Indicated,,,,,,No,No,No,,210.515469285625,3308.78607152531,No,100,844,YA-604, ,No
 ,Open Water,Freshwater Pond,0.294953750449734,Yarmouthport,,Yarmouth,41.7100799166073,-70.2139792867185,Not Indicated,,,,,,No,No,No,,138.195126875119,1193.63547931847,No,0,845,YA-380, ,No
 ,Open Water,Freshwater Pond,0.341087997055148,Buzzards Bay,,Bourne,41.7294067912981,-70.592733475478,Not Indicated,,,,,,No,No,No,,149.410160605791,1380.33415148618,No,0,846,BO-327, ,No
 ,,Freshwater Pond,1.35456192612956,Mashpee,,Mashpee,41.6497265969169,-70.4850729678191,Not Indicated,,,,,,No,No,No,,428.941515188748,5481.71763029592,No,34,848,MA-765, ,No
 ,Open Water,Freshwater Pond,0.717196755160795,East Sandwich,,Sandwich,41.7400792829816,-70.4517924946444,Not Indicated,,,,,,No,No,No,,211.655840530048,2902.3922947469,No,0,849,SA-274, ,No
 ,Open Water,Freshwater Pond,1.30019636087097,Brewster,,Brewster,41.7433237248251,-70.1039518362843,Not Indicated,,,,,,No,No,No,,397.114079452593,5261.70799337181,No,21,850,BR-250, ,No
 ,Open Water,Freshwater Pond,0.460442554335509,Mashpee,,Mashpee,41.6275619008409,-70.4568144818152,Not Indicated,,,,,,No,No,No,,160.147121070712,1863.34490815892,No,0,851,MA-842, ,No
 ,,Freshwater Pond,2.94929480880437,West Barnstable,,Barnstable,41.6910792016348,-70.372422820161,Not Indicated,,,,,,No,No,No,,559.433923359347,11935.372638561,No,0,852,BA-533, ,No
 ,,,0.287748935037352,Buzzards Bay,,Bourne,41.7869872377976,-70.5455735332155,Not Indicated,,,,,,Yes,No,No,,178.436537536071,1164.47862579467,No,0,853,BO-141, ,No
 ,,,2.58772360205118,Centerville,,Barnstable,41.6780701477212,-70.3650680879714,Not Indicated,,,,,,No,No,No,,411.889397909257,10472.1458783569,No,13,854,BA-633, ,No
 ,Open Water,Freshwater Pond,0.738105653823748,Buzzards Bay,,Bourne,41.787293490275,-70.5445615771779,Not Indicated,,,,,,Yes,No,No,,267.608586958371,2987.00760558639,No,0,855,BO-140, ,No
,,,0.738755055370753,Mashpee,,Mashpee,41.6232329971097,-70.4657490782354,,,,,,,No,No,No,,365.915971689519,2989.6356404076,No,0,856,MA-1154,,No
,Open Water,Freshwater Pond,2.35787063095482,Harwich,,Harwich,41.7268243199098,-70.0000244828339,,,,,,,No,No,No,,399.422292591894,9541.96390606787,No,0,858,HA-1156,,No
,Open Water,Freshwater Pond,0.64417447031473,Brewster,,Brewster,41.7327473245966,-70.0025243899103,,,,,,,No,No,No,,196.997041220517,2606.88159233928,No,0,859,BR-1157,,No
 ,Open Water,Freshwater Pond,0.269256223923963,Brewster,,Brewster,41.7341373100625,-70.0120570433765,Not Indicated,,,,,,No,No,No,,133.777795194325,1089.64127905786,No,100,860,BR-280, ,No
,,,1.43187061047482,Buzzards Bay,,Sandwich,41.6680010079453,-70.5297871187898,,,,,,,No,No,No,,494.533827673642,5794.57477604582,No,60,861,SA-1158,,No
,,Freshwater Pond,2.22077735331994,East Falmouth,,Falmouth,41.6279081511189,-70.593053922949,,,,,,,No,No,No,,479.965663369052,8987.16709500329,No,92,862,FA-1159,,No
 ,Open Water,Freshwater Pond,0.411758729215551,Mashpee,,Mashpee,41.6323003493388,-70.4552422043347,Not Indicated,,,,,,No,No,No,,189.842040940633,1666.32845780522,No,0,863,MA-831, ,No
 ,,Freshwater Pond,1.99000237890436,Forestdale,,Sandwich,41.6777960448061,-70.520569520252,Not Indicated,,,,,,No,No,No,,515.469446130538,8053.2539076604,No,0,864,SA-647, ,No
,,,0.348928641192367,East Sandwich,,Sandwich,41.7483473836963,-70.4641592134342,,,,,,,No,No,No,,140.772156524771,1412.06411256864,No,0,865,SA-1160,,No
,Open Water,,0.315558278032321,Yarmouthport,,Yarmouth,41.7148969544775,-70.2164409589217,,,,,,,No,No,No,,139.119457362061,1277.01904409658,No,20,866,YA-1161,,No
,Open Water,Freshwater Pond,1.73763516492797,Brewster,,Brewster,41.7300473292768,-70.0034389152724,,,,,,,No,No,No,,320.680281556721,7031.96002697683,No,0,867,BR-1162,,No
,Open Water,Freshwater Pond,0.421936503927421,Brewster,,Brewster,41.7327324610955,-70.0091985236507,,,,,,,No,No,No,,158.039928823421,1707.51645076369,No,98,868,BR-1163,,No
 ,Open Water,Freshwater Pond,1.22343601331259,Marstons Mills,,Barnstable,41.6792754516738,-70.3950667299789,Not Indicated,,,,,,No,No,No,,391.268517397257,4951.0698878695,No,76,869,BA-624, ,No
,Open Water,Freshwater Pond,0.250940502457354,Mashpee,,Mashpee,41.6254108335235,-70.5072714180414,,,,,,,No,No,No,,134.096086009084,1015.52018400983,No,0,870,MA-1164,,No
,Open Water,Freshwater Pond,0.314140869510657,Mashpee,,Mashpee,41.627223272009,-70.5087215856704,,,,,,,No,No,No,,146.575022092411,1271.28299531752,No,0,871,MA-1165,,No
,Open Water,Freshwater Pond,0.627777975243848,Mashpee,,Mashpee,41.6258475471428,-70.5098312099727,,,,,,,No,No,No,,220.278246378745,2540.52733095683,No,0,872,MA-1166,,No
,,,0.271245157573132,Orleans,,Orleans,41.7857549170019,-69.9508049896628,,,,,,,No,No,No,,132.189250533444,1097.69020796973,No,1,873,OR-1167,,No
 ,,,0.246543496043355,West Barnstable,,Barnstable,41.6999159295642,-70.3902596344349,Not Indicated,,,,,,No,No,No,,126.355445138395,997.726130364002,No,0,874,BA-466, ,No
 ,Open Water,Freshwater Pond,0.288202134541137,West Barnstable,,Barnstable,41.6934085782287,-70.3393471445287,Not Indicated,,,,,,No,No,No,,146.307741723607,1166.31265911719,No,0,875,BA-519, ,No
 ,Open Water,Freshwater Pond,0.422621001453191,West Barnstable,,Barnstable,41.6833024848341,-70.3897465434151,Not Indicated,,,,,,No,No,No,,154.295742191053,1710.28651397196,No,0,876,BA-591, ,No
 ,Open Water,Freshwater Pond,0.720282293166618,Dennis,,Dennis,41.7290576708802,-70.1826451316853,Not Indicated,,,,,,No,No,No,,235.266318190285,2914.87902404233,No,100,877,DE-308, ,No
 ,Open Water,,0.476770659636171,Brewster,,Brewster,41.7526663183633,-70.0607314096955,Not Indicated,,,,,,No,No,No,,176.408672925903,1929.42240596052,No,0,878,BR-211, ,No
 ,Open Water,Freshwater Pond,1.10227878186722,East Falmouth,,Falmouth,41.6263973198206,-70.5985986703545,Not Indicated,,,,,,No,No,No,,271.578882309445,4460.7639676746,No,0,879,FA-852, ,No
 ,Open Water,Freshwater Pond,0.493436304678965,Dennis,,Dennis,41.7281419989097,-70.1830139944181,Not Indicated,,,,,,No,No,No,,176.366422511192,1996.86587863539,No,98,880,DE-312, ,No
 ,Open Water,Freshwater Pond,0.695270840380318,Sandwich,,Sandwich,41.7417351477198,-70.4922237660012,Not Indicated,,,,,,No,No,No,,203.109883968872,2813.66126570054,No,99,881,SA-271, ,No
 ,Open Water,Freshwater Pond,0.881516686623702,East Sandwich,,Sandwich,41.7182603483042,-70.4473001249797,Not Indicated,,,,,,No,No,No,,287.999122225352,3567.3714647159,No,100,882,SA-362, ,No
,,Freshwater Pond,1.78325810297594,East Falmouth,,Falmouth,41.632922792407,-70.5937497225325,,,,,,,No,No,No,,355.470081076098,7216.58950682503,No,100,883,FA-1168,,No
,,Freshwater Pond,0.3171908430774,East Sandwich,,Sandwich,41.7259568687338,-70.4715803333452,,,,,,,No,No,No,,142.610458559693,1283.62580043425,No,36,884,SA-1169,,No
 ,,,12.0878411221699,Mashpee,,Mashpee,41.5679323576235,-70.4676395621238,Not Indicated,,,,,,No,No,No,,2136.33106675385,48917.7574782041,No,0,885,MA-957,Deans Pond,Yes - not on State List
 ,,,1.4561741254951,West Yarmouth,,Yarmouth,41.6564792803304,-70.2238688175074,Not Indicated,,,,,,No,No,No,,704.464854104161,5892.92761189255,No,74,886,YA-730, ,No
 ,,Freshwater Pond,0.317224413840698,Harwich,,Harwich,41.6910061427236,-70.0299242208361,Not Indicated,,,,,,No,No,No,,135.913845392418,1283.76165649331,No,85,887,HA-512, ,No
 ,,,0.994919467232846,Centerville,,Barnstable,41.6686049217188,-70.3457362749635,Not Indicated,,,,,,No,No,No,,289.817746909073,4026.29623574203,No,0,888,BA-688, ,No
 ,,,0.365715583050552,West Barnstable,,Barnstable,41.6915720628416,-70.3815602190047,Not Indicated,,,,,,No,No,No,,152.693693530334,1479.99845603989,No,5,889,BA-534, ,No
 ,Open Water,Freshwater Pond,0.760970212888789,Buzzards Bay,,Bourne,41.7199496708531,-70.6011138419179,Not Indicated,,,,,,No,No,No,,275.814188560328,3079.53719328409,No,1,890,BO-360, ,No
 ,,,1.19055944762943,Provincetown,,Provincetown,42.0676293356265,-70.2016199316611,Not Indicated,,,,,,No,No,No,,297.171687573313,4818.02314688814,No,100,891,PR-4, ,No
,,,110.078891030179,Marstons Mills,,Barnstable,41.671258,-70.415952,,,,,1598525.11061053,30,No,No,Yes,,3950.52886483803,445473.46713615,No,11,892,BA-640,Middle Pond,Yes - on State List
